{
"type": "FeatureCollection",
"name": "Compactor",
"crs": { "type": "name", "properties": { "name": "urn:ogc:def:crs:OGC:1.3:CRS84" } },
"features": [
{"type":"Feature","properties":{"ele":28.052,"time":"2026-07-18T16:50:25Z","magvar":null,"geoidheight":null,"name":"Compactor","cmt":null,"desc":null,"src":null,"url":null,"urlname":null,"sym":null,"type":null,"fix":null,"sat":14,"hdop":null,"vdop":null,"pdop":null,"ageofdgpsdata":null,"dgpsid":null},"geometry":{"type":"Point","coordinates":[-80.164565,26.41607333,28.052]}}
]
}
