{
"type": "FeatureCollection",
"name": "Station3",
"crs": { "type": "name", "properties": { "name": "urn:ogc:def:crs:OGC:1.3:CRS84" } },
"features": [
{"type":"Feature","properties":{"ele":16.629,"time":"2026-07-18T17:06:28Z","magvar":null,"geoidheight":null,"name":"Site3","cmt":null,"desc":null,"src":null,"url":null,"urlname":null,"sym":null,"type":null,"fix":null,"sat":14,"hdop":null,"vdop":null,"pdop":null,"ageofdgpsdata":null,"dgpsid":null},"geometry":{"type":"Point","coordinates":[-80.17012167,26.41656833,16.629]}}
]
}
