{
"type": "FeatureCollection",
"name": "Station2",
"crs": { "type": "name", "properties": { "name": "urn:ogc:def:crs:OGC:1.3:CRS84" } },
"features": [
{"type":"Feature","properties":{"ele":11.839,"time":"2026-07-18T13:53:51Z","magvar":null,"geoidheight":null,"name":"Station 2","cmt":null,"desc":null,"src":null,"url":null,"urlname":null,"sym":null,"type":null,"fix":null,"sat":17,"hdop":null,"vdop":null,"pdop":null,"ageofdgpsdata":null,"dgpsid":null},"geometry":{"type":"Point","coordinates":[-80.16668333,26.40988833,11.839]}}
]
}
