{
"type": "FeatureCollection",
"name": "Station1",
"crs": { "type": "name", "properties": { "name": "urn:ogc:def:crs:OGC:1.3:CRS84" } },
"features": [
{"type":"Feature","properties":{"ele":9.105,"time":"2026-07-18T13:15:14Z","magvar":null,"geoidheight":null,"name":"Station 1","cmt":null,"desc":null,"src":null,"url":null,"urlname":null,"sym":null,"type":null,"fix":null,"sat":13,"hdop":null,"vdop":null,"pdop":null,"ageofdgpsdata":null,"dgpsid":null},"geometry":{"type":"Point","coordinates":[-80.154639, 26.413306]}}
]
}
