{
"type": "FeatureCollection",
"name": "Track_ST_1_2",
"crs": { "type": "name", "properties": { "name": "urn:ogc:def:crs:OGC:1.3:CRS84" } },
"features": [
{"type":"Feature","properties":{"name":"Track 20260718-091510","cmt":null,"desc":null,"src":null,"link1_href":null,"link1_text":null,"link1_type":null,"link2_href":null,"link2_text":null,"link2_type":null,"number":null,"type":null},"geometry":{"type":"MultiLineString","coordinates":[[[-80.15274333,26.42361667,8.905],[-80.152745,26.42362,9.005],[-80.15274833,26.42362,9.105],[-80.15274833,26.42361333,9.105],[-80.15274333,26.42360833,9.105],[-80.15274167,26.42360333,9.105],[-80.15274667,26.423605,9.105],[-80.15275,26.42360667,9.105],[-80.15275167,26.423605,9.205],[-80.15275667,26.423605,9.304],[-80.15276667,26.423615,9.304],[-80.152775,26.42362333,9.304],[-80.15278,26.42363,9.104],[-80.15278333,26.42363833,9.204],[-80.15278833,26.42364167,9.304],[-80.15279,26.42364,9.304],[-80.15279,26.42363833,9.304],[-80.15279167,26.42363667,9.304],[-80.15279333,26.42363833,9.304],[-80.15279333,26.42364,9.204],[-80.15279667,26.42364167,9.204],[-80.15279333,26.42364167,9.204],[-80.15279167,26.42364333,9.104],[-80.15279167,26.42364333,9.104],[-80.15279167,26.42364333,9.104],[-80.15279167,26.42364333,9.104],[-80.15279167,26.42364333,9.104],[-80.15279167,26.42364333,9.104],[-80.15279167,26.42364333,9.104],[-80.15279167,26.42364333,9.104],[-80.15279167,26.42364333,9.104],[-80.15279167,26.42364333,9.104],[-80.15279167,26.42364333,9.104],[-80.15279167,26.42364333,9.104],[-80.15279167,26.42364333,9.104],[-80.15279167,26.42364333,9.104],[-80.15279167,26.42364333,9.104],[-80.15279167,26.42364333,9.104],[-80.15279167,26.42364333,9.104],[-80.15279167,26.42364333,9.104],[-80.15279167,26.42364333,9.104],[-80.15279167,26.42364333,9.104],[-80.15279167,26.42364333,9.104],[-80.15279167,26.42364333,9.104],[-80.15279167,26.42364333,9.104],[-80.15279167,26.42364333,9.104],[-80.15279167,26.42364333,9.104],[-80.15279167,26.42364333,9.104],[-80.15279167,26.42364333,9.104],[-80.15279167,26.42364333,9.104],[-80.15279167,26.42364333,9.104],[-80.15279167,26.42364333,9.104],[-80.15279167,26.42364333,9.104],[-80.15279167,26.42364333,9.104],[-80.15279167,26.42364333,9.104],[-80.15279167,26.42364333,9.104],[-80.15279167,26.42364333,9.104],[-80.15279167,26.42364333,9.104],[-80.15279167,26.42364333,9.104],[-80.15279167,26.42364333,9.104],[-80.15279167,26.42364333,9.104],[-80.15279167,26.42364333,9.104],[-80.15279167,26.42364333,9.104],[-80.15279167,26.42364333,9.104],[-80.15279167,26.42364333,9.104],[-80.15279167,26.42364333,9.104],[-80.15279167,26.42364333,9.104],[-80.15279167,26.42364333,9.104],[-80.15279167,26.42364333,9.104],[-80.15279167,26.42364333,9.104],[-80.15279167,26.42364333,9.104],[-80.15279167,26.42364333,9.104],[-80.15279167,26.42364333,9.104],[-80.15279167,26.42364333,9.104],[-80.15279167,26.42364333,9.104],[-80.15279167,26.42364333,9.104],[-80.15279167,26.42364333,9.104],[-80.15279167,26.42364333,9.104],[-80.15279167,26.42364333,9.104],[-80.15279167,26.42364333,9.104],[-80.15279167,26.42364333,9.104],[-80.15279167,26.42364333,9.104],[-80.15279667,26.423645,10.304],[-80.152795,26.42364333,10.404],[-80.152795,26.42364333,10.004],[-80.15279333,26.42364333,9.604],[-80.15279333,26.42364333,9.604],[-80.15279333,26.42364333,9.604],[-80.15279333,26.42364333,9.604],[-80.15279333,26.42364333,9.604],[-80.15279333,26.42364333,9.604],[-80.15279333,26.42364333,9.604],[-80.15279333,26.42364333,9.604],[-80.15279333,26.42364333,9.604],[-80.15279333,26.42364333,9.604],[-80.15279333,26.42364333,9.604],[-80.15279333,26.42364333,9.604],[-80.15279333,26.42364333,9.604],[-80.15279333,26.42364333,9.604],[-80.15279333,26.42364333,9.604],[-80.15279333,26.42364333,9.604],[-80.15279333,26.42364333,9.604],[-80.15280833,26.42361,10.404],[-80.15281,26.42360667,10.604],[-80.15280667,26.42360167,10.704],[-80.15280167,26.42359667,10.904],[-80.15279833,26.42359,11.104],[-80.15279667,26.42358,11.304],[-80.152795,26.42357167,11.604],[-80.152795,26.42356333,11.904],[-80.15279833,26.423555,12.004],[-80.15279333,26.42354667,11.904],[-80.15279167,26.42354167,11.704],[-80.15278667,26.423535,11.304],[-80.15278333,26.423525,10.904],[-80.15277833,26.42351667,10.604],[-80.15278333,26.42350833,10.104],[-80.15279,26.42350167,9.804],[-80.15279167,26.42349333,9.404],[-80.15280333,26.423485,9.304],[-80.152815,26.42347833,9.404],[-80.15282667,26.423475,9.404],[-80.15283833,26.42346833,9.504],[-80.15284833,26.42346,9.604],[-80.15285333,26.423455,9.604],[-80.15285667,26.42344833,9.404],[-80.152865,26.42344167,9.204],[-80.15287167,26.423435,9.204],[-80.15287833,26.42342833,9.204],[-80.15288667,26.42341833,9.004],[-80.15289167,26.42341333,9.004],[-80.15290167,26.42340833,9.204],[-80.15291,26.42340167,9.404],[-80.15291667,26.42339667,9.304],[-80.152925,26.423385,8.904],[-80.152935,26.423375,8.604],[-80.152945,26.42336833,8.304],[-80.15295833,26.42335667,8.104],[-80.15297,26.42334667,8.103],[-80.15298167,26.42333667,8.203],[-80.15299167,26.42332833,8.403],[-80.15300667,26.42331833,8.303],[-80.15302167,26.42330667,8.303],[-80.15303333,26.42329833,8.203],[-80.153045,26.42329333,8.103],[-80.15305667,26.42329167,7.903],[-80.15306833,26.42328667,7.703],[-80.15308333,26.42327667,7.403],[-80.15310333,26.42327667,7.803],[-80.15312,26.423275,7.603],[-80.15313667,26.42326333,7.403],[-80.15315333,26.42325667,7.103],[-80.15317,26.423245,6.903],[-80.15318833,26.42323833,6.903],[-80.15320333,26.42323333,6.802],[-80.15321667,26.42322167,6.802],[-80.15322667,26.42321333,7.002],[-80.15323667,26.42320333,7.402],[-80.15324333,26.423195,7.802],[-80.15324667,26.423185,8.202],[-80.15324333,26.42317167,8.502],[-80.15324167,26.42316167,8.702],[-80.15324167,26.42315333,8.902],[-80.15324333,26.42314667,8.902],[-80.15323833,26.42314167,8.902],[-80.15323333,26.42313,9.002],[-80.15322833,26.42311833,9.202],[-80.15322333,26.42310333,9.302],[-80.153215,26.42308333,9.602],[-80.15320833,26.42306167,10.002],[-80.15320667,26.42304333,10.102],[-80.15320667,26.42302667,10.602],[-80.15320167,26.42301,11.102],[-80.153205,26.422995,11.802],[-80.15321,26.42298,11.802],[-80.15321167,26.42297,11.802],[-80.15321167,26.42296,11.602],[-80.153215,26.422945,11.602],[-80.15321167,26.42293333,11.602],[-80.15321167,26.42291667,11.802],[-80.15321833,26.42291,11.702],[-80.15322,26.422895,11.902],[-80.15322333,26.42287667,11.802],[-80.15321833,26.42286167,11.602],[-80.15321167,26.422845,11.702],[-80.15321,26.42282833,12.202],[-80.15321,26.42281167,12.902],[-80.15320333,26.422795,13.102],[-80.15319833,26.42277833,13.002],[-80.153195,26.42276333,13.302],[-80.15319667,26.42275667,12.802],[-80.15320167,26.422745,12.202],[-80.15321,26.42273167,11.802],[-80.15321667,26.42271,11.902],[-80.15321833,26.42269833,11.602],[-80.15321,26.42268667,11.102],[-80.1532,26.42267333,10.602],[-80.15318833,26.42266667,9.902],[-80.15317167,26.42266167,9.302],[-80.15315333,26.42265833,8.802],[-80.15313667,26.422655,8.302],[-80.15312167,26.42265,8.002],[-80.15310333,26.422645,7.503],[-80.15308833,26.42263833,7.103],[-80.15307167,26.42262833,7.403],[-80.153055,26.42262,6.803],[-80.15303833,26.42261333,6.203],[-80.15302167,26.422605,5.903],[-80.15300333,26.42259667,5.303],[-80.15298667,26.42258667,5.403],[-80.15297,26.422575,5.203],[-80.15295333,26.42256333,5.103],[-80.15293667,26.422555,5.103],[-80.15292167,26.42254667,5.403],[-80.15291,26.42253667,5.803],[-80.15289333,26.422525,5.903],[-80.15288,26.42251333,5.703],[-80.152865,26.42250333,5.503],[-80.15285167,26.42249,5.503],[-80.152835,26.42247667,5.504],[-80.15282,26.422465,6.004],[-80.152805,26.422455,7.104],[-80.15279167,26.42244167,7.304],[-80.15278333,26.42242833,7.204],[-80.15277333,26.42241333,6.904],[-80.152765,26.42240167,6.604],[-80.15274167,26.42239167,6.604],[-80.152725,26.42237667,7.004],[-80.152715,26.42236167,7.404],[-80.15270167,26.42234833,7.204],[-80.15269,26.42233667,7.204],[-80.15267667,26.422325,7.104],[-80.15266167,26.42231333,6.904],[-80.15265,26.42230333,7.204],[-80.15264,26.42228833,7.404],[-80.15263,26.42227167,7.804],[-80.15261833,26.42226,7.704],[-80.15260667,26.422245,7.604],[-80.15259833,26.42223,7.404],[-80.152585,26.42221167,7.604],[-80.15257333,26.42219667,7.704],[-80.152565,26.42218167,7.804],[-80.15255667,26.42216333,7.805],[-80.15254833,26.42214667,7.505],[-80.15254167,26.42213167,7.205],[-80.152535,26.42211667,7.205],[-80.15252667,26.42210167,7.005],[-80.15252,26.42208667,7.005],[-80.15251333,26.42207167,7.205],[-80.15250667,26.42206,7.405],[-80.1525,26.42205,7.905],[-80.15249333,26.42203833,7.805],[-80.15248833,26.42202167,7.405],[-80.152485,26.422005,7.405],[-80.15248,26.42198833,7.505],[-80.15247667,26.42196667,7.405],[-80.15247333,26.42194667,7.405],[-80.15246833,26.42193167,7.705],[-80.15246667,26.421915,7.605],[-80.15246667,26.42189833,7.305],[-80.15246333,26.42188167,6.905],[-80.15246167,26.421865,6.805],[-80.15246,26.42184667,6.705],[-80.15245833,26.42183,6.605],[-80.15245667,26.42181167,6.205],[-80.152455,26.42179333,6.205],[-80.15245333,26.42177333,6.105],[-80.15245,26.421755,6.105],[-80.15245,26.42173833,6.005],[-80.15245,26.42172333,6.105],[-80.15244833,26.421705,6.305],[-80.15244833,26.42168833,6.205],[-80.152445,26.42167333,6.005],[-80.15244667,26.42166,5.905],[-80.15244333,26.42164,5.805],[-80.152445,26.42162167,6.005],[-80.152445,26.42160667,6.005],[-80.152445,26.42159,5.905],[-80.15244667,26.42157167,5.905],[-80.152445,26.421555,5.905],[-80.15244667,26.42153833,6.205],[-80.15244833,26.42152,6.505],[-80.15245333,26.42150333,6.905],[-80.152455,26.42148833,7.405],[-80.15245833,26.421475,7.705],[-80.152455,26.42145833,7.305],[-80.15245167,26.42144,6.605],[-80.15245,26.42142167,6.005],[-80.15244833,26.42140333,5.505],[-80.15245,26.421385,5.405],[-80.15245333,26.42136833,5.204],[-80.15245167,26.42135167,5.104],[-80.15245167,26.421335,5.004],[-80.15244833,26.42132167,4.704],[-80.15244333,26.421305,4.304],[-80.152445,26.421285,4.504],[-80.152445,26.421265,4.204],[-80.152445,26.42124667,4.004],[-80.15244333,26.42123167,4.404],[-80.15244,26.42121333,4.904],[-80.15243667,26.42119833,5.704],[-80.152435,26.42118,6.504],[-80.15243667,26.421165,6.804],[-80.15243667,26.42115,6.704],[-80.15244167,26.421135,6.604],[-80.15244167,26.42112,6.604],[-80.15244333,26.421105,6.604],[-80.15244333,26.42108833,6.604],[-80.15244333,26.42107,6.804],[-80.15244333,26.42105333,6.504],[-80.15244,26.42103667,6.304],[-80.15243833,26.42102,6.104],[-80.15243667,26.42100333,6.004],[-80.15243833,26.42098333,6.004],[-80.15244,26.42096333,6.204],[-80.15244167,26.42094333,6.104],[-80.15244167,26.42092833,5.904],[-80.15244,26.42091167,5.904],[-80.15244,26.420895,5.804],[-80.15243667,26.42087667,5.804],[-80.15243333,26.42085833,5.604],[-80.15243333,26.42084,5.504],[-80.15243167,26.42082333,5.104],[-80.15243,26.420805,5.004],[-80.15242833,26.42078833,4.804],[-80.15242667,26.42077167,4.704],[-80.15243,26.42075333,4.604],[-80.15243167,26.42073667,4.504],[-80.15243,26.42072,4.604],[-80.15243,26.42070167,4.804],[-80.15243,26.42068667,4.904],[-80.15243,26.42066833,5.204],[-80.15243167,26.42064833,5.204],[-80.152435,26.420625,5.004],[-80.15243833,26.42060667,5.304],[-80.15244,26.42059,5.604],[-80.15244167,26.42057333,5.904],[-80.15243833,26.42055667,5.804],[-80.15243667,26.42053833,5.504],[-80.15243167,26.42052333,5.304],[-80.15243,26.42051167,5.104],[-80.15243,26.42049833,5.204],[-80.15243333,26.420485,5.004],[-80.15243333,26.42047,5.104],[-80.15243333,26.42045333,5.004],[-80.15243667,26.42043333,5.104],[-80.15244,26.42041833,5.304],[-80.15243833,26.42040167,5.404],[-80.15243833,26.42038333,5.904],[-80.15243833,26.420365,6.104],[-80.15243833,26.420345,6.204],[-80.15243667,26.42032833,6.104],[-80.15243667,26.42031,5.904],[-80.152435,26.420295,5.904],[-80.152435,26.42028,6.104],[-80.15243333,26.42026333,6.204],[-80.15243167,26.42024833,6.304],[-80.15243,26.420235,6.704],[-80.15242833,26.42021667,7.204],[-80.15242833,26.42019833,7.504],[-80.15242833,26.42018333,7.604],[-80.15242667,26.42016667,7.804],[-80.15242333,26.42014833,7.804],[-80.15242,26.42013167,7.704],[-80.15241833,26.420115,7.304],[-80.15241833,26.4201,7.204],[-80.15241833,26.420085,7.104],[-80.15241667,26.42007167,7.004],[-80.15241667,26.42005667,6.804],[-80.15241667,26.42004,6.704],[-80.15241667,26.42002333,6.704],[-80.15241667,26.42000667,6.604],[-80.15242,26.41998833,6.404],[-80.15242333,26.41997,6.104],[-80.15242833,26.41995167,5.804],[-80.15243167,26.41993333,5.304],[-80.15243333,26.419915,5.204],[-80.15243667,26.41989667,5.104],[-80.15244333,26.41988333,5.104],[-80.15245,26.419865,5.004],[-80.15245667,26.41984833,4.804],[-80.15246333,26.41982833,5.004],[-80.15246833,26.41981167,5.604],[-80.15247167,26.4198,6.204],[-80.152475,26.41978333,6.904],[-80.15248167,26.419765,6.803],[-80.152485,26.41974667,6.603],[-80.15249167,26.41973167,6.403],[-80.15250167,26.41971667,6.303],[-80.15251167,26.41970333,6.003],[-80.15252333,26.41969167,5.803],[-80.15253167,26.419675,5.503],[-80.15254333,26.41966167,5.103],[-80.15255167,26.41964667,5.103],[-80.15256,26.41963,5.203],[-80.15257,26.41961333,5.203],[-80.15258333,26.41959667,5.303],[-80.15259667,26.41958167,5.203],[-80.15261167,26.41956833,5.203],[-80.15262667,26.41955667,5.203],[-80.15264,26.41954833,4.803],[-80.15266,26.41953833,4.903],[-80.15267833,26.41953,4.903],[-80.15269333,26.41951833,5.102],[-80.15270667,26.419505,5.302],[-80.15272167,26.419495,5.402],[-80.15273833,26.419485,5.502],[-80.152755,26.41947167,6.002],[-80.15277,26.41945833,6.402],[-80.15278667,26.41944667,6.602],[-80.15280333,26.419435,6.602],[-80.15282,26.41942667,6.802],[-80.152835,26.419415,7.102],[-80.15285167,26.41941,7.102],[-80.15286833,26.41940333,7.302],[-80.15288333,26.4194,7.402],[-80.15290167,26.41939333,7.802],[-80.152925,26.41938667,7.801],[-80.152945,26.419385,7.701],[-80.15296167,26.41938167,7.601],[-80.152975,26.41937667,7.501],[-80.15298833,26.41937167,7.401],[-80.15300167,26.41937,7.201],[-80.15301833,26.419365,6.901],[-80.15303167,26.41936167,6.601],[-80.15304667,26.41935833,6.401],[-80.15306333,26.41935333,6.501],[-80.15308167,26.41934833,6.001],[-80.15310333,26.41934167,6.201],[-80.15312333,26.419335,6.301],[-80.15314167,26.419335,6.401],[-80.15316,26.41933333,6.2],[-80.15317833,26.419335,6.1],[-80.15319667,26.419335,6.2],[-80.15321833,26.419335,6.4],[-80.15323833,26.419335,6.7],[-80.15325833,26.419335,7.0],[-80.15327667,26.41933333,7.2],[-80.15329167,26.419335,7.6],[-80.15330667,26.41933667,7.9],[-80.15332333,26.41934,8.2],[-80.15333833,26.41934333,8.4],[-80.153355,26.41934667,8.9],[-80.15337333,26.41935,9.3],[-80.15339167,26.41935667,9.4],[-80.15340833,26.41936167,9.499],[-80.15342333,26.41936667,9.599],[-80.15344,26.41937167,9.499],[-80.15345833,26.41937667,9.099],[-80.15348,26.419385,8.699],[-80.1535,26.419395,8.899],[-80.15352,26.41940833,8.999],[-80.15354,26.41942,9.499],[-80.15356167,26.41943333,10.099],[-80.15358167,26.41945,10.299],[-80.15359333,26.41946167,10.599],[-80.15360667,26.41947333,10.899],[-80.15361833,26.41948,10.699],[-80.15363167,26.41948833,10.899],[-80.15364333,26.41949333,11.199],[-80.15365333,26.419495,11.799],[-80.15366667,26.41949833,12.698],[-80.153685,26.419505,12.898],[-80.15370333,26.419515,13.198],[-80.15372167,26.41952333,13.198],[-80.15373667,26.41953,13.198],[-80.15375333,26.41954,13.298],[-80.15376667,26.41955,13.298],[-80.15377833,26.41956167,13.398],[-80.15379333,26.419575,13.398],[-80.15381,26.41958833,13.198],[-80.15383,26.41960167,12.798],[-80.15385167,26.41961333,12.498],[-80.15386833,26.41962333,12.498],[-80.15388333,26.41963333,12.198],[-80.1539,26.41964333,11.798],[-80.153915,26.419655,11.198],[-80.15393167,26.419665,10.997],[-80.15394833,26.41967167,10.797],[-80.15396333,26.41968167,10.497],[-80.15398167,26.41969167,10.897],[-80.15399833,26.41970167,11.197],[-80.15401333,26.41971167,11.197],[-80.15403667,26.41972167,11.397],[-80.15405167,26.41973333,11.297],[-80.15407,26.419745,11.097],[-80.15409,26.419755,11.297],[-80.154105,26.41976333,11.097],[-80.15412167,26.41977333,10.497],[-80.15413833,26.41978,10.197],[-80.15415333,26.41978667,9.697],[-80.15416833,26.41979833,9.497],[-80.154185,26.41980667,9.196],[-80.15420167,26.41981833,9.296],[-80.15421667,26.41983167,9.696],[-80.15423667,26.41984,9.596],[-80.15425333,26.41984667,9.296],[-80.15427,26.41985333,9.096],[-80.154285,26.41986167,8.996],[-80.1543,26.41987167,8.896],[-80.15431667,26.41988,8.796],[-80.15433667,26.41989333,8.496],[-80.15435167,26.41990167,8.096],[-80.15437,26.41991167,7.996],[-80.15438667,26.41992333,7.996],[-80.1544,26.41993333,7.496],[-80.154415,26.41994167,7.296],[-80.15443,26.41995167,7.096],[-80.15444833,26.41996167,6.895],[-80.154465,26.41997333,7.195],[-80.15448,26.41998333,7.495],[-80.154495,26.41999667,7.295],[-80.154515,26.42000833,7.395],[-80.154535,26.42001833,7.395],[-80.15455,26.420025,7.595],[-80.15456833,26.42003333,7.795],[-80.154585,26.42004333,7.895],[-80.15460333,26.420055,7.595],[-80.15462333,26.420065,7.795],[-80.15464333,26.42007667,7.895],[-80.15466167,26.42008667,8.095],[-80.15468,26.420095,8.395],[-80.15469833,26.420105,8.895],[-80.154715,26.42011333,8.794],[-80.15473167,26.42012167,8.594],[-80.15475,26.42012833,8.594],[-80.15476667,26.42013833,8.494],[-80.154785,26.42014667,8.394],[-80.15480333,26.42015667,8.294],[-80.15482167,26.42016667,7.994],[-80.15484167,26.420175,7.894],[-80.15486,26.42018333,7.694],[-80.15487667,26.420195,7.594],[-80.15489667,26.42020333,7.494],[-80.154915,26.42021333,7.394],[-80.15493167,26.42022333,7.194],[-80.15494833,26.42023167,6.894],[-80.154965,26.42024,6.494],[-80.15498333,26.42024833,6.393],[-80.15500167,26.42025667,6.193],[-80.15502,26.42026667,6.393],[-80.15503833,26.420275,6.793],[-80.15505667,26.42028167,7.093],[-80.15507667,26.42029,7.493],[-80.155095,26.42029667,7.693],[-80.15511333,26.42030167,7.693],[-80.15513333,26.42030833,7.693],[-80.15515167,26.420315,7.693],[-80.15517167,26.42032,7.793],[-80.15519333,26.42032667,8.093],[-80.15521167,26.420335,7.793],[-80.15523167,26.42034167,7.892],[-80.15525,26.420345,7.892],[-80.15527,26.42035167,7.992],[-80.15529,26.42036,7.692],[-80.15531,26.42036833,7.792],[-80.15533,26.42037333,7.692],[-80.15535333,26.42038167,7.392],[-80.15537333,26.42038833,7.792],[-80.155395,26.42039167,8.292],[-80.15541833,26.42039833,8.692],[-80.15544,26.420405,8.892],[-80.15545833,26.42041167,8.992],[-80.15548333,26.42041833,9.091],[-80.155505,26.42042333,9.591],[-80.15552667,26.42043,9.891],[-80.155545,26.42043667,9.891],[-80.15556667,26.42044333,10.091],[-80.15558667,26.42044667,10.891],[-80.15561,26.42045167,11.191],[-80.15562833,26.42045667,11.391],[-80.15565,26.42046167,11.091],[-80.155675,26.420465,10.991],[-80.1557,26.42047167,10.691],[-80.15572,26.42047833,10.291],[-80.15574,26.42048667,9.59],[-80.15576167,26.42049333,9.19],[-80.15578333,26.42049833,9.09],[-80.15580333,26.42050333,8.99],[-80.15582333,26.42051167,8.79],[-80.15584667,26.42051667,8.59],[-80.15586667,26.42052167,8.09],[-80.15588833,26.42052667,7.79],[-80.15591,26.42053,7.59],[-80.15593333,26.42053333,7.69],[-80.155955,26.42053667,7.59],[-80.15597667,26.42054167,7.49],[-80.155995,26.420545,7.289],[-80.156015,26.42054833,6.989],[-80.15603333,26.42055,6.789],[-80.156055,26.42055167,6.689],[-80.15607333,26.420555,6.389],[-80.156095,26.42055833,6.089],[-80.156115,26.42055833,6.089],[-80.156135,26.42056167,5.889],[-80.15616,26.42056167,5.889],[-80.15618333,26.42056,5.989],[-80.156205,26.42056,6.289],[-80.15622333,26.42056,6.589],[-80.156245,26.42056167,6.688],[-80.15626333,26.42056333,6.788],[-80.15628333,26.42056667,6.988],[-80.15630333,26.42057,7.288],[-80.15632167,26.42057167,7.888],[-80.15634333,26.42057333,8.488],[-80.156365,26.420575,8.588],[-80.15638833,26.42057667,8.688],[-80.15640833,26.420575,8.788],[-80.15643,26.42057667,8.988],[-80.15645,26.420575,9.388],[-80.15647,26.42057667,9.388],[-80.15648667,26.42057667,9.387],[-80.15650667,26.42057833,9.387],[-80.15652833,26.42058333,9.287],[-80.156545,26.420585,9.287],[-80.156565,26.420585,9.287],[-80.15658667,26.42058667,9.387],[-80.15661,26.42059,9.387],[-80.15663333,26.42059333,9.587],[-80.156655,26.42059333,10.087],[-80.156675,26.42059667,10.487],[-80.15669667,26.42060167,10.587],[-80.15671667,26.42060333,10.587],[-80.15673667,26.42060167,10.386],[-80.156755,26.42060167,10.086],[-80.15677667,26.42059833,9.586],[-80.15679667,26.42059667,9.486],[-80.15681833,26.42059667,9.086],[-80.15684,26.42059333,8.886],[-80.15686167,26.42059167,8.686],[-80.156885,26.42058833,8.686],[-80.15690833,26.420585,8.686],[-80.15693167,26.42058333,8.786],[-80.156955,26.42058167,8.686],[-80.15697667,26.42058,8.485],[-80.15699667,26.42057667,8.785],[-80.15701833,26.420575,8.885],[-80.15704,26.42057,8.785],[-80.15706,26.42056833,8.685],[-80.15708167,26.42056833,8.585],[-80.15710333,26.42056667,8.785],[-80.157125,26.42056333,8.685],[-80.157145,26.42056333,8.585],[-80.15716333,26.42056167,8.185],[-80.157185,26.42055833,8.085],[-80.157205,26.420555,8.084],[-80.15722333,26.42055,7.884],[-80.15724333,26.42054333,7.684],[-80.15726333,26.42053833,7.784],[-80.157285,26.420535,7.484],[-80.15731,26.42053333,7.184],[-80.157335,26.42053167,6.584],[-80.15735667,26.42052833,6.484],[-80.15738167,26.420525,6.384],[-80.15740333,26.42052167,6.284],[-80.15742167,26.42052,6.384],[-80.15744,26.42051333,6.283],[-80.15745833,26.42051,6.083],[-80.15748,26.420505,6.183],[-80.15749833,26.42050167,6.283],[-80.15751833,26.42049833,6.283],[-80.15753667,26.420495,6.283],[-80.15755667,26.42049167,6.383],[-80.157575,26.42048667,6.183],[-80.157595,26.42048,6.083],[-80.157615,26.42047167,6.283],[-80.15763667,26.42046667,6.183],[-80.157655,26.42046167,6.183],[-80.157675,26.42045833,6.482],[-80.15769333,26.42045333,6.882],[-80.15771333,26.42045167,7.082],[-80.15773333,26.42044833,7.382],[-80.15775667,26.420445,7.582],[-80.15777833,26.42044167,7.382],[-80.1578,26.42044,7.482],[-80.15782167,26.420435,7.382],[-80.15784167,26.42042833,7.082],[-80.15786167,26.42042167,6.882],[-80.15788167,26.42041667,6.882],[-80.15790167,26.42041167,6.982],[-80.15792167,26.42040333,7.181],[-80.15794,26.42039667,7.481],[-80.15795833,26.42039,7.881],[-80.15797667,26.420385,8.281],[-80.157995,26.42037667,8.581],[-80.15801167,26.42037,8.981],[-80.15803167,26.42036333,9.081],[-80.15805,26.42035667,9.381],[-80.15806667,26.42034833,9.281],[-80.15808833,26.42034167,9.681],[-80.15810833,26.42033667,9.681],[-80.15812833,26.42033167,9.181],[-80.15814667,26.420325,8.58],[-80.15816833,26.42032,8.08],[-80.15818667,26.42031333,7.78],[-80.15820667,26.42030667,7.28],[-80.15822833,26.4203,7.48],[-80.158245,26.42029167,7.48],[-80.15826333,26.42028667,7.28],[-80.15828167,26.42028,7.38],[-80.15830333,26.42026667,7.68],[-80.15832,26.420255,7.68],[-80.15834,26.42024167,7.58],[-80.15836,26.42023333,7.58],[-80.158385,26.42022167,7.679],[-80.158405,26.42021333,7.679],[-80.15842833,26.420205,7.979],[-80.15845,26.420195,8.079],[-80.15846333,26.420185,8.379],[-80.15847333,26.42017833,8.679],[-80.15848667,26.42017,8.879],[-80.158495,26.42016333,9.079],[-80.15850333,26.42015667,8.779],[-80.15851,26.420155,8.379],[-80.15851167,26.420155,8.379],[-80.15851333,26.42015333,8.279],[-80.15851667,26.42014833,8.579],[-80.15852167,26.42014333,8.979],[-80.15853167,26.42013833,9.379],[-80.15854333,26.42013333,9.579],[-80.158555,26.42013,9.879],[-80.15857,26.42012667,9.879],[-80.15858667,26.42012167,10.279],[-80.1586,26.42011333,10.178],[-80.15861667,26.42010167,10.078],[-80.15863333,26.42009,9.578],[-80.15864667,26.42007667,9.178],[-80.15866167,26.42006667,8.778],[-80.15867667,26.420055,8.678],[-80.15869,26.420045,8.678],[-80.158705,26.42003333,8.678],[-80.15871833,26.42002333,8.878],[-80.15873333,26.42001167,9.178],[-80.15874667,26.42000167,9.478],[-80.15876167,26.41999,9.578],[-80.15878,26.41997667,9.278],[-80.158795,26.419965,9.178],[-80.15881333,26.41995333,8.878],[-80.15883,26.41994333,9.177],[-80.158845,26.41993167,8.877],[-80.15886167,26.41992,8.877],[-80.15887667,26.41990833,8.777],[-80.15889,26.419895,8.977],[-80.15890667,26.41988167,9.277],[-80.15892,26.41986667,9.277],[-80.158935,26.41985333,9.377],[-80.15895,26.41984167,8.977],[-80.15896833,26.41983167,8.877],[-80.15898167,26.41982,9.077],[-80.158995,26.41980667,8.977],[-80.15901,26.419795,8.677],[-80.15902333,26.41978,8.377],[-80.15904,26.41976667,7.976],[-80.15905333,26.41975667,7.276],[-80.15906667,26.419745,6.676],[-80.15908333,26.41973167,6.776],[-80.159095,26.41970833,6.076],[-80.15910833,26.419695,5.576],[-80.159125,26.419685,5.376],[-80.15914,26.41967333,5.276],[-80.15915,26.419665,5.176],[-80.15916,26.41965667,5.276],[-80.15917,26.41965167,5.476],[-80.15917833,26.41964667,5.676],[-80.15918833,26.41964333,5.776],[-80.1592,26.41963833,5.976],[-80.15921333,26.419635,6.376],[-80.15923,26.419635,6.376],[-80.15924833,26.41963667,6.676],[-80.15926333,26.41964167,6.775],[-80.15927667,26.41965,6.775],[-80.15929167,26.41965833,6.675],[-80.15930667,26.41966833,6.775],[-80.15932333,26.41967833,6.875],[-80.15933667,26.41969,7.175],[-80.15935167,26.41970167,7.275],[-80.15936333,26.41971667,7.475],[-80.159375,26.419725,7.375],[-80.15939167,26.41973667,7.075],[-80.15941,26.41975167,6.775],[-80.15942833,26.419765,6.475],[-80.15944667,26.41978,6.075],[-80.15946167,26.41979667,5.975],[-80.15947833,26.41981167,5.875],[-80.15949333,26.41982833,5.875],[-80.15950667,26.41984167,5.775],[-80.15952,26.41985333,5.975],[-80.159535,26.419865,6.074],[-80.15955,26.41987833,5.974],[-80.159565,26.41989,6.474],[-80.15957833,26.419905,6.874],[-80.159595,26.41991833,7.374],[-80.15961167,26.41993167,8.274],[-80.15962667,26.41994167,8.374],[-80.159645,26.41995167,8.174],[-80.15966167,26.419965,8.074],[-80.15967667,26.41997,8.474],[-80.15969167,26.41998,8.774],[-80.15970833,26.41999333,9.074],[-80.15972333,26.42000167,9.174],[-80.15973667,26.42001,9.174],[-80.15975,26.42002,9.374],[-80.15976667,26.42002833,9.374],[-80.15978333,26.42004,9.174],[-80.15980167,26.42005333,9.574],[-80.15982167,26.42006333,9.673],[-80.15983833,26.42006833,9.373],[-80.159855,26.42007833,9.073],[-80.15987167,26.42009167,8.673],[-80.15988667,26.4201,8.473],[-80.15990333,26.42011167,8.373],[-80.15992,26.420125,8.373],[-80.15994,26.420135,8.673],[-80.15995833,26.420145,8.573],[-80.159985,26.42015833,8.373],[-80.16000667,26.420175,7.973],[-80.16002833,26.42018667,7.473],[-80.16004667,26.4202,7.373],[-80.16006167,26.42021,7.773],[-80.160075,26.42022,8.272],[-80.16009167,26.42023167,8.572],[-80.16011167,26.42024,8.372],[-80.16013,26.42025,8.372],[-80.16014833,26.420255,8.572],[-80.16016833,26.42026333,8.672],[-80.16018833,26.42027333,8.572],[-80.16020667,26.42028333,8.572],[-80.16022667,26.420295,8.372],[-80.160245,26.42030667,8.672],[-80.160265,26.420315,8.872],[-80.16028833,26.42032333,8.572],[-80.16030667,26.42033667,8.472],[-80.160325,26.420345,8.572],[-80.16034333,26.42035667,8.871],[-80.160365,26.420365,9.271],[-80.160385,26.42037167,9.871],[-80.16040667,26.42038,9.871],[-80.160425,26.420385,10.271],[-80.160445,26.42039167,10.371],[-80.16046167,26.42039833,10.371],[-80.16048167,26.420405,9.971],[-80.160505,26.42041167,9.571],[-80.160525,26.42042167,9.171],[-80.16054667,26.42043,8.771],[-80.16056667,26.42043667,8.571],[-80.16058333,26.420445,8.671],[-80.1606,26.42045833,8.47],[-80.160615,26.42046833,8.57],[-80.16063333,26.42048167,8.87],[-80.160655,26.42049167,8.97],[-80.16067167,26.42049833,8.87],[-80.16069,26.42050333,9.17],[-80.16071167,26.42051167,9.17],[-80.16073333,26.42052,8.87],[-80.16076167,26.42053,8.37],[-80.16078167,26.42053667,8.27],[-80.1608,26.42054167,7.97],[-80.16082,26.42055,7.67],[-80.16084,26.42056,7.57],[-80.16085833,26.42056833,7.069],[-80.16087833,26.42057667,6.569],[-80.1609,26.42058333,6.569],[-80.16092167,26.42059,6.469],[-80.16094167,26.420595,6.669],[-80.16096,26.42060167,6.969],[-80.160975,26.42061,7.469],[-80.16099333,26.42061833,7.669],[-80.16101167,26.420625,7.569],[-80.16103167,26.42063167,7.969],[-80.16105167,26.42063667,8.469],[-80.16107333,26.42064,8.769],[-80.16109167,26.42064667,8.869],[-80.16111167,26.42065167,8.868],[-80.16112833,26.42066,8.568],[-80.16115167,26.42066833,8.368],[-80.16117333,26.42067333,8.068],[-80.16119,26.42068167,8.368],[-80.16120667,26.42069,8.368],[-80.16122667,26.420695,8.268],[-80.16124667,26.4207,8.468],[-80.16126833,26.42070667,8.268],[-80.16128833,26.42071333,8.368],[-80.16131,26.42071667,8.668],[-80.161335,26.42071667,8.868],[-80.16135833,26.42071833,9.467],[-80.16137833,26.42072,9.767],[-80.16139333,26.42072167,9.967],[-80.16140833,26.42071833,9.967],[-80.16143,26.420725,9.867],[-80.16145333,26.42073167,9.767],[-80.16147667,26.42074,9.367],[-80.16149333,26.42074333,9.167],[-80.16151167,26.42074833,8.767],[-80.16153,26.420755,8.367],[-80.16154833,26.42075833,8.067],[-80.16157,26.42076167,7.667],[-80.16159333,26.42077,7.467],[-80.16161333,26.42077667,6.866],[-80.16163167,26.42078,6.566],[-80.16165167,26.42078167,6.366],[-80.16167,26.42078167,6.066],[-80.16169,26.420785,6.066],[-80.16170833,26.42079,5.966],[-80.16172833,26.420795,5.766],[-80.16174833,26.42079667,5.866],[-80.16177,26.42080167,6.166],[-80.16179167,26.42080333,6.366],[-80.16181333,26.42080667,6.566],[-80.16183333,26.42080833,6.466],[-80.16185333,26.42081,6.465],[-80.16187333,26.42081167,6.365],[-80.161895,26.42081,5.765],[-80.16192167,26.42081,5.565],[-80.16194333,26.42080833,5.665],[-80.16196333,26.42081167,5.365],[-80.16198667,26.420815,5.465],[-80.16200833,26.42081833,5.765],[-80.16202667,26.42082,6.065],[-80.16204833,26.420825,6.465],[-80.16206833,26.42082833,6.665],[-80.16208833,26.42083333,6.765],[-80.16211,26.42083333,6.864],[-80.16212667,26.420835,6.764],[-80.16214667,26.42083667,6.864],[-80.16216167,26.420835,6.864],[-80.16217833,26.42083667,6.964],[-80.16219667,26.42084,7.264],[-80.16222,26.420845,7.864],[-80.16224333,26.42084667,7.864],[-80.162265,26.42084667,7.764],[-80.16228833,26.42084833,7.564],[-80.16230833,26.42085167,7.464],[-80.16233,26.42085167,7.164],[-80.16234833,26.42085,6.863],[-80.16236667,26.42085,6.863],[-80.162385,26.42085,6.663],[-80.16240333,26.42085167,6.563],[-80.16242167,26.42085167,6.863],[-80.162445,26.42084833,6.863],[-80.162465,26.42084667,7.163],[-80.16248667,26.42084833,7.463],[-80.16250667,26.42084833,7.463],[-80.16252667,26.42084667,7.363],[-80.16254667,26.42084833,7.563],[-80.16256667,26.42084833,7.563],[-80.162585,26.42085,7.662],[-80.162605,26.42085,7.562],[-80.16262333,26.42085,7.462],[-80.16264333,26.42084667,7.162],[-80.16266333,26.420845,6.862],[-80.16268167,26.42084333,6.962],[-80.16270167,26.42084167,7.462],[-80.16272167,26.42084167,7.762],[-80.16273833,26.42084333,7.762],[-80.16275833,26.42084167,7.862],[-80.16277833,26.42083833,7.862],[-80.16279667,26.420835,7.562],[-80.162815,26.42083167,7.062],[-80.16283167,26.42083,7.061],[-80.16285333,26.42082833,6.961],[-80.162875,26.42082667,7.361],[-80.16289667,26.42082333,7.861],[-80.16292167,26.42082167,8.061],[-80.16294333,26.42081833,8.061],[-80.16296167,26.42081333,8.661],[-80.16298667,26.42080833,9.061],[-80.16300833,26.42080667,9.361],[-80.163025,26.42080667,9.461],[-80.16304333,26.42080667,9.561],[-80.16306,26.42080833,9.561],[-80.16307667,26.42080833,9.36],[-80.16309,26.42080667,9.86],[-80.1631,26.420805,10.16],[-80.16311167,26.42080333,10.16],[-80.16312333,26.4208,10.36],[-80.163135,26.42079667,10.56],[-80.16314833,26.420795,10.36],[-80.16316167,26.42079333,10.56],[-80.16317333,26.42079333,10.66],[-80.16318333,26.42079333,10.86],[-80.16319167,26.42079167,10.66],[-80.163205,26.42079,10.36],[-80.163215,26.42079167,10.06],[-80.16322667,26.42079,9.86],[-80.16323833,26.42078667,9.56],[-80.16325333,26.42078333,9.66],[-80.163265,26.42078,9.86],[-80.16328167,26.42078,9.86],[-80.16329167,26.42077667,9.96],[-80.16330333,26.42077167,10.359],[-80.16331833,26.42076667,10.259],[-80.16333,26.42076,10.259],[-80.16334333,26.42075833,9.959],[-80.16336,26.420755,9.759],[-80.16338167,26.42075,9.859],[-80.16339833,26.42074667,9.759],[-80.163415,26.420745,9.859],[-80.16343167,26.42074333,9.659],[-80.16344667,26.42073833,9.659],[-80.16346,26.42073333,9.759],[-80.163475,26.42073,9.759],[-80.16349667,26.42072833,9.359],[-80.16351667,26.42072333,9.159],[-80.16353667,26.42071667,9.058],[-80.16355667,26.42071167,8.558],[-80.16357667,26.42071,8.258],[-80.163595,26.42071167,8.158],[-80.16361167,26.42070333,8.358],[-80.16363,26.42069667,8.658],[-80.16365,26.42069333,9.058],[-80.16367,26.42069,9.658],[-80.16369333,26.420685,9.858],[-80.16372167,26.42068333,9.858],[-80.163745,26.42068,9.758],[-80.16377,26.42067833,10.358],[-80.163795,26.42067833,11.057],[-80.16381667,26.42067333,11.357],[-80.16383333,26.42067167,11.657],[-80.163855,26.420665,12.257],[-80.16387833,26.42065833,12.257],[-80.16389833,26.42065,12.357],[-80.16391833,26.42064167,12.357],[-80.16393833,26.42063333,12.757],[-80.16395833,26.42062333,12.857],[-80.16398333,26.42061667,12.757],[-80.164005,26.42060833,12.457],[-80.164025,26.42060167,12.256],[-80.164045,26.420595,11.956],[-80.16406333,26.42059,11.656],[-80.164085,26.42058667,11.856],[-80.16410833,26.42058167,11.456],[-80.16412667,26.42057333,11.256],[-80.16414333,26.42056667,10.756],[-80.164165,26.42056167,10.756],[-80.16418667,26.420555,10.556],[-80.16420667,26.42054833,10.556],[-80.16422667,26.42054333,9.956],[-80.164245,26.42053667,9.355],[-80.16426333,26.42053,9.155],[-80.16428167,26.42052333,9.055],[-80.16430167,26.42051667,8.755],[-80.16432167,26.42051167,8.655],[-80.16434,26.42050333,8.455],[-80.16436167,26.42049667,8.655],[-80.16438333,26.420495,8.855],[-80.16440167,26.42049167,8.955],[-80.16442167,26.420485,9.255],[-80.16443833,26.42048167,9.455],[-80.16445667,26.42047667,9.655],[-80.164475,26.42047333,9.954],[-80.164495,26.42047,10.154],[-80.16451333,26.420465,10.354],[-80.164535,26.42046,10.354],[-80.16455,26.42044833,10.754],[-80.16456667,26.42044,10.654],[-80.16458333,26.42043333,10.254],[-80.164605,26.42042333,10.554],[-80.16462167,26.42041333,10.254],[-80.16464,26.420405,9.754],[-80.16466,26.420405,9.254],[-80.16468,26.42040167,9.354],[-80.16469833,26.42040333,9.354],[-80.16471833,26.4204,9.453],[-80.16473667,26.42039333,9.153],[-80.16475167,26.42038833,8.653],[-80.164765,26.42038333,8.153],[-80.16477833,26.42037667,7.253],[-80.16479333,26.42036833,7.453],[-80.16480833,26.42036167,7.853],[-80.164825,26.42035667,8.453],[-80.16484167,26.420355,8.953],[-80.16485833,26.42035,9.353],[-80.16487667,26.42034333,9.353],[-80.164895,26.42033667,9.853],[-80.16491333,26.42033167,9.953],[-80.16493,26.42032667,9.953],[-80.16494667,26.42032167,10.152],[-80.164965,26.420315,10.252],[-80.16498167,26.42031167,10.052],[-80.16499667,26.42030667,9.952],[-80.16501167,26.4203,10.152],[-80.16502333,26.42029333,10.252],[-80.16503667,26.420285,10.352],[-80.16505333,26.420275,10.352],[-80.16507333,26.42026833,10.152],[-80.16508833,26.42026333,10.252],[-80.165105,26.42026,10.252],[-80.16512167,26.420255,10.252],[-80.16514,26.42025,10.252],[-80.16515667,26.42024333,10.152],[-80.16517333,26.420235,10.051],[-80.16519167,26.42022667,9.951],[-80.16520667,26.42022167,9.851],[-80.16522333,26.42022,9.751],[-80.16524333,26.42021667,9.551],[-80.16526333,26.42021,9.851],[-80.16528167,26.4202,9.851],[-80.16529833,26.42019333,10.151],[-80.16531333,26.42018833,10.451],[-80.16533333,26.42018167,10.451],[-80.16534833,26.420175,9.951],[-80.165365,26.42016833,10.051],[-80.16538333,26.42016333,10.051],[-80.165405,26.42015667,10.25],[-80.16542167,26.42014833,10.55],[-80.16543667,26.42014,10.75],[-80.165455,26.42013167,10.55],[-80.16547333,26.42012167,10.45],[-80.16548667,26.42011333,10.45],[-80.16549833,26.42010667,10.75],[-80.165515,26.42009667,10.85],[-80.16553167,26.42008833,11.05],[-80.16554833,26.42008333,11.05],[-80.165565,26.42007667,11.15],[-80.16558,26.42007,11.25],[-80.165595,26.42006167,11.35],[-80.16561,26.42005333,11.35],[-80.165625,26.420045,11.35],[-80.16564,26.42003667,11.249],[-80.16565667,26.42003,11.549],[-80.16567167,26.42002333,11.549],[-80.16568667,26.42001667,11.349],[-80.16570167,26.42000833,11.449],[-80.16571667,26.42,11.849],[-80.16573333,26.41999167,12.149],[-80.16574833,26.41998333,12.449],[-80.16576333,26.419975,12.549],[-80.16577667,26.41996667,12.449],[-80.16579,26.41996,12.649],[-80.16580667,26.41995333,12.749],[-80.16582333,26.419945,12.749],[-80.16584,26.419935,12.749],[-80.16585333,26.41992667,12.649],[-80.16587,26.41991667,12.548],[-80.165885,26.41991,12.448],[-80.16589667,26.41990333,12.148],[-80.16591167,26.4199,11.848],[-80.165925,26.41989167,11.748],[-80.16594167,26.419885,11.548],[-80.16595833,26.41987833,11.448],[-80.16597,26.41986833,11.448],[-80.16598333,26.41986,11.048],[-80.166,26.41985167,10.748],[-80.166015,26.41984167,10.748],[-80.16603,26.41983333,10.848],[-80.166045,26.419825,10.648],[-80.16605833,26.41981667,10.448],[-80.16607,26.41980833,10.548],[-80.16608333,26.41979833,10.947],[-80.16609667,26.41978833,11.147],[-80.16611,26.41977833,11.347],[-80.16612167,26.419765,11.347],[-80.16613167,26.419755,11.747],[-80.16614333,26.41974333,11.947],[-80.16615667,26.419735,12.147],[-80.16617,26.41972667,12.247],[-80.16618167,26.41971833,12.447],[-80.16619167,26.41970833,12.547],[-80.16620667,26.4197,12.547],[-80.16622167,26.41969167,12.647],[-80.16623833,26.41968333,12.747],[-80.16625167,26.419675,12.747],[-80.166265,26.41966667,12.847],[-80.16628,26.41966,12.547],[-80.166295,26.41965,12.547],[-80.16631,26.41964,12.246],[-80.166325,26.41963,12.046],[-80.16634,26.41961833,11.746],[-80.166355,26.41960667,11.246],[-80.16636833,26.41959667,11.446],[-80.16638167,26.41958667,11.846],[-80.166395,26.41957833,12.146],[-80.16641,26.41956833,12.246],[-80.16642333,26.41955833,12.646],[-80.16643833,26.41955,12.646],[-80.16645333,26.41953833,12.546],[-80.16646667,26.41952667,12.646],[-80.16648167,26.41951833,12.646],[-80.166495,26.41950667,12.946],[-80.16651,26.419495,13.146],[-80.16652167,26.419485,13.446],[-80.16653833,26.41947333,13.345],[-80.16655,26.41946333,13.345],[-80.16656,26.41945167,13.445],[-80.16657333,26.41944,12.445],[-80.166585,26.41943333,12.245],[-80.16659833,26.41942167,11.845],[-80.16660833,26.41941,11.645],[-80.16661833,26.4194,10.945],[-80.16663167,26.41938833,10.945],[-80.16664333,26.419375,11.045],[-80.16665833,26.419365,10.845],[-80.16667167,26.41935333,11.045],[-80.166685,26.41934167,11.445],[-80.16669833,26.41933167,11.645],[-80.16671167,26.41932,11.545],[-80.16672167,26.41930833,11.745],[-80.16673333,26.41929667,11.845],[-80.16674167,26.41928167,12.344],[-80.16675167,26.419265,12.844],[-80.16676167,26.41925333,12.644],[-80.16677,26.41924167,12.344],[-80.16678,26.41923167,12.244],[-80.16678833,26.41922167,12.344],[-80.16680333,26.41921,13.144],[-80.16681667,26.41919333,13.744],[-80.16682667,26.41918167,14.744],[-80.16684,26.41916833,15.044],[-80.16685333,26.41916,14.244],[-80.16686833,26.41915333,14.244],[-80.16688167,26.41914333,14.244],[-80.166895,26.41913167,14.044],[-80.16690667,26.41912,13.844],[-80.16692,26.41911,13.744],[-80.16693333,26.41909833,13.444],[-80.16695,26.41908667,13.244],[-80.16696333,26.41907333,12.943],[-80.16697667,26.41906,12.843],[-80.16698833,26.41904833,12.443],[-80.16699833,26.41903667,11.743],[-80.16701167,26.419025,11.243],[-80.167025,26.41901333,11.243],[-80.16703667,26.41900167,11.043],[-80.167045,26.41898833,11.043],[-80.16705333,26.41897333,10.343],[-80.167065,26.41895833,9.943],[-80.167075,26.418945,9.643],[-80.16708667,26.41893333,9.743],[-80.16709833,26.41892,9.843],[-80.16711167,26.41891,10.243],[-80.16712167,26.4189,10.443],[-80.16713,26.41888833,10.743],[-80.16713833,26.418875,10.443],[-80.16714667,26.41886333,10.143],[-80.16715667,26.41884833,9.543],[-80.16716167,26.41883667,8.943],[-80.16717167,26.418825,8.442],[-80.16718167,26.41881167,7.742],[-80.16719,26.4188,7.342],[-80.1672,26.41878833,7.242],[-80.16721167,26.41877667,7.342],[-80.16722,26.41876333,7.842],[-80.16722833,26.41875,8.042],[-80.16723667,26.41873667,8.142],[-80.16724833,26.41872667,8.242],[-80.167255,26.41871667,8.242],[-80.16726333,26.41870667,8.042],[-80.16727333,26.418695,8.342],[-80.16728,26.41868167,8.642],[-80.16728833,26.41866833,8.942],[-80.16729833,26.41865667,9.342],[-80.16730667,26.41864167,9.542],[-80.167315,26.41862667,9.842],[-80.167325,26.41861167,10.242],[-80.167335,26.41859667,10.442],[-80.167345,26.41858333,10.542],[-80.16735167,26.41856667,10.342],[-80.16736167,26.41855333,10.442],[-80.16737167,26.41854,10.441],[-80.16737833,26.41852667,10.641],[-80.16738667,26.41851,10.941],[-80.167395,26.418495,11.041],[-80.167405,26.41848,11.041],[-80.16741333,26.41846833,10.941],[-80.16741833,26.418455,10.641],[-80.16742667,26.41844167,10.641],[-80.167435,26.41842833,10.141],[-80.167445,26.418415,9.841],[-80.16745167,26.41840167,9.841],[-80.16746,26.41838833,9.841],[-80.16746667,26.418375,9.541],[-80.16747333,26.41836167,9.541],[-80.16747833,26.41834833,9.441],[-80.16748333,26.41833333,9.241],[-80.16749167,26.41831833,8.841],[-80.16749833,26.41830167,8.441],[-80.16750333,26.41828833,8.241],[-80.16750833,26.41827667,8.041],[-80.16751333,26.41826167,7.841],[-80.16752167,26.418245,7.941],[-80.16752833,26.41823,8.141],[-80.16753,26.418215,8.341],[-80.16753333,26.4182,8.441],[-80.16753667,26.41818667,8.441],[-80.167545,26.41817167,8.441],[-80.16755,26.41815833,8.441],[-80.16755167,26.418145,8.141],[-80.16755833,26.41813333,8.04],[-80.16756333,26.41812,8.14],[-80.16756833,26.41810333,8.44],[-80.16757333,26.41808667,8.74],[-80.16757833,26.41806833,9.04],[-80.16758,26.41805333,9.44],[-80.16758333,26.41804167,9.24],[-80.16758833,26.41802833,9.34],[-80.16759667,26.418015,9.64],[-80.16760333,26.41800167,9.44],[-80.167605,26.41798833,9.84],[-80.167605,26.41797,10.24],[-80.167605,26.41795333,10.34],[-80.16760167,26.41793667,10.44],[-80.16759833,26.41791667,10.84],[-80.16759667,26.41789833,10.74],[-80.16759167,26.41788333,11.14],[-80.16759167,26.417865,11.14],[-80.16759667,26.41784833,11.74],[-80.16759833,26.41782833,12.24],[-80.16760167,26.41781167,12.24],[-80.16760333,26.417795,12.34],[-80.16761167,26.41778,12.34],[-80.16761167,26.417765,12.14],[-80.16761167,26.41774667,12.04],[-80.16761333,26.41772833,11.94],[-80.16761,26.417715,11.64],[-80.16760667,26.4177,11.54],[-80.16760667,26.417685,11.74],[-80.167605,26.41766833,11.84],[-80.167605,26.417655,11.74],[-80.16760667,26.41764,11.74],[-80.16760667,26.41762667,11.94],[-80.167605,26.41761333,11.64],[-80.16760667,26.41759667,11.34],[-80.16760667,26.41758,11.34],[-80.16761333,26.41756667,11.04],[-80.16761167,26.41755167,10.74],[-80.16761167,26.41753667,10.64],[-80.16761333,26.41752,10.94],[-80.167615,26.417505,10.94],[-80.16761667,26.41749333,10.84],[-80.167615,26.41748,10.64],[-80.167615,26.417465,10.74],[-80.16761333,26.41745167,10.74],[-80.16761333,26.417435,10.74],[-80.167615,26.41742,10.54],[-80.167615,26.41740333,10.54],[-80.167615,26.41738667,10.84],[-80.16761333,26.41737,11.04],[-80.16761167,26.41735167,10.84],[-80.16761667,26.41733667,10.74],[-80.16761667,26.41732,10.94],[-80.16762,26.41730333,11.54],[-80.16761667,26.41728667,11.54],[-80.16761833,26.41727167,11.34],[-80.16762,26.41725667,11.04],[-80.16761833,26.41724167,11.24],[-80.16761833,26.417225,11.54],[-80.16761833,26.41720833,11.74],[-80.16761667,26.417195,11.74],[-80.16761333,26.41718,11.54],[-80.16761,26.41716333,11.74],[-80.16760667,26.41714667,12.04],[-80.16761,26.41713167,11.94],[-80.16761333,26.41711333,12.24],[-80.16761167,26.41709333,12.64],[-80.16760667,26.41705833,12.94],[-80.167605,26.41702333,12.74],[-80.16760167,26.416985,12.54],[-80.16759833,26.416945,12.14],[-80.16759,26.41690167,11.74],[-80.16757833,26.41686667,11.54],[-80.16756667,26.41683667,11.34],[-80.16755833,26.41680167,11.14],[-80.16754833,26.41676833,11.14],[-80.16753667,26.41674,10.44],[-80.16752667,26.416715,10.44],[-80.16752167,26.416695,10.04],[-80.16751333,26.41667833,9.94],[-80.16750833,26.41666667,10.04],[-80.16750333,26.41665833,9.34],[-80.16749833,26.416655,9.04],[-80.16749333,26.41664667,8.64],[-80.16748833,26.41663667,8.64],[-80.167485,26.416625,8.84],[-80.16748167,26.41661333,8.64],[-80.16747667,26.4166,8.54],[-80.16747,26.41658667,8.54],[-80.167465,26.41657,7.94],[-80.16745667,26.41655833,8.14],[-80.16744667,26.416545,8.44],[-80.16744,26.41653,8.94],[-80.16743667,26.41651667,9.14],[-80.16743,26.41650667,9.44],[-80.16742,26.416495,9.44],[-80.16741333,26.41648,9.44],[-80.16740667,26.416465,9.64],[-80.1674,26.41645,9.94],[-80.16739333,26.41643167,10.24],[-80.16738833,26.41641667,10.34],[-80.16738,26.41640167,10.04],[-80.16737333,26.41638667,10.34],[-80.167365,26.41637167,10.24],[-80.167355,26.41635667,10.44],[-80.16734333,26.41634333,10.94],[-80.167335,26.41633,11.04],[-80.16733,26.41631667,10.94],[-80.16732167,26.41630167,11.04],[-80.16731333,26.41629167,11.04],[-80.167305,26.41628,10.84],[-80.16729667,26.41626667,10.641],[-80.16729167,26.41625167,10.341],[-80.167295,26.416235,10.341],[-80.16729667,26.41622,10.14],[-80.167305,26.41620333,9.74],[-80.16731667,26.41619,9.84],[-80.16732667,26.41617667,9.94],[-80.16733833,26.41616333,10.44],[-80.16735,26.41615333,10.34],[-80.16736333,26.41614333,9.94],[-80.167375,26.41613167,9.94],[-80.167385,26.41612,9.94],[-80.16740167,26.41610833,9.84],[-80.16741667,26.41609833,9.54],[-80.16743,26.41608833,9.24],[-80.167445,26.41607667,9.34],[-80.16745833,26.41606667,9.64],[-80.16747667,26.41605833,9.84],[-80.16749667,26.41605,10.14],[-80.16751167,26.41604,10.74],[-80.16752833,26.41603167,11.039],[-80.16754167,26.41602167,11.439],[-80.16755667,26.41601167,11.439],[-80.16757,26.41600333,11.239],[-80.167585,26.41599167,11.239],[-80.1676,26.41598333,11.239],[-80.16761333,26.41597167,11.739],[-80.16763167,26.41596333,12.039],[-80.16764833,26.415955,12.339],[-80.16766167,26.41594667,12.339],[-80.16768,26.41593833,12.439],[-80.16769667,26.41593,12.639],[-80.16771167,26.41592167,12.439],[-80.16772667,26.41591,12.439],[-80.16774,26.4159,12.438],[-80.16775667,26.41589,12.738],[-80.16777167,26.41587833,13.038],[-80.16778667,26.41587,13.038],[-80.16780167,26.41586,13.138],[-80.16781833,26.415855,12.738],[-80.16783333,26.41584333,12.538],[-80.16784833,26.41583667,12.338],[-80.167865,26.41583167,11.838],[-80.16787667,26.41582333,11.538],[-80.16789167,26.41581333,11.438],[-80.16790833,26.41580333,11.738],[-80.16792333,26.41579833,11.638],[-80.16793833,26.41579167,11.438],[-80.16795333,26.41578167,11.338],[-80.16797167,26.41577333,11.337],[-80.16798667,26.41576333,11.437],[-80.168,26.41575167,11.437],[-80.16801667,26.415745,11.437],[-80.16803167,26.41573667,11.237],[-80.16805,26.41572667,11.137],[-80.168065,26.41571333,11.737],[-80.16807833,26.41570167,12.237],[-80.16809167,26.41568833,12.437],[-80.16810667,26.41567833,13.037],[-80.16812,26.41566833,13.737],[-80.16813333,26.41565833,14.237],[-80.16814833,26.41564667,14.737],[-80.16816333,26.41563833,15.237],[-80.16817667,26.41563,15.737],[-80.16819167,26.41561833,15.836],[-80.16820333,26.41561,16.036],[-80.16821833,26.41560167,16.236],[-80.16823167,26.41559167,16.336],[-80.16824833,26.41558667,16.436],[-80.16826333,26.41557833,16.636],[-80.16827833,26.41556833,16.736],[-80.16829167,26.41556,16.536],[-80.16830833,26.41555,16.336],[-80.16832333,26.41554,15.636],[-80.16833833,26.41553167,15.136],[-80.16835167,26.41552333,14.836],[-80.16836667,26.41551333,14.936],[-80.16838,26.41550167,15.036],[-80.168395,26.41549167,14.636],[-80.16841333,26.41548333,14.735],[-80.16843667,26.41547833,14.735],[-80.168455,26.41547667,14.735],[-80.16847333,26.41548,14.435],[-80.16849167,26.415485,13.735],[-80.16851,26.415495,13.235],[-80.16852833,26.415505,12.935],[-80.168545,26.41551667,12.535],[-80.16855833,26.41553,12.135],[-80.16857167,26.41554167,11.935],[-80.16858167,26.41555667,12.235],[-80.16858667,26.41557,12.235],[-80.16859833,26.41558167,12.235],[-80.16861,26.41559333,12.035],[-80.16862167,26.415605,11.535],[-80.16863333,26.41561833,11.535],[-80.168645,26.41563167,11.335],[-80.16866,26.415645,11.435],[-80.168675,26.41565833,11.734],[-80.16869,26.41566833,11.534],[-80.168705,26.41567667,11.334],[-80.16871833,26.415685,10.434],[-80.16873333,26.41569333,9.934],[-80.16874667,26.41570333,9.534],[-80.168765,26.41571333,9.134],[-80.16878,26.41572167,8.834],[-80.168795,26.41572833,8.434],[-80.16881,26.41573333,8.034],[-80.16882667,26.41573667,8.134],[-80.16884167,26.41574,8.434],[-80.16886,26.41574167,8.534],[-80.16888167,26.41574333,8.734],[-80.1689,26.41574833,9.534],[-80.168915,26.415755,10.234],[-80.16893,26.41576,10.833],[-80.16894667,26.41576167,11.033],[-80.168965,26.41576667,11.433],[-80.16898,26.41577167,11.733],[-80.16899667,26.415775,11.833],[-80.16901333,26.41577833,12.933],[-80.16903167,26.41578,14.233],[-80.16904667,26.415785,14.933],[-80.16905833,26.41578833,15.133],[-80.16907333,26.41579,14.933],[-80.16908833,26.41579167,14.733],[-80.169105,26.41579333,14.833],[-80.16912333,26.41579333,14.733],[-80.16913833,26.41579333,14.433],[-80.16915333,26.415795,14.233],[-80.16916833,26.41579667,14.333],[-80.169185,26.415795,14.132],[-80.1692,26.41579333,13.532],[-80.16921333,26.415795,13.032],[-80.16923,26.41579667,12.532],[-80.16925,26.41579667,12.532],[-80.16927,26.41579667,12.632],[-80.16928833,26.41579833,12.532],[-80.16931,26.4158,12.732],[-80.16932833,26.41580167,12.832],[-80.16934667,26.41579833,13.132],[-80.16936667,26.41579833,13.132],[-80.169385,26.41579667,13.332],[-80.169405,26.41579667,13.732],[-80.16942833,26.41579833,13.831],[-80.16945,26.41579667,14.331],[-80.16947167,26.415795,14.631],[-80.16949167,26.41579167,14.731],[-80.16951167,26.41579167,14.631],[-80.16953167,26.41579167,14.531],[-80.16954833,26.41579,14.431],[-80.169565,26.41578833,14.031],[-80.16958167,26.41578667,13.731],[-80.169595,26.41578833,13.231],[-80.16960833,26.41578833,12.831],[-80.16961833,26.41578833,12.431],[-80.16963,26.41578167,12.531],[-80.16964,26.41578167,12.531],[-80.16965,26.41578167,12.631],[-80.16965667,26.41578167,12.831],[-80.16966333,26.41578333,12.83],[-80.16967,26.41578333,12.83],[-80.169675,26.41578333,13.03],[-80.16968333,26.41578333,13.23],[-80.16969,26.41578333,13.43],[-80.16969833,26.41578333,13.73],[-80.16970833,26.41578167,14.13],[-80.16971667,26.41578333,13.73],[-80.16972167,26.41578167,13.63],[-80.16972667,26.41577667,13.23],[-80.169735,26.41577667,12.83],[-80.16973667,26.415775,12.93],[-80.16974,26.41577,13.03],[-80.16974167,26.41576667,13.13],[-80.169745,26.415765,13.23],[-80.169745,26.41576667,13.23],[-80.16975,26.41576667,13.23],[-80.16975667,26.415765,13.23],[-80.169765,26.41576167,13.63],[-80.169775,26.41576167,13.93],[-80.16978333,26.41576167,14.23],[-80.16979333,26.41576167,14.53],[-80.16980333,26.41576333,14.73],[-80.169815,26.41576667,14.93],[-80.16982333,26.41576833,14.93],[-80.16983667,26.41577333,15.03],[-80.16985,26.41578,14.63],[-80.16985833,26.415785,14.13],[-80.169865,26.415785,13.93],[-80.16987,26.41578167,13.63],[-80.16987333,26.41578,13.33],[-80.16988,26.41578,13.03],[-80.169895,26.41577667,12.93],[-80.16991333,26.41577167,12.729],[-80.169935,26.41576667,12.529],[-80.169955,26.41576667,12.129],[-80.16996833,26.41576333,11.829],[-80.16998333,26.415765,11.729],[-80.17,26.41577333,11.729],[-80.17001167,26.41577833,11.929],[-80.17002333,26.41577667,12.229],[-80.17003,26.415775,12.029],[-80.17003667,26.41576667,11.729],[-80.17003667,26.41576,11.629],[-80.17003,26.415755,11.829],[-80.170025,26.415755,11.929],[-80.170025,26.41575333,12.229],[-80.17002667,26.41575333,12.229],[-80.17002833,26.41575167,12.429],[-80.17002833,26.41575167,12.529],[-80.17003,26.41574833,12.529],[-80.17003333,26.41574833,12.429],[-80.17003333,26.41574833,12.429],[-80.17003333,26.41574833,12.429],[-80.17003333,26.41574833,12.429],[-80.17003333,26.41574833,12.429],[-80.17003333,26.41574833,12.429],[-80.17003333,26.41574833,12.429],[-80.17003333,26.41574833,12.429],[-80.17003333,26.41574833,12.429],[-80.17003333,26.41574833,12.429],[-80.17003333,26.41574833,12.429],[-80.17003333,26.41574833,12.429],[-80.17003333,26.41574833,12.429],[-80.17003333,26.41574833,12.429],[-80.17003333,26.41574833,12.429],[-80.17003333,26.41574833,12.429],[-80.17003333,26.41574833,12.429],[-80.17003333,26.41574833,12.429],[-80.17003333,26.41574833,12.429],[-80.17003333,26.41574833,12.429],[-80.17003333,26.41574833,12.429],[-80.17003333,26.41574833,12.429],[-80.17003333,26.41574833,12.429],[-80.17003333,26.41574833,12.429],[-80.17003333,26.41574833,12.429],[-80.17003333,26.41574667,11.429],[-80.17001833,26.41574,11.329],[-80.17000333,26.41573833,11.329],[-80.16998333,26.41574333,11.329],[-80.16996667,26.41574833,11.029],[-80.169955,26.41575333,10.829],[-80.16994333,26.41575667,10.629],[-80.16993,26.41575833,10.429],[-80.16991833,26.41575833,10.229],[-80.169905,26.41576333,10.029],[-80.16989167,26.41577,10.33],[-80.16987833,26.415775,10.63],[-80.16986167,26.41578167,10.63],[-80.16984667,26.41578667,11.23],[-80.16983833,26.415785,12.13],[-80.16982667,26.415785,12.63],[-80.16981167,26.41578333,12.83],[-80.1698,26.41578333,12.93],[-80.16978667,26.41578667,13.23],[-80.16977167,26.41579,13.43],[-80.16975833,26.41579167,13.63],[-80.16973667,26.415795,13.93],[-80.16970333,26.41579333,14.13],[-80.16967,26.41579333,14.03],[-80.16964,26.41579,13.831],[-80.16960833,26.415785,13.631],[-80.16957833,26.41578167,13.231],[-80.16955,26.41578333,12.931],[-80.16951833,26.41578333,12.431],[-80.16949167,26.41579167,11.431],[-80.16947,26.41578833,11.231],[-80.16945167,26.41579333,10.631],[-80.16942833,26.41579667,9.931],[-80.16940667,26.41579667,9.532],[-80.16938333,26.41580167,9.532],[-80.16936,26.41579833,10.032],[-80.16934167,26.41579833,10.532],[-80.16932,26.41579667,11.132],[-80.169295,26.41579667,11.332],[-80.16926833,26.41579667,11.232],[-80.16924167,26.41579167,11.432],[-80.16921167,26.41579167,11.332],[-80.16918333,26.41579167,11.532],[-80.16916,26.41579167,11.833],[-80.16913833,26.41579167,12.233],[-80.16911,26.41578833,12.233],[-80.16908667,26.41579,12.333],[-80.16906167,26.41579,12.333],[-80.169035,26.41579167,13.333],[-80.16901167,26.41579,13.733],[-80.16898833,26.415785,13.633],[-80.16896167,26.41577833,13.733],[-80.16892833,26.41576667,13.334],[-80.16890333,26.41575667,12.834],[-80.16887167,26.41575,12.234],[-80.16884333,26.41574,12.134],[-80.16881333,26.41572833,12.034],[-80.16878833,26.41571167,11.034],[-80.168765,26.41569167,10.534],[-80.16873833,26.41567167,10.034],[-80.16871667,26.41565833,9.234],[-80.16869333,26.41564333,9.234],[-80.16867167,26.41562833,9.234],[-80.16865333,26.41561,9.535],[-80.16863333,26.41559,10.135],[-80.168615,26.415575,10.835],[-80.16859667,26.41556167,11.135],[-80.16858,26.41554833,11.635],[-80.168565,26.41553333,11.435],[-80.16855,26.41552,11.535],[-80.16853833,26.41551167,11.435],[-80.168525,26.41550167,11.035],[-80.16850333,26.41549167,11.035],[-80.16847833,26.415485,11.135],[-80.16846,26.41548167,11.335],[-80.16843667,26.415485,11.835],[-80.16841833,26.41549,12.835],[-80.1684,26.41549667,13.436],[-80.16838,26.41550833,13.836],[-80.16836167,26.41551667,14.236],[-80.168345,26.41552333,13.736],[-80.16832667,26.415535,13.636],[-80.16830833,26.415545,13.336],[-80.16829,26.41554833,12.836],[-80.168275,26.415555,12.536],[-80.16826,26.41556167,12.036],[-80.16824667,26.41557,11.636],[-80.16823333,26.41557833,11.436],[-80.16821833,26.41558333,11.536],[-80.16819833,26.41559167,11.736],[-80.16818167,26.4156,11.436],[-80.16816333,26.41560833,11.337],[-80.16814667,26.415615,11.237],[-80.16813333,26.41562833,10.437],[-80.16811667,26.41564167,10.137],[-80.16810333,26.41565333,10.137],[-80.16808667,26.41566167,10.037],[-80.168075,26.41567167,10.237],[-80.16806333,26.41567667,10.337],[-80.16805,26.415685,10.537],[-80.16804,26.41569667,10.737],[-80.16803,26.41570833,10.737],[-80.16803,26.415725,10.837],[-80.16803667,26.41573667,11.137],[-80.16804,26.415745,11.437],[-80.16804167,26.41575,11.337],[-80.16804,26.41575167,11.337],[-80.16803667,26.41574167,11.337],[-80.168035,26.41573833,11.137],[-80.168025,26.41572833,11.537],[-80.16801167,26.41571833,12.237],[-80.16800167,26.41571333,12.537],[-80.168,26.41570833,12.537],[-80.16799833,26.41571,12.637],[-80.16799833,26.41571,12.737],[-80.16800333,26.41571,12.737],[-80.16802,26.41570833,12.737],[-80.16804833,26.41570333,13.137],[-80.16807833,26.41568667,13.337],[-80.16811,26.41567333,13.337],[-80.16814167,26.415655,13.637],[-80.16817333,26.41563333,13.637],[-80.16820667,26.41561333,13.636],[-80.16824,26.41559833,13.836],[-80.16827167,26.41558333,13.636],[-80.16829333,26.415565,13.736],[-80.16832,26.41554333,14.236],[-80.168345,26.41552333,13.536],[-80.16837333,26.41550667,13.136],[-80.1684,26.41549167,13.236],[-80.16842833,26.41547667,13.035],[-80.16845667,26.41546,12.735],[-80.168485,26.415445,12.535],[-80.16851167,26.41542833,12.735],[-80.16853667,26.41541333,12.435],[-80.16856333,26.41539667,11.635],[-80.16859,26.41538333,11.335],[-80.168615,26.41536833,11.435],[-80.16864167,26.41535333,12.034],[-80.16866833,26.41533833,12.334],[-80.16869167,26.415325,12.334],[-80.16871667,26.41531,12.334],[-80.16874,26.415295,12.134],[-80.16876167,26.41528,11.934],[-80.16878667,26.41526667,11.934],[-80.16881167,26.41524833,12.334],[-80.16883833,26.41523,12.434],[-80.16886333,26.41521333,12.333],[-80.16888667,26.41519667,12.133],[-80.168915,26.41518,12.333],[-80.16894333,26.41516667,12.233],[-80.16896833,26.41515167,12.333],[-80.16899333,26.415135,12.433],[-80.16901833,26.41512,12.133],[-80.16904333,26.41510667,11.933],[-80.16906667,26.415095,11.233],[-80.16908833,26.41508,10.632],[-80.16910833,26.41506667,10.032],[-80.169125,26.415055,9.032],[-80.16913833,26.41504167,9.232],[-80.16915333,26.41503,9.032],[-80.16916833,26.41502,9.032],[-80.16918333,26.41501333,9.332],[-80.169195,26.41500833,9.332],[-80.16920667,26.415005,8.932],[-80.169215,26.41500167,8.732],[-80.16922167,26.415,8.332],[-80.16922667,26.415,7.832],[-80.16923333,26.41500333,7.632],[-80.16924167,26.41500833,7.332],[-80.16925,26.41501167,7.232],[-80.16926,26.41502333,7.632],[-80.16927,26.41503,7.932],[-80.16928167,26.41503833,8.132],[-80.16929,26.41504333,8.532],[-80.169295,26.41504833,8.932],[-80.169305,26.41505167,9.532],[-80.16931667,26.415055,10.132],[-80.16932333,26.41506,10.731],[-80.16933,26.415065,11.031],[-80.16932833,26.41506667,10.931],[-80.16932833,26.41506833,11.031],[-80.16933,26.41506833,11.131],[-80.16933167,26.41506833,11.231],[-80.16933667,26.41506833,11.331],[-80.16934,26.41507,11.531],[-80.16934833,26.415075,11.731],[-80.16935333,26.41508167,11.731],[-80.16936,26.41509,11.431],[-80.16936333,26.415095,11.331],[-80.16936333,26.41509667,11.331],[-80.169365,26.41509667,11.231],[-80.169365,26.41509667,11.231],[-80.16936667,26.41509833,11.231],[-80.169365,26.4151,11.131],[-80.169365,26.41510167,11.231],[-80.16936667,26.4151,11.131],[-80.16936667,26.4151,11.131],[-80.16936667,26.4151,11.131],[-80.16936667,26.4151,11.131],[-80.16936667,26.4151,11.131],[-80.16936667,26.4151,11.131],[-80.16936667,26.4151,11.131],[-80.16936667,26.4151,11.131],[-80.16936667,26.4151,11.131],[-80.16936667,26.4151,11.131],[-80.16936667,26.4151,11.131],[-80.16936667,26.4151,11.131],[-80.16936667,26.4151,11.131],[-80.169385,26.41511333,10.331],[-80.169395,26.41512,10.231],[-80.16940167,26.41512667,10.231],[-80.16941167,26.415135,10.431],[-80.16942333,26.41514333,10.831],[-80.16943333,26.41515167,10.831],[-80.16944333,26.41516,10.831],[-80.16944667,26.41517,10.631],[-80.16944833,26.41518,10.431],[-80.16945167,26.41518667,10.631],[-80.16945667,26.41519,10.831],[-80.16946167,26.41519667,10.931],[-80.16946833,26.41520333,11.231],[-80.169475,26.41521,11.531],[-80.16948167,26.41521167,11.831],[-80.16948833,26.41521667,12.331],[-80.16949667,26.41522167,12.631],[-80.16950167,26.41522667,12.831],[-80.169505,26.41522833,12.831],[-80.169505,26.41523167,12.731],[-80.169505,26.41523167,12.731],[-80.16950333,26.41523167,12.831],[-80.16950333,26.41523,12.731],[-80.169505,26.41523,12.631],[-80.16950667,26.41523,12.431],[-80.16950833,26.41523,12.331],[-80.16950833,26.41523,12.331],[-80.16950833,26.41523,12.331],[-80.16950833,26.41523,12.331],[-80.16950833,26.41523,12.331],[-80.16950833,26.41523,12.331],[-80.16950833,26.41523,12.331],[-80.16950833,26.41523,12.331],[-80.16950833,26.41523,12.331],[-80.16950833,26.41523,12.331],[-80.16950833,26.41523,12.331],[-80.16950833,26.41523,12.331],[-80.16950833,26.41523,12.331],[-80.16950833,26.41523,12.331],[-80.16950833,26.41523,12.331],[-80.16950833,26.41523,12.331],[-80.16950833,26.41523,12.331],[-80.16950833,26.41523,12.331],[-80.16950833,26.41523,12.331],[-80.16950833,26.41523,12.331],[-80.16950833,26.41523,12.331],[-80.16950833,26.41523,12.331],[-80.16950833,26.41523,12.331],[-80.16950833,26.41523,12.331],[-80.16950833,26.41523,12.331],[-80.16950833,26.41523,12.331],[-80.16950833,26.41523,12.331],[-80.16950833,26.41523,12.331],[-80.16950833,26.41523,12.331],[-80.16950833,26.41523,12.331],[-80.16950833,26.41523,12.331],[-80.16950833,26.41523,12.331],[-80.16950833,26.41523,12.331],[-80.16950833,26.41523,12.331],[-80.16950833,26.41523,12.331],[-80.16950833,26.41523,12.331],[-80.16950833,26.41523,12.331],[-80.16950833,26.41523,12.331],[-80.16950833,26.41523,12.331],[-80.16950833,26.41523,12.331],[-80.16950833,26.41523,12.331],[-80.16950833,26.41523,12.331],[-80.16950833,26.41523,12.331],[-80.16950833,26.41523,12.331],[-80.16950833,26.41523,12.331],[-80.16950833,26.41523,12.331],[-80.16950833,26.41523,12.331],[-80.16950833,26.41523,12.331],[-80.16950833,26.41523,12.331],[-80.16950833,26.41523,12.331],[-80.16950833,26.41523,12.331],[-80.16950833,26.41523,12.331],[-80.16950833,26.41523,12.331],[-80.16950833,26.41523,12.331],[-80.16950833,26.41523,12.331],[-80.16950833,26.41523,12.331],[-80.16950833,26.41523,12.331],[-80.16950833,26.41523,12.331],[-80.16950833,26.41523,12.331],[-80.16950833,26.41523,12.331],[-80.16950833,26.41523,12.331],[-80.16950833,26.41523,12.331],[-80.16950833,26.41523,12.331],[-80.16950833,26.41523,12.331],[-80.16950833,26.41523,12.331],[-80.16950833,26.41523,12.331],[-80.16950833,26.41523,12.331],[-80.16950833,26.41523,12.331],[-80.16950833,26.41523,12.331],[-80.16950833,26.41523,12.331],[-80.16950833,26.41523,12.331],[-80.16950833,26.41523,12.331],[-80.16950833,26.41523,12.331],[-80.16950833,26.41523,12.331],[-80.16950833,26.41523,12.331],[-80.16950833,26.41523,12.331],[-80.16950833,26.41523,12.331],[-80.16950833,26.41523,12.331],[-80.16950833,26.41523,12.331],[-80.16950833,26.41523,12.331],[-80.16949667,26.415225,6.231],[-80.16950333,26.41523,6.331],[-80.16951333,26.41523333,6.431],[-80.16952333,26.41523833,7.031],[-80.16954167,26.41524333,7.731],[-80.169565,26.41525333,8.331],[-80.16959,26.41526,8.93],[-80.16961167,26.41526667,9.33],[-80.16963333,26.415275,9.83],[-80.16966,26.41528333,9.93],[-80.16968667,26.41528667,10.13],[-80.16971167,26.41529,10.13],[-80.16974,26.41529,10.13],[-80.16977,26.41529167,10.13],[-80.16980167,26.41528667,10.13],[-80.169835,26.41527833,10.53],[-80.16986667,26.41527167,11.029],[-80.16989333,26.415265,11.129],[-80.169915,26.41526167,11.829],[-80.16994333,26.41525833,12.029],[-80.16997167,26.41525167,11.929],[-80.169995,26.415245,11.429],[-80.17002,26.41524,10.629],[-80.17004333,26.41523167,10.729],[-80.170065,26.41522,11.329],[-80.17008833,26.41521333,11.128],[-80.17012,26.41520333,10.828],[-80.17015,26.415195,10.628],[-80.17017333,26.41518833,10.628],[-80.17019833,26.41519,10.328],[-80.17022,26.41519167,10.028],[-80.17024833,26.415195,9.528],[-80.17027833,26.41519167,8.928],[-80.17031833,26.41518333,9.127],[-80.17035167,26.41518,8.527],[-80.17038333,26.41517833,7.827],[-80.170405,26.41517833,7.327],[-80.170425,26.415175,7.027],[-80.17046,26.41516,7.427],[-80.17048833,26.415155,8.427],[-80.17051833,26.415155,8.927],[-80.17055167,26.41515667,9.026],[-80.170585,26.41515167,9.026],[-80.17061833,26.41514667,9.126],[-80.170645,26.41513667,8.826],[-80.17067,26.415125,8.826],[-80.170685,26.41511833,8.726],[-80.17070667,26.41509833,9.326],[-80.17072333,26.415075,9.426],[-80.17073667,26.41505333,9.826],[-80.17074833,26.415035,10.426],[-80.17075167,26.41501333,10.626],[-80.17074667,26.41499333,10.726],[-80.17074333,26.41498,10.626],[-80.170745,26.41496667,11.026],[-80.17074833,26.41495,11.326],[-80.17075333,26.414935,11.726],[-80.17076,26.414925,11.325],[-80.17076333,26.41491,10.325],[-80.17076167,26.41489667,9.725],[-80.17076333,26.41488333,8.925],[-80.17076667,26.41486833,8.525],[-80.17076667,26.41485333,8.125],[-80.17076667,26.41483833,8.325],[-80.17076833,26.41482167,8.625],[-80.17076833,26.41481,8.725],[-80.17077,26.4148,8.725],[-80.17076833,26.41479,8.225],[-80.17077333,26.41477833,8.425],[-80.17077667,26.414765,8.425],[-80.17078167,26.41475333,8.225],[-80.170785,26.41473833,8.325],[-80.17079,26.41472167,8.325],[-80.17079667,26.41469667,8.125],[-80.17079833,26.41467167,7.825],[-80.1708,26.41464333,7.125],[-80.1708,26.41460833,7.025],[-80.17080333,26.414575,6.825],[-80.17080833,26.41454,6.725],[-80.17081167,26.41450167,6.525],[-80.17081333,26.41446167,6.225],[-80.17081667,26.41442167,5.725],[-80.17081833,26.41438,5.525],[-80.17082,26.41433333,5.025],[-80.170815,26.41428667,4.925],[-80.170815,26.41424,4.925],[-80.17082,26.41418833,4.925],[-80.17080833,26.41413667,7.025],[-80.17080333,26.41408833,8.025],[-80.170805,26.41404333,7.725],[-80.17081,26.41399667,7.425],[-80.17080833,26.41394833,7.525],[-80.17080167,26.41389833,7.525],[-80.1708,26.41385,7.225],[-80.17080667,26.41380667,5.925],[-80.17080333,26.41376167,5.925],[-80.17080167,26.413715,6.125],[-80.1708,26.41367167,6.025],[-80.17079833,26.41363,5.925],[-80.17079167,26.41358333,5.925],[-80.17079667,26.41354,5.025],[-80.17079833,26.41349667,4.325],[-80.17079333,26.41344667,4.225],[-80.17079167,26.4134,4.125],[-80.17080167,26.41335667,3.324],[-80.17080333,26.41331167,3.224],[-80.170805,26.41326833,3.424],[-80.170805,26.41322667,3.524],[-80.17080167,26.413185,3.524],[-80.170795,26.413145,3.324],[-80.17079167,26.413105,3.224],[-80.17078333,26.41306333,3.624],[-80.17077333,26.41302167,3.724],[-80.17076333,26.41297833,4.024],[-80.17075167,26.41293333,4.424],[-80.17075167,26.412895,4.424],[-80.17074833,26.412855,4.424],[-80.17075167,26.41281667,4.324],[-80.170755,26.41278,4.024],[-80.17075833,26.41274333,3.824],[-80.17076333,26.41270833,3.724],[-80.17077,26.41266833,3.424],[-80.17077667,26.41263,3.324],[-80.170785,26.412595,2.824],[-80.17078167,26.41255333,2.924],[-80.17078667,26.412515,2.224],[-80.17078333,26.41247333,1.724],[-80.17077833,26.41243167,1.424],[-80.170775,26.41238833,0.824],[-80.17076167,26.41234167,1.124],[-80.17075333,26.41230167,1.424],[-80.17076167,26.41226167,1.024],[-80.17077,26.41222333,0.624],[-80.17077,26.41218333,0.824],[-80.17076667,26.41213833,2.124],[-80.17075833,26.41209167,2.124],[-80.17075667,26.41205333,2.324],[-80.17076333,26.41201667,1.924],[-80.17076167,26.41197667,2.524],[-80.17077667,26.41195,2.524],[-80.170785,26.41192333,2.324],[-80.17077833,26.41189167,2.224],[-80.17077333,26.41186167,2.424],[-80.17077167,26.41183167,2.224],[-80.170775,26.41180167,2.024],[-80.17076,26.41176833,2.224],[-80.17074667,26.41173167,1.324],[-80.170735,26.41170167,0.724],[-80.17073,26.41166667,0.824],[-80.17072333,26.411625,1.024],[-80.17071833,26.41158,1.224],[-80.17071167,26.41154,1.424],[-80.17071,26.41150333,1.524],[-80.17071,26.411465,1.324],[-80.17071167,26.41142833,1.624],[-80.17071333,26.411395,2.824],[-80.17071667,26.411365,3.424],[-80.17072,26.411335,3.924],[-80.170735,26.41130833,3.824],[-80.170735,26.411275,4.124],[-80.17073667,26.41124167,3.524],[-80.17073667,26.41120667,3.423],[-80.17073,26.41116833,3.424],[-80.17071667,26.41112833,3.924],[-80.170705,26.41108667,4.524],[-80.17069667,26.41105,5.224],[-80.17068667,26.41101667,5.724],[-80.17067833,26.41098333,6.924],[-80.17067667,26.41095,7.824],[-80.170675,26.41092333,8.824],[-80.17067833,26.41089333,9.124],[-80.17068333,26.41086167,10.324],[-80.17068,26.41083,11.024],[-80.17068167,26.4108,11.023],[-80.17067833,26.41076833,10.823],[-80.17067167,26.41073167,10.823],[-80.17066667,26.41069333,10.523],[-80.170665,26.410655,10.223],[-80.17066667,26.410615,9.823],[-80.17067167,26.410575,9.623],[-80.17067667,26.41053333,9.023],[-80.17067833,26.41049333,9.123],[-80.17067667,26.41045333,8.723],[-80.17067667,26.41041667,8.223],[-80.17067,26.410385,8.323],[-80.17066333,26.41035167,8.023],[-80.17066333,26.410315,8.023],[-80.170665,26.41028,7.823],[-80.17067167,26.41025,7.823],[-80.17068167,26.41021667,7.823],[-80.170695,26.41018833,7.423],[-80.17070333,26.41016,7.123],[-80.170715,26.41013333,6.523],[-80.17072833,26.41010167,6.123],[-80.17073167,26.410065,5.823],[-80.170735,26.41003167,5.623],[-80.17074167,26.41000167,5.123],[-80.170745,26.40995833,5.323],[-80.17075,26.409925,4.623],[-80.17074333,26.40989167,3.923],[-80.17074,26.40985833,3.723],[-80.17074333,26.40982833,3.123],[-80.17074167,26.409795,2.623],[-80.17074667,26.40976333,1.823],[-80.17074667,26.40972833,1.423],[-80.17074167,26.409695,1.023],[-80.17073167,26.40966333,1.123],[-80.17071833,26.40964333,0.723],[-80.17070167,26.40963167,0.323],[-80.17068167,26.40962,0.623],[-80.17065833,26.409615,-0.277],[-80.17062,26.40961333,0.323],[-80.17057,26.40960333,1.723],[-80.17053833,26.40961,2.323],[-80.17049167,26.40961333,3.524],[-80.170445,26.40960667,4.424],[-80.17040167,26.40960333,4.524],[-80.17035333,26.40960333,5.324],[-80.17030833,26.40960167,5.424],[-80.170265,26.4096,5.325],[-80.17022167,26.40959833,5.625],[-80.17018167,26.40959333,6.625],[-80.17014333,26.40958833,7.225],[-80.17010833,26.409585,7.325],[-80.170075,26.40958,7.825],[-80.17003667,26.40958167,8.225],[-80.17000167,26.409585,8.526],[-80.16996833,26.40958667,8.626],[-80.16994,26.40959,8.726],[-80.16991167,26.40959,8.926],[-80.16989,26.40959167,9.026],[-80.169875,26.40959,9.426],[-80.16985667,26.40959167,9.626],[-80.16984,26.40959,9.626],[-80.16982333,26.40959167,9.726],[-80.16981167,26.40959,9.926],[-80.16979833,26.40958667,10.226],[-80.16978,26.40958833,10.627],[-80.169765,26.40958667,10.727],[-80.16975167,26.40958333,10.827],[-80.16973833,26.40958167,11.027],[-80.16972667,26.40957833,11.027],[-80.169715,26.40957167,10.627],[-80.169695,26.40956667,9.927],[-80.16967167,26.40956167,9.227],[-80.169645,26.40956167,8.827],[-80.169615,26.40956167,8.327],[-80.16958,26.40956333,7.927],[-80.16954833,26.40956667,7.527],[-80.169515,26.40957333,7.228],[-80.16947833,26.40958,7.528],[-80.16944,26.40958667,7.628],[-80.16940333,26.40959,7.628],[-80.16936667,26.40959333,7.628],[-80.16932833,26.40959333,7.428],[-80.16929,26.40959167,7.529],[-80.16925333,26.40959,7.629],[-80.16921667,26.409595,8.029],[-80.16917833,26.40959667,8.029],[-80.16913833,26.40960333,8.229],[-80.16909667,26.40961,8.529],[-80.169055,26.40961667,8.73],[-80.16901,26.409625,9.53],[-80.16896667,26.40963,10.73],[-80.16892333,26.409635,11.13],[-80.168885,26.40963833,11.23],[-80.16884333,26.40964167,10.93],[-80.16880167,26.40963833,10.231],[-80.16876167,26.40963667,9.731],[-80.16872167,26.40963333,9.331],[-80.16868167,26.40963167,9.231],[-80.16864167,26.40962333,8.731],[-80.16860333,26.409615,8.231],[-80.168565,26.40960833,7.832],[-80.168525,26.409605,7.432],[-80.16848833,26.409595,7.132],[-80.16845,26.40958667,6.932],[-80.16841,26.40958333,6.632],[-80.16837333,26.40957833,6.632],[-80.16833833,26.40958,7.232],[-80.1683,26.409585,7.633],[-80.16826333,26.40958167,8.033],[-80.16822833,26.40957833,8.333],[-80.16819,26.409575,8.633],[-80.16815167,26.40957167,9.033],[-80.168115,26.409565,9.333],[-80.16808333,26.40956333,9.634],[-80.16804833,26.409565,9.934],[-80.16801667,26.40957,10.534],[-80.167985,26.40957833,10.734],[-80.16795333,26.40959,11.034],[-80.16792,26.409605,11.434],[-80.16789167,26.40962333,11.934],[-80.16786,26.40964,11.734],[-80.16783333,26.40965833,11.935],[-80.167805,26.40967333,11.635],[-80.16777,26.40968333,11.235],[-80.16773333,26.40969,10.635],[-80.16770167,26.40969,10.135],[-80.16766667,26.40969167,9.935],[-80.16762833,26.409695,10.235],[-80.16758833,26.4097,10.336],[-80.16755333,26.40970333,10.436],[-80.16751833,26.40970167,10.136],[-80.16748333,26.40970167,10.636],[-80.16745,26.40969833,10.336],[-80.16741667,26.40969667,10.136],[-80.16738667,26.409695,10.336],[-80.16736167,26.40969167,11.437],[-80.16733667,26.40967833,11.537],[-80.16731333,26.409665,11.537],[-80.16729,26.40965333,12.237],[-80.16726333,26.40964,11.537],[-80.16723167,26.40962833,11.337],[-80.16719333,26.40962167,11.237],[-80.16715833,26.40961333,10.837],[-80.16712333,26.40961167,10.837],[-80.16708833,26.40961,10.738],[-80.167055,26.40960667,10.838],[-80.16701667,26.40961167,10.938],[-80.166985,26.40961667,10.938],[-80.166955,26.40962167,11.138],[-80.166925,26.40962667,11.138],[-80.1669,26.40963,11.138],[-80.16688,26.409645,10.839],[-80.16685833,26.40965,11.239],[-80.16684333,26.40966167,11.639],[-80.16683,26.40968,12.139],[-80.16681667,26.40969833,12.739],[-80.16680333,26.40971333,13.139],[-80.16679167,26.40972833,13.439],[-80.16678,26.40974,12.639],[-80.16676833,26.40975,12.239],[-80.16675667,26.40976167,11.339],[-80.16674667,26.409775,11.439],[-80.16673833,26.40979,11.139],[-80.16673167,26.40980333,10.439],[-80.16672667,26.409815,10.539],[-80.16672167,26.40982667,10.439],[-80.16671833,26.40983833,10.539],[-80.16671333,26.40984333,10.939],[-80.16671167,26.40984833,10.939],[-80.16670667,26.409855,11.239],[-80.16670333,26.40985833,11.339],[-80.16670167,26.40986333,11.339],[-80.16670167,26.40986833,11.339],[-80.16669667,26.409875,11.139],[-80.16669,26.40987833,11.039],[-80.166685,26.40988167,11.039],[-80.16668167,26.40988333,11.139],[-80.16668333,26.40988333,11.339],[-80.16668333,26.409885,11.439],[-80.16668333,26.40988833,11.839],[-80.16668333,26.40988833,11.839],[-80.16668333,26.40988833,11.839],[-80.16668333,26.40988833,11.839],[-80.16668333,26.40988833,11.839],[-80.16668333,26.40988833,11.839],[-80.16668333,26.40988833,11.839],[-80.16668333,26.40988833,11.839],[-80.16668333,26.40988833,11.839],[-80.16668333,26.40988833,11.839],[-80.16668333,26.40988833,11.839],[-80.16668333,26.40988833,11.839],[-80.16668333,26.40988833,11.839],[-80.16668333,26.40988833,11.839],[-80.16668333,26.40988833,11.839],[-80.16668333,26.40988833,11.839],[-80.16668333,26.40988833,11.839],[-80.16668333,26.40988833,11.839],[-80.16668333,26.40988833,11.839],[-80.16668333,26.40988833,11.839],[-80.16668333,26.40988833,11.839],[-80.16668333,26.40988833,11.839],[-80.16668333,26.40988833,11.839],[-80.16668333,26.40988833,11.839],[-80.16668333,26.40988833,11.839],[-80.16668333,26.40988833,11.839],[-80.16668333,26.40988833,11.839],[-80.16668333,26.40988833,11.839],[-80.16668333,26.40988833,11.839],[-80.16668333,26.40988833,11.839],[-80.16668333,26.40988833,11.839],[-80.16668333,26.40988833,11.839],[-80.16668333,26.40988833,11.839],[-80.16668333,26.40988833,11.839],[-80.16668333,26.40988833,11.839],[-80.16668333,26.40988833,11.839],[-80.16668333,26.40988833,11.839],[-80.16668333,26.40988833,11.839]]]}}
]
}
