<?xml version="1.0" encoding="UTF-8"?>
<!-- Created with BasicAirData GPS Logger for Android - ver. 3.3.0 -->
<!-- Track 19 = 345 TrackPoints + 2 Placemarks -->

<!-- Track Statistics (based on Total Time | Time in Movement): -->
<!--  Distance = 710 m -->
<!--  Duration = 05:44 | 04:30 -->
<!--  Altitude Gap = -10 m -->
<!--  Max Speed = 8 mph -->
<!--  Avg Speed = 4.6 | 5.9 mph -->
<!--  Direction = NNW -->
<!--  Activity = running -->
<!--  Altitudes = Corrected using EGM96 grid (bilinear interpolation) -->

<gpx version="1.0"
     creator="BasicAirData GPS Logger 3.3.0"
     xmlns="http://www.topografix.com/GPX/1/0"
     xmlns:xsi="http://www.w3.org/2001/XMLSchema-instance"
     xsi:schemaLocation="http://www.topografix.com/GPX/1/0 http://www.topografix.com/GPX/1/0/gpx.xsd">
<name>GPS Logger 20260724-141804</name>
<desc>Gate-ST5</desc>
<time>2026-07-25T02:04:27Z</time>
<keywords>running</keywords>
<bounds minlat="26.41059500" minlon="-80.16347167" maxlat="26.41497833" maxlon="-80.16106667" />

<wpt lat="26.41065000" lon="-80.16109667"><ele>25.963</ele><time>2026-07-24T18:18:07Z</time><name>Gate</name><sat>14</sat></wpt>

<wpt lat="26.41459667" lon="-80.16271667"><ele>14.458</ele><time>2026-07-24T18:23:40Z</time><name>Station5</name><sat>17</sat></wpt>

<trk>
 <name>Track 20260724-141804</name>
 <trkseg>
  <trkpt lat="26.41065000" lon="-80.16109667"><ele>25.963</ele><time>2026-07-24T18:18:04Z</time><speed>0.000</speed><sat>14</sat></trkpt>
  <trkpt lat="26.41065000" lon="-80.16109667"><ele>25.963</ele><time>2026-07-24T18:18:05Z</time><speed>0.000</speed><sat>14</sat></trkpt>
  <trkpt lat="26.41065000" lon="-80.16109667"><ele>25.963</ele><time>2026-07-24T18:18:06Z</time><speed>0.000</speed><sat>14</sat></trkpt>
  <trkpt lat="26.41065000" lon="-80.16109667"><ele>25.963</ele><time>2026-07-24T18:18:07Z</time><speed>0.000</speed><sat>14</sat></trkpt>
  <trkpt lat="26.41065000" lon="-80.16109667"><ele>25.963</ele><time>2026-07-24T18:18:08Z</time><speed>0.000</speed><sat>14</sat></trkpt>
  <trkpt lat="26.41065000" lon="-80.16109667"><ele>25.963</ele><time>2026-07-24T18:18:09Z</time><speed>0.000</speed><sat>14</sat></trkpt>
  <trkpt lat="26.41065000" lon="-80.16109667"><ele>25.963</ele><time>2026-07-24T18:18:10Z</time><speed>0.000</speed><sat>13</sat></trkpt>
  <trkpt lat="26.41065000" lon="-80.16109667"><ele>25.963</ele><time>2026-07-24T18:18:11Z</time><speed>0.000</speed><sat>14</sat></trkpt>
  <trkpt lat="26.41065000" lon="-80.16109667"><ele>25.963</ele><time>2026-07-24T18:18:12Z</time><speed>0.000</speed><sat>15</sat></trkpt>
  <trkpt lat="26.41065000" lon="-80.16109667"><ele>25.963</ele><time>2026-07-24T18:18:13Z</time><speed>0.000</speed><sat>15</sat></trkpt>
  <trkpt lat="26.41065000" lon="-80.16109667"><ele>25.963</ele><time>2026-07-24T18:18:14Z</time><speed>0.000</speed><sat>16</sat></trkpt>
  <trkpt lat="26.41065000" lon="-80.16109667"><ele>25.963</ele><time>2026-07-24T18:18:15Z</time><speed>0.000</speed><sat>15</sat></trkpt>
  <trkpt lat="26.41065000" lon="-80.16109667"><ele>25.963</ele><time>2026-07-24T18:18:16Z</time><speed>0.000</speed><sat>16</sat></trkpt>
  <trkpt lat="26.41065000" lon="-80.16109667"><ele>25.963</ele><time>2026-07-24T18:18:17Z</time><speed>0.000</speed><sat>15</sat></trkpt>
  <trkpt lat="26.41065000" lon="-80.16109667"><ele>25.963</ele><time>2026-07-24T18:18:18Z</time><speed>0.000</speed><sat>15</sat></trkpt>
  <trkpt lat="26.41065000" lon="-80.16109667"><ele>25.963</ele><time>2026-07-24T18:18:19Z</time><speed>0.000</speed><sat>16</sat></trkpt>
  <trkpt lat="26.41065000" lon="-80.16109667"><ele>25.963</ele><time>2026-07-24T18:18:20Z</time><speed>0.000</speed><sat>16</sat></trkpt>
  <trkpt lat="26.41065000" lon="-80.16109667"><ele>25.963</ele><time>2026-07-24T18:18:21Z</time><speed>0.000</speed><sat>16</sat></trkpt>
  <trkpt lat="26.41065000" lon="-80.16109667"><ele>25.963</ele><time>2026-07-24T18:18:22Z</time><speed>0.000</speed><sat>16</sat></trkpt>
  <trkpt lat="26.41065000" lon="-80.16109667"><ele>25.963</ele><time>2026-07-24T18:18:23Z</time><speed>0.000</speed><sat>15</sat></trkpt>
  <trkpt lat="26.41065000" lon="-80.16109667"><ele>25.963</ele><time>2026-07-24T18:18:24Z</time><speed>0.000</speed><sat>15</sat></trkpt>
  <trkpt lat="26.41065000" lon="-80.16109667"><ele>25.963</ele><time>2026-07-24T18:18:25Z</time><speed>0.000</speed><sat>15</sat></trkpt>
  <trkpt lat="26.41065000" lon="-80.16109667"><ele>25.963</ele><time>2026-07-24T18:18:26Z</time><speed>0.000</speed><sat>16</sat></trkpt>
  <trkpt lat="26.41065000" lon="-80.16109667"><ele>25.963</ele><time>2026-07-24T18:18:27Z</time><speed>0.000</speed><sat>15</sat></trkpt>
  <trkpt lat="26.41065000" lon="-80.16109667"><ele>25.963</ele><time>2026-07-24T18:18:28Z</time><speed>0.000</speed><sat>15</sat></trkpt>
  <trkpt lat="26.41065000" lon="-80.16109667"><ele>25.963</ele><time>2026-07-24T18:18:29Z</time><speed>0.000</speed><sat>15</sat></trkpt>
  <trkpt lat="26.41065000" lon="-80.16109667"><ele>25.963</ele><time>2026-07-24T18:18:30Z</time><speed>0.000</speed><sat>16</sat></trkpt>
  <trkpt lat="26.41065000" lon="-80.16109667"><ele>25.963</ele><time>2026-07-24T18:18:31Z</time><speed>0.000</speed><sat>16</sat></trkpt>
  <trkpt lat="26.41065000" lon="-80.16109667"><ele>25.963</ele><time>2026-07-24T18:18:32Z</time><speed>0.000</speed><sat>16</sat></trkpt>
  <trkpt lat="26.41065000" lon="-80.16109667"><ele>25.963</ele><time>2026-07-24T18:18:33Z</time><speed>0.000</speed><sat>15</sat></trkpt>
  <trkpt lat="26.41065000" lon="-80.16109667"><ele>25.963</ele><time>2026-07-24T18:18:34Z</time><speed>0.000</speed><sat>16</sat></trkpt>
  <trkpt lat="26.41065000" lon="-80.16109667"><ele>25.963</ele><time>2026-07-24T18:18:35Z</time><speed>0.000</speed><sat>16</sat></trkpt>
  <trkpt lat="26.41065000" lon="-80.16109667"><ele>25.963</ele><time>2026-07-24T18:18:36Z</time><speed>0.000</speed><sat>16</sat></trkpt>
  <trkpt lat="26.41065000" lon="-80.16109667"><ele>25.963</ele><time>2026-07-24T18:18:37Z</time><speed>0.000</speed><sat>16</sat></trkpt>
  <trkpt lat="26.41065000" lon="-80.16109667"><ele>25.963</ele><time>2026-07-24T18:18:38Z</time><speed>0.000</speed><sat>16</sat></trkpt>
  <trkpt lat="26.41065000" lon="-80.16109667"><ele>25.963</ele><time>2026-07-24T18:18:39Z</time><speed>0.000</speed><sat>16</sat></trkpt>
  <trkpt lat="26.41065000" lon="-80.16109667"><ele>25.963</ele><time>2026-07-24T18:18:40Z</time><speed>0.000</speed><sat>16</sat></trkpt>
  <trkpt lat="26.41065000" lon="-80.16109667"><ele>25.963</ele><time>2026-07-24T18:18:41Z</time><speed>0.000</speed><sat>16</sat></trkpt>
  <trkpt lat="26.41065000" lon="-80.16109667"><ele>25.963</ele><time>2026-07-24T18:18:42Z</time><speed>0.000</speed><sat>16</sat></trkpt>
  <trkpt lat="26.41065000" lon="-80.16109667"><ele>25.963</ele><time>2026-07-24T18:18:43Z</time><speed>0.000</speed><sat>16</sat></trkpt>
  <trkpt lat="26.41065000" lon="-80.16109667"><ele>25.963</ele><time>2026-07-24T18:18:44Z</time><speed>0.000</speed><sat>16</sat></trkpt>
  <trkpt lat="26.41065000" lon="-80.16109667"><ele>25.963</ele><time>2026-07-24T18:18:45Z</time><speed>0.000</speed><sat>16</sat></trkpt>
  <trkpt lat="26.41065000" lon="-80.16109667"><ele>25.963</ele><time>2026-07-24T18:18:46Z</time><speed>0.000</speed><sat>16</sat></trkpt>
  <trkpt lat="26.41065000" lon="-80.16109667"><ele>25.963</ele><time>2026-07-24T18:18:47Z</time><speed>0.000</speed><sat>16</sat></trkpt>
  <trkpt lat="26.41065000" lon="-80.16109667"><ele>25.963</ele><time>2026-07-24T18:18:48Z</time><speed>0.000</speed><sat>16</sat></trkpt>
  <trkpt lat="26.41065000" lon="-80.16109667"><ele>25.963</ele><time>2026-07-24T18:18:49Z</time><speed>0.000</speed><sat>16</sat></trkpt>
  <trkpt lat="26.41065000" lon="-80.16109667"><ele>25.963</ele><time>2026-07-24T18:18:50Z</time><speed>0.000</speed><sat>16</sat></trkpt>
  <trkpt lat="26.41065000" lon="-80.16109667"><ele>25.963</ele><time>2026-07-24T18:18:51Z</time><speed>0.000</speed><sat>16</sat></trkpt>
  <trkpt lat="26.41065000" lon="-80.16109667"><ele>25.963</ele><time>2026-07-24T18:18:52Z</time><speed>0.000</speed><sat>16</sat></trkpt>
  <trkpt lat="26.41065000" lon="-80.16109667"><ele>25.963</ele><time>2026-07-24T18:18:53Z</time><speed>0.000</speed><sat>13</sat></trkpt>
  <trkpt lat="26.41068000" lon="-80.16111000"><ele>23.563</ele><time>2026-07-24T18:18:54Z</time><speed>0.304</speed><sat>13</sat></trkpt>
  <trkpt lat="26.41067833" lon="-80.16111000"><ele>23.263</ele><time>2026-07-24T18:18:55Z</time><speed>0.000</speed><sat>14</sat></trkpt>
  <trkpt lat="26.41067667" lon="-80.16111000"><ele>23.263</ele><time>2026-07-24T18:18:56Z</time><speed>0.000</speed><sat>16</sat></trkpt>
  <trkpt lat="26.41066000" lon="-80.16110167"><ele>22.963</ele><time>2026-07-24T18:18:57Z</time><speed>0.000</speed><sat>16</sat></trkpt>
  <trkpt lat="26.41066000" lon="-80.16110167"><ele>22.963</ele><time>2026-07-24T18:18:58Z</time><speed>0.000</speed><sat>16</sat></trkpt>
  <trkpt lat="26.41066000" lon="-80.16110167"><ele>22.963</ele><time>2026-07-24T18:18:59Z</time><speed>0.000</speed><sat>16</sat></trkpt>
  <trkpt lat="26.41066000" lon="-80.16110167"><ele>22.963</ele><time>2026-07-24T18:19:00Z</time><speed>0.000</speed><sat>16</sat></trkpt>
  <trkpt lat="26.41065000" lon="-80.16110333"><ele>22.563</ele><time>2026-07-24T18:19:01Z</time><speed>0.454</speed><sat>16</sat></trkpt>
  <trkpt lat="26.41064667" lon="-80.16109667"><ele>22.363</ele><time>2026-07-24T18:19:02Z</time><speed>0.493</speed><sat>16</sat></trkpt>
  <trkpt lat="26.41064167" lon="-80.16109333"><ele>22.263</ele><time>2026-07-24T18:19:03Z</time><speed>0.534</speed><sat>16</sat></trkpt>
  <trkpt lat="26.41063667" lon="-80.16109000"><ele>22.263</ele><time>2026-07-24T18:19:04Z</time><speed>0.521</speed><sat>16</sat></trkpt>
  <trkpt lat="26.41063333" lon="-80.16108667"><ele>22.363</ele><time>2026-07-24T18:19:05Z</time><speed>0.537</speed><sat>16</sat></trkpt>
  <trkpt lat="26.41062500" lon="-80.16108167"><ele>22.563</ele><time>2026-07-24T18:19:06Z</time><speed>0.584</speed><sat>16</sat></trkpt>
  <trkpt lat="26.41062000" lon="-80.16107833"><ele>22.663</ele><time>2026-07-24T18:19:07Z</time><speed>0.577</speed><sat>16</sat></trkpt>
  <trkpt lat="26.41061500" lon="-80.16107500"><ele>22.763</ele><time>2026-07-24T18:19:08Z</time><speed>0.625</speed><sat>16</sat></trkpt>
  <trkpt lat="26.41061333" lon="-80.16107000"><ele>22.863</ele><time>2026-07-24T18:19:09Z</time><speed>0.632</speed><sat>16</sat></trkpt>
  <trkpt lat="26.41060833" lon="-80.16106667"><ele>23.163</ele><time>2026-07-24T18:19:10Z</time><speed>0.591</speed><sat>16</sat></trkpt>
  <trkpt lat="26.41060500" lon="-80.16106833"><ele>23.263</ele><time>2026-07-24T18:19:11Z</time><speed>0.528</speed><sat>16</sat></trkpt>
  <trkpt lat="26.41060500" lon="-80.16107000"><ele>23.163</ele><time>2026-07-24T18:19:12Z</time><speed>0.519</speed><sat>16</sat></trkpt>
  <trkpt lat="26.41060667" lon="-80.16107667"><ele>23.363</ele><time>2026-07-24T18:19:13Z</time><speed>0.000</speed><sat>16</sat></trkpt>
  <trkpt lat="26.41059667" lon="-80.16109500"><ele>22.863</ele><time>2026-07-24T18:19:14Z</time><speed>0.574</speed><sat>15</sat></trkpt>
  <trkpt lat="26.41059500" lon="-80.16111167"><ele>21.763</ele><time>2026-07-24T18:19:15Z</time><speed>0.654</speed><sat>16</sat></trkpt>
  <trkpt lat="26.41060333" lon="-80.16113333"><ele>20.763</ele><time>2026-07-24T18:19:16Z</time><speed>0.726</speed><sat>16</sat></trkpt>
  <trkpt lat="26.41060667" lon="-80.16115833"><ele>20.263</ele><time>2026-07-24T18:19:17Z</time><speed>0.798</speed><sat>16</sat></trkpt>
  <trkpt lat="26.41061833" lon="-80.16117167"><ele>19.163</ele><time>2026-07-24T18:19:18Z</time><speed>0.911</speed><sat>16</sat></trkpt>
  <trkpt lat="26.41062833" lon="-80.16119000"><ele>17.963</ele><time>2026-07-24T18:19:19Z</time><speed>1.038</speed><sat>16</sat></trkpt>
  <trkpt lat="26.41064167" lon="-80.16120000"><ele>17.462</ele><time>2026-07-24T18:19:20Z</time><speed>1.150</speed><sat>16</sat></trkpt>
  <trkpt lat="26.41066167" lon="-80.16120667"><ele>16.162</ele><time>2026-07-24T18:19:21Z</time><speed>1.297</speed><sat>16</sat></trkpt>
  <trkpt lat="26.41068333" lon="-80.16121167"><ele>14.962</ele><time>2026-07-24T18:19:22Z</time><speed>1.447</speed><sat>15</sat></trkpt>
  <trkpt lat="26.41070333" lon="-80.16120833"><ele>14.562</ele><time>2026-07-24T18:19:23Z</time><speed>1.590</speed><sat>15</sat></trkpt>
  <trkpt lat="26.41072333" lon="-80.16120000"><ele>14.463</ele><time>2026-07-24T18:19:24Z</time><speed>1.649</speed><sat>15</sat></trkpt>
  <trkpt lat="26.41074000" lon="-80.16119167"><ele>14.563</ele><time>2026-07-24T18:19:25Z</time><speed>1.799</speed><sat>15</sat></trkpt>
  <trkpt lat="26.41076500" lon="-80.16118167"><ele>14.263</ele><time>2026-07-24T18:19:26Z</time><speed>1.951</speed><sat>15</sat></trkpt>
  <trkpt lat="26.41079000" lon="-80.16117500"><ele>13.963</ele><time>2026-07-24T18:19:27Z</time><speed>2.116</speed><sat>15</sat></trkpt>
  <trkpt lat="26.41081500" lon="-80.16117167"><ele>13.763</ele><time>2026-07-24T18:19:28Z</time><speed>2.222</speed><sat>15</sat></trkpt>
  <trkpt lat="26.41083833" lon="-80.16117167"><ele>13.863</ele><time>2026-07-24T18:19:29Z</time><speed>2.326</speed><sat>15</sat></trkpt>
  <trkpt lat="26.41086167" lon="-80.16117167"><ele>13.563</ele><time>2026-07-24T18:19:30Z</time><speed>2.459</speed><sat>15</sat></trkpt>
  <trkpt lat="26.41088667" lon="-80.16117000"><ele>13.463</ele><time>2026-07-24T18:19:31Z</time><speed>2.564</speed><sat>15</sat></trkpt>
  <trkpt lat="26.41091167" lon="-80.16116833"><ele>13.163</ele><time>2026-07-24T18:19:32Z</time><speed>2.667</speed><sat>15</sat></trkpt>
  <trkpt lat="26.41093667" lon="-80.16116667"><ele>13.063</ele><time>2026-07-24T18:19:33Z</time><speed>2.747</speed><sat>15</sat></trkpt>
  <trkpt lat="26.41096000" lon="-80.16116833"><ele>13.063</ele><time>2026-07-24T18:19:34Z</time><speed>2.857</speed><sat>16</sat></trkpt>
  <trkpt lat="26.41098833" lon="-80.16116833"><ele>12.663</ele><time>2026-07-24T18:19:35Z</time><speed>2.920</speed><sat>15</sat></trkpt>
  <trkpt lat="26.41101833" lon="-80.16116667"><ele>12.963</ele><time>2026-07-24T18:19:36Z</time><speed>2.975</speed><sat>15</sat></trkpt>
  <trkpt lat="26.41105333" lon="-80.16116833"><ele>13.163</ele><time>2026-07-24T18:19:37Z</time><speed>3.115</speed><sat>16</sat></trkpt>
  <trkpt lat="26.41109000" lon="-80.16116833"><ele>13.463</ele><time>2026-07-24T18:19:38Z</time><speed>3.189</speed><sat>16</sat></trkpt>
  <trkpt lat="26.41112000" lon="-80.16116833"><ele>13.463</ele><time>2026-07-24T18:19:39Z</time><speed>3.167</speed><sat>16</sat></trkpt>
  <trkpt lat="26.41114167" lon="-80.16117000"><ele>13.663</ele><time>2026-07-24T18:19:40Z</time><speed>3.101</speed><sat>16</sat></trkpt>
  <trkpt lat="26.41115500" lon="-80.16117333"><ele>14.063</ele><time>2026-07-24T18:19:41Z</time><speed>3.031</speed><sat>16</sat></trkpt>
  <trkpt lat="26.41117000" lon="-80.16117167"><ele>14.363</ele><time>2026-07-24T18:19:42Z</time><speed>2.878</speed><sat>16</sat></trkpt>
  <trkpt lat="26.41118333" lon="-80.16117167"><ele>14.363</ele><time>2026-07-24T18:19:43Z</time><speed>2.751</speed><sat>16</sat></trkpt>
  <trkpt lat="26.41120000" lon="-80.16117333"><ele>14.063</ele><time>2026-07-24T18:19:44Z</time><speed>2.652</speed><sat>16</sat></trkpt>
  <trkpt lat="26.41122167" lon="-80.16117333"><ele>13.963</ele><time>2026-07-24T18:19:45Z</time><speed>2.532</speed><sat>16</sat></trkpt>
  <trkpt lat="26.41124500" lon="-80.16117500"><ele>14.063</ele><time>2026-07-24T18:19:46Z</time><speed>2.447</speed><sat>16</sat></trkpt>
  <trkpt lat="26.41127167" lon="-80.16117500"><ele>14.563</ele><time>2026-07-24T18:19:47Z</time><speed>2.270</speed><sat>16</sat></trkpt>
  <trkpt lat="26.41129667" lon="-80.16117667"><ele>14.863</ele><time>2026-07-24T18:19:48Z</time><speed>2.166</speed><sat>16</sat></trkpt>
  <trkpt lat="26.41132000" lon="-80.16117500"><ele>14.863</ele><time>2026-07-24T18:19:49Z</time><speed>2.162</speed><sat>16</sat></trkpt>
  <trkpt lat="26.41134500" lon="-80.16117167"><ele>14.463</ele><time>2026-07-24T18:19:50Z</time><speed>2.211</speed><sat>16</sat></trkpt>
  <trkpt lat="26.41136833" lon="-80.16117000"><ele>14.063</ele><time>2026-07-24T18:19:51Z</time><speed>2.294</speed><sat>16</sat></trkpt>
  <trkpt lat="26.41139500" lon="-80.16117000"><ele>13.763</ele><time>2026-07-24T18:19:52Z</time><speed>2.442</speed><sat>16</sat></trkpt>
  <trkpt lat="26.41142000" lon="-80.16117500"><ele>13.563</ele><time>2026-07-24T18:19:53Z</time><speed>2.572</speed><sat>16</sat></trkpt>
  <trkpt lat="26.41144667" lon="-80.16117667"><ele>13.463</ele><time>2026-07-24T18:19:54Z</time><speed>2.700</speed><sat>16</sat></trkpt>
  <trkpt lat="26.41147667" lon="-80.16118000"><ele>13.963</ele><time>2026-07-24T18:19:55Z</time><speed>2.792</speed><sat>16</sat></trkpt>
  <trkpt lat="26.41150500" lon="-80.16118000"><ele>13.663</ele><time>2026-07-24T18:19:56Z</time><speed>2.829</speed><sat>16</sat></trkpt>
  <trkpt lat="26.41153333" lon="-80.16118000"><ele>13.163</ele><time>2026-07-24T18:19:57Z</time><speed>2.900</speed><sat>16</sat></trkpt>
  <trkpt lat="26.41156167" lon="-80.16118000"><ele>12.663</ele><time>2026-07-24T18:19:58Z</time><speed>2.986</speed><sat>16</sat></trkpt>
  <trkpt lat="26.41159000" lon="-80.16118167"><ele>12.263</ele><time>2026-07-24T18:19:59Z</time><speed>3.029</speed><sat>16</sat></trkpt>
  <trkpt lat="26.41162000" lon="-80.16118667"><ele>12.263</ele><time>2026-07-24T18:20:00Z</time><speed>3.037</speed><sat>16</sat></trkpt>
  <trkpt lat="26.41164333" lon="-80.16118500"><ele>12.063</ele><time>2026-07-24T18:20:01Z</time><speed>2.977</speed><sat>16</sat></trkpt>
  <trkpt lat="26.41166833" lon="-80.16118000"><ele>11.563</ele><time>2026-07-24T18:20:02Z</time><speed>3.017</speed><sat>16</sat></trkpt>
  <trkpt lat="26.41169667" lon="-80.16118500"><ele>11.763</ele><time>2026-07-24T18:20:03Z</time><speed>3.072</speed><sat>16</sat></trkpt>
  <trkpt lat="26.41172667" lon="-80.16119167"><ele>11.363</ele><time>2026-07-24T18:20:04Z</time><speed>3.081</speed><sat>16</sat></trkpt>
  <trkpt lat="26.41175333" lon="-80.16119333"><ele>11.063</ele><time>2026-07-24T18:20:05Z</time><speed>3.063</speed><sat>16</sat></trkpt>
  <trkpt lat="26.41178167" lon="-80.16119667"><ele>11.363</ele><time>2026-07-24T18:20:06Z</time><speed>3.084</speed><sat>16</sat></trkpt>
  <trkpt lat="26.41180833" lon="-80.16119833"><ele>11.663</ele><time>2026-07-24T18:20:07Z</time><speed>3.069</speed><sat>16</sat></trkpt>
  <trkpt lat="26.41183500" lon="-80.16120000"><ele>10.763</ele><time>2026-07-24T18:20:08Z</time><speed>3.040</speed><sat>16</sat></trkpt>
  <trkpt lat="26.41186000" lon="-80.16120000"><ele>9.763</ele><time>2026-07-24T18:20:09Z</time><speed>3.013</speed><sat>16</sat></trkpt>
  <trkpt lat="26.41187667" lon="-80.16120833"><ele>10.063</ele><time>2026-07-24T18:20:10Z</time><speed>3.005</speed><sat>16</sat></trkpt>
  <trkpt lat="26.41189333" lon="-80.16120833"><ele>10.263</ele><time>2026-07-24T18:20:11Z</time><speed>3.029</speed><sat>16</sat></trkpt>
  <trkpt lat="26.41191333" lon="-80.16121000"><ele>10.963</ele><time>2026-07-24T18:20:12Z</time><speed>2.915</speed><sat>16</sat></trkpt>
  <trkpt lat="26.41193833" lon="-80.16121167"><ele>10.963</ele><time>2026-07-24T18:20:13Z</time><speed>2.838</speed><sat>16</sat></trkpt>
  <trkpt lat="26.41196500" lon="-80.16121667"><ele>11.163</ele><time>2026-07-24T18:20:14Z</time><speed>2.806</speed><sat>16</sat></trkpt>
  <trkpt lat="26.41199500" lon="-80.16122167"><ele>10.863</ele><time>2026-07-24T18:20:15Z</time><speed>2.841</speed><sat>14</sat></trkpt>
  <trkpt lat="26.41202333" lon="-80.16123000"><ele>10.963</ele><time>2026-07-24T18:20:16Z</time><speed>2.825</speed><sat>14</sat></trkpt>
  <trkpt lat="26.41205500" lon="-80.16124000"><ele>11.063</ele><time>2026-07-24T18:20:17Z</time><speed>2.882</speed><sat>15</sat></trkpt>
  <trkpt lat="26.41208833" lon="-80.16125333"><ele>10.963</ele><time>2026-07-24T18:20:18Z</time><speed>2.950</speed><sat>16</sat></trkpt>
  <trkpt lat="26.41212167" lon="-80.16126667"><ele>10.363</ele><time>2026-07-24T18:20:19Z</time><speed>3.046</speed><sat>16</sat></trkpt>
  <trkpt lat="26.41214833" lon="-80.16127500"><ele>10.163</ele><time>2026-07-24T18:20:20Z</time><speed>3.068</speed><sat>16</sat></trkpt>
  <trkpt lat="26.41217333" lon="-80.16128167"><ele>10.463</ele><time>2026-07-24T18:20:21Z</time><speed>3.089</speed><sat>16</sat></trkpt>
  <trkpt lat="26.41219833" lon="-80.16128833"><ele>10.363</ele><time>2026-07-24T18:20:22Z</time><speed>3.146</speed><sat>16</sat></trkpt>
  <trkpt lat="26.41222167" lon="-80.16129333"><ele>10.463</ele><time>2026-07-24T18:20:23Z</time><speed>3.148</speed><sat>16</sat></trkpt>
  <trkpt lat="26.41224000" lon="-80.16129667"><ele>10.163</ele><time>2026-07-24T18:20:24Z</time><speed>3.145</speed><sat>16</sat></trkpt>
  <trkpt lat="26.41226333" lon="-80.16131000"><ele>9.963</ele><time>2026-07-24T18:20:25Z</time><speed>3.069</speed><sat>16</sat></trkpt>
  <trkpt lat="26.41228667" lon="-80.16131667"><ele>10.263</ele><time>2026-07-24T18:20:26Z</time><speed>2.997</speed><sat>16</sat></trkpt>
  <trkpt lat="26.41231167" lon="-80.16132833"><ele>10.763</ele><time>2026-07-24T18:20:27Z</time><speed>2.868</speed><sat>16</sat></trkpt>
  <trkpt lat="26.41233833" lon="-80.16133833"><ele>11.463</ele><time>2026-07-24T18:20:28Z</time><speed>2.743</speed><sat>16</sat></trkpt>
  <trkpt lat="26.41236167" lon="-80.16135000"><ele>11.963</ele><time>2026-07-24T18:20:29Z</time><speed>2.650</speed><sat>16</sat></trkpt>
  <trkpt lat="26.41238333" lon="-80.16135500"><ele>12.263</ele><time>2026-07-24T18:20:30Z</time><speed>2.610</speed><sat>16</sat></trkpt>
  <trkpt lat="26.41241000" lon="-80.16136000"><ele>13.463</ele><time>2026-07-24T18:20:31Z</time><speed>2.640</speed><sat>16</sat></trkpt>
  <trkpt lat="26.41243500" lon="-80.16137333"><ele>14.463</ele><time>2026-07-24T18:20:32Z</time><speed>2.652</speed><sat>16</sat></trkpt>
  <trkpt lat="26.41244833" lon="-80.16138167"><ele>14.463</ele><time>2026-07-24T18:20:33Z</time><speed>2.635</speed><sat>16</sat></trkpt>
  <trkpt lat="26.41247333" lon="-80.16138667"><ele>14.863</ele><time>2026-07-24T18:20:34Z</time><speed>2.593</speed><sat>16</sat></trkpt>
  <trkpt lat="26.41249167" lon="-80.16139000"><ele>15.263</ele><time>2026-07-24T18:20:35Z</time><speed>2.554</speed><sat>16</sat></trkpt>
  <trkpt lat="26.41250667" lon="-80.16139833"><ele>15.863</ele><time>2026-07-24T18:20:36Z</time><speed>2.437</speed><sat>16</sat></trkpt>
  <trkpt lat="26.41252000" lon="-80.16140500"><ele>16.363</ele><time>2026-07-24T18:20:37Z</time><speed>2.392</speed><sat>16</sat></trkpt>
  <trkpt lat="26.41253167" lon="-80.16141167"><ele>16.663</ele><time>2026-07-24T18:20:38Z</time><speed>2.303</speed><sat>16</sat></trkpt>
  <trkpt lat="26.41254333" lon="-80.16142167"><ele>16.763</ele><time>2026-07-24T18:20:39Z</time><speed>2.235</speed><sat>16</sat></trkpt>
  <trkpt lat="26.41256333" lon="-80.16143667"><ele>17.163</ele><time>2026-07-24T18:20:40Z</time><speed>2.131</speed><sat>16</sat></trkpt>
  <trkpt lat="26.41258333" lon="-80.16144500"><ele>17.363</ele><time>2026-07-24T18:20:41Z</time><speed>1.928</speed><sat>15</sat></trkpt>
  <trkpt lat="26.41259667" lon="-80.16145833"><ele>17.163</ele><time>2026-07-24T18:20:42Z</time><speed>1.763</speed><sat>15</sat></trkpt>
  <trkpt lat="26.41260667" lon="-80.16146333"><ele>17.263</ele><time>2026-07-24T18:20:43Z</time><speed>1.624</speed><sat>16</sat></trkpt>
  <trkpt lat="26.41261500" lon="-80.16147167"><ele>17.062</ele><time>2026-07-24T18:20:44Z</time><speed>1.493</speed><sat>16</sat></trkpt>
  <trkpt lat="26.41263000" lon="-80.16148000"><ele>17.062</ele><time>2026-07-24T18:20:45Z</time><speed>1.464</speed><sat>16</sat></trkpt>
  <trkpt lat="26.41264833" lon="-80.16149167"><ele>17.162</ele><time>2026-07-24T18:20:46Z</time><speed>1.575</speed><sat>16</sat></trkpt>
  <trkpt lat="26.41267167" lon="-80.16149500"><ele>17.062</ele><time>2026-07-24T18:20:47Z</time><speed>1.618</speed><sat>16</sat></trkpt>
  <trkpt lat="26.41269167" lon="-80.16149833"><ele>17.162</ele><time>2026-07-24T18:20:48Z</time><speed>1.650</speed><sat>16</sat></trkpt>
  <trkpt lat="26.41271667" lon="-80.16150000"><ele>17.262</ele><time>2026-07-24T18:20:49Z</time><speed>1.633</speed><sat>15</sat></trkpt>
  <trkpt lat="26.41274667" lon="-80.16149833"><ele>17.462</ele><time>2026-07-24T18:20:50Z</time><speed>1.706</speed><sat>15</sat></trkpt>
  <trkpt lat="26.41278333" lon="-80.16149667"><ele>17.862</ele><time>2026-07-24T18:20:51Z</time><speed>1.867</speed><sat>15</sat></trkpt>
  <trkpt lat="26.41281167" lon="-80.16149667"><ele>17.662</ele><time>2026-07-24T18:20:52Z</time><speed>1.982</speed><sat>16</sat></trkpt>
  <trkpt lat="26.41283167" lon="-80.16149333"><ele>17.363</ele><time>2026-07-24T18:20:53Z</time><speed>2.121</speed><sat>16</sat></trkpt>
  <trkpt lat="26.41285667" lon="-80.16149500"><ele>17.263</ele><time>2026-07-24T18:20:54Z</time><speed>2.246</speed><sat>16</sat></trkpt>
  <trkpt lat="26.41288167" lon="-80.16150333"><ele>17.162</ele><time>2026-07-24T18:20:55Z</time><speed>2.361</speed><sat>16</sat></trkpt>
  <trkpt lat="26.41290667" lon="-80.16151000"><ele>16.562</ele><time>2026-07-24T18:20:56Z</time><speed>2.433</speed><sat>16</sat></trkpt>
  <trkpt lat="26.41293333" lon="-80.16152000"><ele>16.462</ele><time>2026-07-24T18:20:57Z</time><speed>2.522</speed><sat>16</sat></trkpt>
  <trkpt lat="26.41296000" lon="-80.16153500"><ele>16.262</ele><time>2026-07-24T18:20:58Z</time><speed>2.665</speed><sat>16</sat></trkpt>
  <trkpt lat="26.41298500" lon="-80.16155167"><ele>16.062</ele><time>2026-07-24T18:20:59Z</time><speed>2.807</speed><sat>16</sat></trkpt>
  <trkpt lat="26.41300167" lon="-80.16156333"><ele>15.462</ele><time>2026-07-24T18:21:00Z</time><speed>2.823</speed><sat>16</sat></trkpt>
  <trkpt lat="26.41302333" lon="-80.16158167"><ele>14.962</ele><time>2026-07-24T18:21:01Z</time><speed>2.852</speed><sat>16</sat></trkpt>
  <trkpt lat="26.41304500" lon="-80.16160000"><ele>14.462</ele><time>2026-07-24T18:21:02Z</time><speed>2.925</speed><sat>16</sat></trkpt>
  <trkpt lat="26.41306833" lon="-80.16162167"><ele>14.162</ele><time>2026-07-24T18:21:03Z</time><speed>2.993</speed><sat>16</sat></trkpt>
  <trkpt lat="26.41309000" lon="-80.16164000"><ele>13.662</ele><time>2026-07-24T18:21:04Z</time><speed>3.068</speed><sat>16</sat></trkpt>
  <trkpt lat="26.41311333" lon="-80.16165667"><ele>13.262</ele><time>2026-07-24T18:21:05Z</time><speed>3.116</speed><sat>16</sat></trkpt>
  <trkpt lat="26.41313833" lon="-80.16168000"><ele>13.062</ele><time>2026-07-24T18:21:06Z</time><speed>3.143</speed><sat>16</sat></trkpt>
  <trkpt lat="26.41316167" lon="-80.16170167"><ele>11.762</ele><time>2026-07-24T18:21:07Z</time><speed>3.179</speed><sat>16</sat></trkpt>
  <trkpt lat="26.41318833" lon="-80.16172333"><ele>11.662</ele><time>2026-07-24T18:21:08Z</time><speed>3.212</speed><sat>16</sat></trkpt>
  <trkpt lat="26.41321500" lon="-80.16174500"><ele>10.762</ele><time>2026-07-24T18:21:09Z</time><speed>3.204</speed><sat>16</sat></trkpt>
  <trkpt lat="26.41323667" lon="-80.16176500"><ele>9.462</ele><time>2026-07-24T18:21:10Z</time><speed>3.260</speed><sat>16</sat></trkpt>
  <trkpt lat="26.41325833" lon="-80.16178500"><ele>8.262</ele><time>2026-07-24T18:21:11Z</time><speed>3.280</speed><sat>16</sat></trkpt>
  <trkpt lat="26.41328000" lon="-80.16180333"><ele>7.961</ele><time>2026-07-24T18:21:12Z</time><speed>3.300</speed><sat>16</sat></trkpt>
  <trkpt lat="26.41330000" lon="-80.16182667"><ele>7.961</ele><time>2026-07-24T18:21:13Z</time><speed>3.300</speed><sat>16</sat></trkpt>
  <trkpt lat="26.41332167" lon="-80.16185167"><ele>8.261</ele><time>2026-07-24T18:21:14Z</time><speed>3.306</speed><sat>16</sat></trkpt>
  <trkpt lat="26.41334500" lon="-80.16187667"><ele>8.461</ele><time>2026-07-24T18:21:15Z</time><speed>3.275</speed><sat>17</sat></trkpt>
  <trkpt lat="26.41336833" lon="-80.16190333"><ele>8.761</ele><time>2026-07-24T18:21:16Z</time><speed>3.293</speed><sat>17</sat></trkpt>
  <trkpt lat="26.41339167" lon="-80.16192833"><ele>9.061</ele><time>2026-07-24T18:21:17Z</time><speed>3.271</speed><sat>17</sat></trkpt>
  <trkpt lat="26.41341167" lon="-80.16195333"><ele>9.061</ele><time>2026-07-24T18:21:18Z</time><speed>3.247</speed><sat>17</sat></trkpt>
  <trkpt lat="26.41343500" lon="-80.16197667"><ele>9.061</ele><time>2026-07-24T18:21:19Z</time><speed>3.244</speed><sat>17</sat></trkpt>
  <trkpt lat="26.41345500" lon="-80.16200167"><ele>9.561</ele><time>2026-07-24T18:21:20Z</time><speed>3.290</speed><sat>17</sat></trkpt>
  <trkpt lat="26.41347667" lon="-80.16202833"><ele>9.561</ele><time>2026-07-24T18:21:21Z</time><speed>3.318</speed><sat>17</sat></trkpt>
  <trkpt lat="26.41350000" lon="-80.16205333"><ele>9.861</ele><time>2026-07-24T18:21:22Z</time><speed>3.294</speed><sat>17</sat></trkpt>
  <trkpt lat="26.41352167" lon="-80.16208000"><ele>10.160</ele><time>2026-07-24T18:21:23Z</time><speed>3.287</speed><sat>17</sat></trkpt>
  <trkpt lat="26.41354333" lon="-80.16210500"><ele>10.660</ele><time>2026-07-24T18:21:24Z</time><speed>3.265</speed><sat>17</sat></trkpt>
  <trkpt lat="26.41356333" lon="-80.16213167"><ele>10.960</ele><time>2026-07-24T18:21:25Z</time><speed>3.256</speed><sat>17</sat></trkpt>
  <trkpt lat="26.41358333" lon="-80.16215667"><ele>11.160</ele><time>2026-07-24T18:21:26Z</time><speed>3.222</speed><sat>17</sat></trkpt>
  <trkpt lat="26.41360333" lon="-80.16218333"><ele>11.460</ele><time>2026-07-24T18:21:27Z</time><speed>3.225</speed><sat>17</sat></trkpt>
  <trkpt lat="26.41362833" lon="-80.16221000"><ele>11.860</ele><time>2026-07-24T18:21:28Z</time><speed>3.244</speed><sat>17</sat></trkpt>
  <trkpt lat="26.41365333" lon="-80.16223833"><ele>12.160</ele><time>2026-07-24T18:21:29Z</time><speed>3.309</speed><sat>17</sat></trkpt>
  <trkpt lat="26.41367500" lon="-80.16226833"><ele>12.360</ele><time>2026-07-24T18:21:30Z</time><speed>3.360</speed><sat>17</sat></trkpt>
  <trkpt lat="26.41369667" lon="-80.16229500"><ele>12.160</ele><time>2026-07-24T18:21:31Z</time><speed>3.398</speed><sat>17</sat></trkpt>
  <trkpt lat="26.41371667" lon="-80.16232167"><ele>12.160</ele><time>2026-07-24T18:21:32Z</time><speed>3.429</speed><sat>17</sat></trkpt>
  <trkpt lat="26.41373333" lon="-80.16234833"><ele>11.459</ele><time>2026-07-24T18:21:33Z</time><speed>3.452</speed><sat>17</sat></trkpt>
  <trkpt lat="26.41375333" lon="-80.16237333"><ele>10.459</ele><time>2026-07-24T18:21:34Z</time><speed>3.496</speed><sat>17</sat></trkpt>
  <trkpt lat="26.41377333" lon="-80.16240000"><ele>9.759</ele><time>2026-07-24T18:21:35Z</time><speed>3.552</speed><sat>17</sat></trkpt>
  <trkpt lat="26.41379167" lon="-80.16242667"><ele>9.659</ele><time>2026-07-24T18:21:36Z</time><speed>3.597</speed><sat>17</sat></trkpt>
  <trkpt lat="26.41380833" lon="-80.16244833"><ele>9.459</ele><time>2026-07-24T18:21:37Z</time><speed>3.645</speed><sat>17</sat></trkpt>
  <trkpt lat="26.41382833" lon="-80.16247667"><ele>9.559</ele><time>2026-07-24T18:21:38Z</time><speed>3.675</speed><sat>17</sat></trkpt>
  <trkpt lat="26.41384333" lon="-80.16249833"><ele>8.859</ele><time>2026-07-24T18:21:39Z</time><speed>3.667</speed><sat>17</sat></trkpt>
  <trkpt lat="26.41385667" lon="-80.16252167"><ele>8.259</ele><time>2026-07-24T18:21:40Z</time><speed>3.627</speed><sat>17</sat></trkpt>
  <trkpt lat="26.41387333" lon="-80.16254833"><ele>7.459</ele><time>2026-07-24T18:21:41Z</time><speed>3.571</speed><sat>17</sat></trkpt>
  <trkpt lat="26.41388833" lon="-80.16257167"><ele>6.759</ele><time>2026-07-24T18:21:42Z</time><speed>3.562</speed><sat>17</sat></trkpt>
  <trkpt lat="26.41390667" lon="-80.16259833"><ele>6.259</ele><time>2026-07-24T18:21:43Z</time><speed>3.534</speed><sat>17</sat></trkpt>
  <trkpt lat="26.41392833" lon="-80.16262500"><ele>5.858</ele><time>2026-07-24T18:21:44Z</time><speed>3.503</speed><sat>17</sat></trkpt>
  <trkpt lat="26.41394833" lon="-80.16265000"><ele>5.558</ele><time>2026-07-24T18:21:45Z</time><speed>3.482</speed><sat>17</sat></trkpt>
  <trkpt lat="26.41396667" lon="-80.16267833"><ele>5.258</ele><time>2026-07-24T18:21:46Z</time><speed>3.470</speed><sat>17</sat></trkpt>
  <trkpt lat="26.41398333" lon="-80.16270500"><ele>5.058</ele><time>2026-07-24T18:21:47Z</time><speed>3.437</speed><sat>17</sat></trkpt>
  <trkpt lat="26.41400167" lon="-80.16273333"><ele>4.858</ele><time>2026-07-24T18:21:48Z</time><speed>3.413</speed><sat>17</sat></trkpt>
  <trkpt lat="26.41402000" lon="-80.16276500"><ele>4.558</ele><time>2026-07-24T18:21:49Z</time><speed>3.377</speed><sat>17</sat></trkpt>
  <trkpt lat="26.41404667" lon="-80.16280167"><ele>5.858</ele><time>2026-07-24T18:21:50Z</time><speed>3.331</speed><sat>17</sat></trkpt>
  <trkpt lat="26.41406833" lon="-80.16283333"><ele>6.258</ele><time>2026-07-24T18:21:51Z</time><speed>3.351</speed><sat>17</sat></trkpt>
  <trkpt lat="26.41409000" lon="-80.16286333"><ele>6.158</ele><time>2026-07-24T18:21:52Z</time><speed>3.361</speed><sat>17</sat></trkpt>
  <trkpt lat="26.41411167" lon="-80.16289167"><ele>5.657</ele><time>2026-07-24T18:21:53Z</time><speed>3.390</speed><sat>17</sat></trkpt>
  <trkpt lat="26.41413167" lon="-80.16292500"><ele>5.357</ele><time>2026-07-24T18:21:54Z</time><speed>3.418</speed><sat>17</sat></trkpt>
  <trkpt lat="26.41415167" lon="-80.16295833"><ele>5.657</ele><time>2026-07-24T18:21:55Z</time><speed>3.455</speed><sat>17</sat></trkpt>
  <trkpt lat="26.41416833" lon="-80.16299333"><ele>5.657</ele><time>2026-07-24T18:21:56Z</time><speed>3.458</speed><sat>17</sat></trkpt>
  <trkpt lat="26.41418333" lon="-80.16302667"><ele>6.057</ele><time>2026-07-24T18:21:57Z</time><speed>3.438</speed><sat>17</sat></trkpt>
  <trkpt lat="26.41420333" lon="-80.16306000"><ele>6.857</ele><time>2026-07-24T18:21:58Z</time><speed>3.445</speed><sat>17</sat></trkpt>
  <trkpt lat="26.41422000" lon="-80.16309500"><ele>7.257</ele><time>2026-07-24T18:21:59Z</time><speed>3.480</speed><sat>17</sat></trkpt>
  <trkpt lat="26.41423833" lon="-80.16313167"><ele>7.957</ele><time>2026-07-24T18:22:00Z</time><speed>3.543</speed><sat>17</sat></trkpt>
  <trkpt lat="26.41425667" lon="-80.16316500"><ele>8.356</ele><time>2026-07-24T18:22:01Z</time><speed>3.559</speed><sat>17</sat></trkpt>
  <trkpt lat="26.41427000" lon="-80.16319667"><ele>8.756</ele><time>2026-07-24T18:22:02Z</time><speed>3.585</speed><sat>17</sat></trkpt>
  <trkpt lat="26.41428500" lon="-80.16322500"><ele>9.156</ele><time>2026-07-24T18:22:03Z</time><speed>3.606</speed><sat>17</sat></trkpt>
  <trkpt lat="26.41429500" lon="-80.16324500"><ele>9.756</ele><time>2026-07-24T18:22:04Z</time><speed>3.328</speed><sat>17</sat></trkpt>
  <trkpt lat="26.41429667" lon="-80.16325167"><ele>10.156</ele><time>2026-07-24T18:22:05Z</time><speed>2.984</speed><sat>17</sat></trkpt>
  <trkpt lat="26.41430000" lon="-80.16325833"><ele>10.456</ele><time>2026-07-24T18:22:06Z</time><speed>2.708</speed><sat>17</sat></trkpt>
  <trkpt lat="26.41431000" lon="-80.16327167"><ele>11.056</ele><time>2026-07-24T18:22:07Z</time><speed>2.499</speed><sat>17</sat></trkpt>
  <trkpt lat="26.41431833" lon="-80.16329167"><ele>11.556</ele><time>2026-07-24T18:22:08Z</time><speed>2.359</speed><sat>17</sat></trkpt>
  <trkpt lat="26.41433000" lon="-80.16331833"><ele>12.056</ele><time>2026-07-24T18:22:09Z</time><speed>2.239</speed><sat>17</sat></trkpt>
  <trkpt lat="26.41434333" lon="-80.16334500"><ele>12.556</ele><time>2026-07-24T18:22:10Z</time><speed>2.140</speed><sat>17</sat></trkpt>
  <trkpt lat="26.41435500" lon="-80.16337333"><ele>13.056</ele><time>2026-07-24T18:22:11Z</time><speed>2.061</speed><sat>17</sat></trkpt>
  <trkpt lat="26.41436667" lon="-80.16340000"><ele>13.156</ele><time>2026-07-24T18:22:12Z</time><speed>1.970</speed><sat>17</sat></trkpt>
  <trkpt lat="26.41438500" lon="-80.16342000"><ele>12.955</ele><time>2026-07-24T18:22:13Z</time><speed>1.898</speed><sat>17</sat></trkpt>
  <trkpt lat="26.41440333" lon="-80.16343833"><ele>13.255</ele><time>2026-07-24T18:22:14Z</time><speed>2.086</speed><sat>17</sat></trkpt>
  <trkpt lat="26.41442333" lon="-80.16345333"><ele>13.255</ele><time>2026-07-24T18:22:15Z</time><speed>2.332</speed><sat>17</sat></trkpt>
  <trkpt lat="26.41444500" lon="-80.16346833"><ele>13.555</ele><time>2026-07-24T18:22:16Z</time><speed>2.556</speed><sat>17</sat></trkpt>
  <trkpt lat="26.41447500" lon="-80.16347167"><ele>13.655</ele><time>2026-07-24T18:22:17Z</time><speed>2.788</speed><sat>17</sat></trkpt>
  <trkpt lat="26.41451000" lon="-80.16347000"><ele>13.755</ele><time>2026-07-24T18:22:18Z</time><speed>2.855</speed><sat>17</sat></trkpt>
  <trkpt lat="26.41453500" lon="-80.16345833"><ele>14.255</ele><time>2026-07-24T18:22:19Z</time><speed>2.909</speed><sat>17</sat></trkpt>
  <trkpt lat="26.41456333" lon="-80.16344167"><ele>13.555</ele><time>2026-07-24T18:22:20Z</time><speed>2.923</speed><sat>17</sat></trkpt>
  <trkpt lat="26.41459000" lon="-80.16342000"><ele>13.256</ele><time>2026-07-24T18:22:21Z</time><speed>2.983</speed><sat>17</sat></trkpt>
  <trkpt lat="26.41462500" lon="-80.16339667"><ele>13.156</ele><time>2026-07-24T18:22:22Z</time><speed>3.043</speed><sat>17</sat></trkpt>
  <trkpt lat="26.41465000" lon="-80.16337667"><ele>13.156</ele><time>2026-07-24T18:22:23Z</time><speed>3.104</speed><sat>17</sat></trkpt>
  <trkpt lat="26.41467667" lon="-80.16335500"><ele>13.456</ele><time>2026-07-24T18:22:24Z</time><speed>3.125</speed><sat>17</sat></trkpt>
  <trkpt lat="26.41469833" lon="-80.16334000"><ele>12.856</ele><time>2026-07-24T18:22:25Z</time><speed>3.126</speed><sat>16</sat></trkpt>
  <trkpt lat="26.41471833" lon="-80.16332500"><ele>12.256</ele><time>2026-07-24T18:22:26Z</time><speed>3.118</speed><sat>17</sat></trkpt>
  <trkpt lat="26.41473833" lon="-80.16330667"><ele>12.056</ele><time>2026-07-24T18:22:27Z</time><speed>3.067</speed><sat>17</sat></trkpt>
  <trkpt lat="26.41475833" lon="-80.16328667"><ele>11.556</ele><time>2026-07-24T18:22:28Z</time><speed>3.091</speed><sat>17</sat></trkpt>
  <trkpt lat="26.41477833" lon="-80.16326500"><ele>11.456</ele><time>2026-07-24T18:22:29Z</time><speed>3.116</speed><sat>17</sat></trkpt>
  <trkpt lat="26.41480167" lon="-80.16324167"><ele>11.456</ele><time>2026-07-24T18:22:30Z</time><speed>3.154</speed><sat>17</sat></trkpt>
  <trkpt lat="26.41482333" lon="-80.16322000"><ele>11.757</ele><time>2026-07-24T18:22:31Z</time><speed>3.127</speed><sat>17</sat></trkpt>
  <trkpt lat="26.41484500" lon="-80.16319667"><ele>11.757</ele><time>2026-07-24T18:22:32Z</time><speed>3.139</speed><sat>17</sat></trkpt>
  <trkpt lat="26.41486667" lon="-80.16317500"><ele>11.457</ele><time>2026-07-24T18:22:33Z</time><speed>3.070</speed><sat>17</sat></trkpt>
  <trkpt lat="26.41489000" lon="-80.16315500"><ele>11.357</ele><time>2026-07-24T18:22:34Z</time><speed>3.081</speed><sat>17</sat></trkpt>
  <trkpt lat="26.41490667" lon="-80.16313167"><ele>10.257</ele><time>2026-07-24T18:22:35Z</time><speed>3.080</speed><sat>17</sat></trkpt>
  <trkpt lat="26.41493000" lon="-80.16311833"><ele>10.257</ele><time>2026-07-24T18:22:36Z</time><speed>3.084</speed><sat>17</sat></trkpt>
  <trkpt lat="26.41494667" lon="-80.16309667"><ele>10.657</ele><time>2026-07-24T18:22:37Z</time><speed>3.071</speed><sat>17</sat></trkpt>
  <trkpt lat="26.41495500" lon="-80.16307167"><ele>11.257</ele><time>2026-07-24T18:22:38Z</time><speed>3.018</speed><sat>16</sat></trkpt>
  <trkpt lat="26.41496333" lon="-80.16304000"><ele>11.057</ele><time>2026-07-24T18:22:39Z</time><speed>2.933</speed><sat>17</sat></trkpt>
  <trkpt lat="26.41497500" lon="-80.16301333"><ele>11.257</ele><time>2026-07-24T18:22:40Z</time><speed>2.870</speed><sat>17</sat></trkpt>
  <trkpt lat="26.41497833" lon="-80.16299000"><ele>11.458</ele><time>2026-07-24T18:22:41Z</time><speed>2.778</speed><sat>17</sat></trkpt>
  <trkpt lat="26.41497167" lon="-80.16297500"><ele>12.058</ele><time>2026-07-24T18:22:42Z</time><speed>2.623</speed><sat>17</sat></trkpt>
  <trkpt lat="26.41495000" lon="-80.16296000"><ele>11.658</ele><time>2026-07-24T18:22:43Z</time><speed>2.601</speed><sat>17</sat></trkpt>
  <trkpt lat="26.41492333" lon="-80.16295000"><ele>11.058</ele><time>2026-07-24T18:22:44Z</time><speed>2.555</speed><sat>17</sat></trkpt>
  <trkpt lat="26.41489167" lon="-80.16294833"><ele>11.058</ele><time>2026-07-24T18:22:45Z</time><speed>2.575</speed><sat>17</sat></trkpt>
  <trkpt lat="26.41486667" lon="-80.16295667"><ele>10.658</ele><time>2026-07-24T18:22:46Z</time><speed>2.554</speed><sat>17</sat></trkpt>
  <trkpt lat="26.41484667" lon="-80.16297333"><ele>10.258</ele><time>2026-07-24T18:22:47Z</time><speed>2.542</speed><sat>17</sat></trkpt>
  <trkpt lat="26.41482667" lon="-80.16299500"><ele>10.457</ele><time>2026-07-24T18:22:48Z</time><speed>2.542</speed><sat>17</sat></trkpt>
  <trkpt lat="26.41481000" lon="-80.16301333"><ele>10.257</ele><time>2026-07-24T18:22:49Z</time><speed>2.553</speed><sat>17</sat></trkpt>
  <trkpt lat="26.41479833" lon="-80.16303833"><ele>10.857</ele><time>2026-07-24T18:22:50Z</time><speed>2.536</speed><sat>17</sat></trkpt>
  <trkpt lat="26.41478333" lon="-80.16305500"><ele>11.757</ele><time>2026-07-24T18:22:51Z</time><speed>2.546</speed><sat>17</sat></trkpt>
  <trkpt lat="26.41476333" lon="-80.16307167"><ele>11.957</ele><time>2026-07-24T18:22:52Z</time><speed>2.623</speed><sat>17</sat></trkpt>
  <trkpt lat="26.41473833" lon="-80.16308667"><ele>12.457</ele><time>2026-07-24T18:22:53Z</time><speed>2.609</speed><sat>17</sat></trkpt>
  <trkpt lat="26.41471833" lon="-80.16309500"><ele>12.657</ele><time>2026-07-24T18:22:54Z</time><speed>2.656</speed><sat>17</sat></trkpt>
  <trkpt lat="26.41469167" lon="-80.16309500"><ele>12.557</ele><time>2026-07-24T18:22:55Z</time><speed>2.658</speed><sat>17</sat></trkpt>
  <trkpt lat="26.41466333" lon="-80.16308667"><ele>12.157</ele><time>2026-07-24T18:22:56Z</time><speed>2.705</speed><sat>17</sat></trkpt>
  <trkpt lat="26.41463667" lon="-80.16308167"><ele>11.857</ele><time>2026-07-24T18:22:57Z</time><speed>2.739</speed><sat>17</sat></trkpt>
  <trkpt lat="26.41461500" lon="-80.16307167"><ele>11.257</ele><time>2026-07-24T18:22:58Z</time><speed>2.736</speed><sat>17</sat></trkpt>
  <trkpt lat="26.41460333" lon="-80.16305667"><ele>10.857</ele><time>2026-07-24T18:22:59Z</time><speed>2.744</speed><sat>17</sat></trkpt>
  <trkpt lat="26.41460667" lon="-80.16303667"><ele>10.657</ele><time>2026-07-24T18:23:00Z</time><speed>2.720</speed><sat>17</sat></trkpt>
  <trkpt lat="26.41460167" lon="-80.16302333"><ele>10.657</ele><time>2026-07-24T18:23:01Z</time><speed>2.711</speed><sat>17</sat></trkpt>
  <trkpt lat="26.41459667" lon="-80.16300167"><ele>10.757</ele><time>2026-07-24T18:23:02Z</time><speed>2.697</speed><sat>17</sat></trkpt>
  <trkpt lat="26.41459167" lon="-80.16298000"><ele>11.357</ele><time>2026-07-24T18:23:03Z</time><speed>2.667</speed><sat>17</sat></trkpt>
  <trkpt lat="26.41458333" lon="-80.16296000"><ele>11.157</ele><time>2026-07-24T18:23:04Z</time><speed>2.555</speed><sat>17</sat></trkpt>
  <trkpt lat="26.41456333" lon="-80.16293333"><ele>10.458</ele><time>2026-07-24T18:23:05Z</time><speed>2.446</speed><sat>17</sat></trkpt>
  <trkpt lat="26.41455000" lon="-80.16291167"><ele>9.758</ele><time>2026-07-24T18:23:06Z</time><speed>2.354</speed><sat>17</sat></trkpt>
  <trkpt lat="26.41454167" lon="-80.16289167"><ele>9.258</ele><time>2026-07-24T18:23:07Z</time><speed>2.256</speed><sat>17</sat></trkpt>
  <trkpt lat="26.41453333" lon="-80.16287333"><ele>8.358</ele><time>2026-07-24T18:23:08Z</time><speed>2.229</speed><sat>17</sat></trkpt>
  <trkpt lat="26.41452333" lon="-80.16285500"><ele>7.758</ele><time>2026-07-24T18:23:09Z</time><speed>2.133</speed><sat>17</sat></trkpt>
  <trkpt lat="26.41451833" lon="-80.16284167"><ele>6.758</ele><time>2026-07-24T18:23:10Z</time><speed>2.049</speed><sat>17</sat></trkpt>
  <trkpt lat="26.41452333" lon="-80.16282500"><ele>6.658</ele><time>2026-07-24T18:23:11Z</time><speed>1.931</speed><sat>17</sat></trkpt>
  <trkpt lat="26.41452500" lon="-80.16281167"><ele>6.558</ele><time>2026-07-24T18:23:12Z</time><speed>1.777</speed><sat>17</sat></trkpt>
  <trkpt lat="26.41452500" lon="-80.16281000"><ele>6.458</ele><time>2026-07-24T18:23:13Z</time><speed>1.625</speed><sat>17</sat></trkpt>
  <trkpt lat="26.41452667" lon="-80.16281333"><ele>6.458</ele><time>2026-07-24T18:23:14Z</time><speed>1.490</speed><sat>17</sat></trkpt>
  <trkpt lat="26.41452500" lon="-80.16281500"><ele>6.558</ele><time>2026-07-24T18:23:15Z</time><speed>1.314</speed><sat>17</sat></trkpt>
  <trkpt lat="26.41452833" lon="-80.16281500"><ele>6.758</ele><time>2026-07-24T18:23:16Z</time><speed>1.112</speed><sat>17</sat></trkpt>
  <trkpt lat="26.41452833" lon="-80.16281500"><ele>7.258</ele><time>2026-07-24T18:23:17Z</time><speed>0.933</speed><sat>16</sat></trkpt>
  <trkpt lat="26.41452833" lon="-80.16280667"><ele>8.458</ele><time>2026-07-24T18:23:18Z</time><speed>0.722</speed><sat>16</sat></trkpt>
  <trkpt lat="26.41452667" lon="-80.16280833"><ele>9.158</ele><time>2026-07-24T18:23:19Z</time><speed>0.575</speed><sat>16</sat></trkpt>
  <trkpt lat="26.41451833" lon="-80.16281000"><ele>9.458</ele><time>2026-07-24T18:23:20Z</time><speed>0.451</speed><sat>17</sat></trkpt>
  <trkpt lat="26.41451000" lon="-80.16280833"><ele>9.958</ele><time>2026-07-24T18:23:21Z</time><speed>0.000</speed><sat>17</sat></trkpt>
  <trkpt lat="26.41450333" lon="-80.16280667"><ele>10.358</ele><time>2026-07-24T18:23:22Z</time><speed>0.000</speed><sat>17</sat></trkpt>
  <trkpt lat="26.41450500" lon="-80.16280667"><ele>10.858</ele><time>2026-07-24T18:23:23Z</time><speed>0.000</speed><sat>17</sat></trkpt>
  <trkpt lat="26.41450500" lon="-80.16280667"><ele>10.858</ele><time>2026-07-24T18:23:24Z</time><speed>0.000</speed><sat>17</sat></trkpt>
  <trkpt lat="26.41450500" lon="-80.16280667"><ele>10.858</ele><time>2026-07-24T18:23:25Z</time><speed>0.000</speed><sat>17</sat></trkpt>
  <trkpt lat="26.41450500" lon="-80.16280667"><ele>10.858</ele><time>2026-07-24T18:23:26Z</time><speed>0.000</speed><sat>17</sat></trkpt>
  <trkpt lat="26.41450500" lon="-80.16280667"><ele>10.858</ele><time>2026-07-24T18:23:27Z</time><speed>0.000</speed><sat>17</sat></trkpt>
  <trkpt lat="26.41450500" lon="-80.16280667"><ele>10.858</ele><time>2026-07-24T18:23:28Z</time><speed>0.000</speed><sat>17</sat></trkpt>
  <trkpt lat="26.41454667" lon="-80.16277833"><ele>11.458</ele><time>2026-07-24T18:23:29Z</time><speed>0.331</speed><sat>17</sat></trkpt>
  <trkpt lat="26.41455333" lon="-80.16277333"><ele>11.458</ele><time>2026-07-24T18:23:30Z</time><speed>0.410</speed><sat>17</sat></trkpt>
  <trkpt lat="26.41455833" lon="-80.16276667"><ele>11.658</ele><time>2026-07-24T18:23:31Z</time><speed>0.461</speed><sat>17</sat></trkpt>
  <trkpt lat="26.41456333" lon="-80.16275833"><ele>11.558</ele><time>2026-07-24T18:23:32Z</time><speed>0.525</speed><sat>17</sat></trkpt>
  <trkpt lat="26.41456667" lon="-80.16275167"><ele>11.458</ele><time>2026-07-24T18:23:33Z</time><speed>0.581</speed><sat>17</sat></trkpt>
  <trkpt lat="26.41457000" lon="-80.16274500"><ele>11.958</ele><time>2026-07-24T18:23:34Z</time><speed>0.659</speed><sat>17</sat></trkpt>
  <trkpt lat="26.41457333" lon="-80.16273500"><ele>12.458</ele><time>2026-07-24T18:23:35Z</time><speed>0.737</speed><sat>17</sat></trkpt>
  <trkpt lat="26.41458000" lon="-80.16272833"><ele>12.958</ele><time>2026-07-24T18:23:36Z</time><speed>0.791</speed><sat>17</sat></trkpt>
  <trkpt lat="26.41458500" lon="-80.16272500"><ele>13.458</ele><time>2026-07-24T18:23:37Z</time><speed>0.826</speed><sat>17</sat></trkpt>
  <trkpt lat="26.41459333" lon="-80.16272333"><ele>14.158</ele><time>2026-07-24T18:23:38Z</time><speed>0.842</speed><sat>17</sat></trkpt>
  <trkpt lat="26.41459833" lon="-80.16272000"><ele>14.158</ele><time>2026-07-24T18:23:39Z</time><speed>0.834</speed><sat>17</sat></trkpt>
  <trkpt lat="26.41459667" lon="-80.16271667"><ele>14.458</ele><time>2026-07-24T18:23:40Z</time><speed>0.802</speed><sat>17</sat></trkpt>
  <trkpt lat="26.41459500" lon="-80.16271333"><ele>14.558</ele><time>2026-07-24T18:23:41Z</time><speed>0.771</speed><sat>17</sat></trkpt>
  <trkpt lat="26.41459333" lon="-80.16271167"><ele>14.558</ele><time>2026-07-24T18:23:42Z</time><speed>0.700</speed><sat>17</sat></trkpt>
  <trkpt lat="26.41459167" lon="-80.16270833"><ele>14.758</ele><time>2026-07-24T18:23:43Z</time><speed>0.676</speed><sat>17</sat></trkpt>
  <trkpt lat="26.41459167" lon="-80.16270833"><ele>14.958</ele><time>2026-07-24T18:23:44Z</time><speed>0.607</speed><sat>17</sat></trkpt>
  <trkpt lat="26.41459500" lon="-80.16270667"><ele>15.258</ele><time>2026-07-24T18:23:45Z</time><speed>0.522</speed><sat>16</sat></trkpt>
  <trkpt lat="26.41459667" lon="-80.16270667"><ele>15.558</ele><time>2026-07-24T18:23:46Z</time><speed>0.452</speed><sat>16</sat></trkpt>
  <trkpt lat="26.41459500" lon="-80.16270667"><ele>15.958</ele><time>2026-07-24T18:23:47Z</time><speed>0.000</speed><sat>16</sat></trkpt>
  <trkpt lat="26.41459333" lon="-80.16270833"><ele>16.158</ele><time>2026-07-24T18:23:48Z</time><speed>0.000</speed><sat>16</sat></trkpt>
 </trkseg>
</trk>

</gpx>
 