<?xml version="1.0" encoding="UTF-8"?>
<!-- Created with BasicAirData GPS Logger for Android - ver. 3.3.0 -->
<!-- Track 12 = 590 TrackPoints + 2 Placemarks -->
<kml xmlns="http://www.opengis.net/kml/2.2">
 <Document>
  <name>GPS Logger 20260724-103209</name>
  <description><![CDATA[ST2-GolfCartCenter
590 Trackpoints + 2 Placemarks]]></description>
  <Style id="TrackStyle">
   <LineStyle>
    <color>ff0000ff</color>
    <width>3</width>
   </LineStyle>
   <PolyStyle>
    <color>7f0000ff</color>
   </PolyStyle>
   <BalloonStyle>
    <text><![CDATA[<p style="color:red;font-weight:bold">$[name]</p><p style="font-size:11px">$[description]</p><p style="font-size:7px">Track Stats based on: Total time | Time in Movement</p>]]></text>
   </BalloonStyle>
  </Style>
  <Style id="PlacemarkStyle">
   <IconStyle>
    <Icon><href>http://maps.google.com/mapfiles/kml/shapes/placemark_circle_highlight.png</href></Icon>
   </IconStyle>
  </Style>

  <Placemark id="1">
   <name>Station2</name>
   <styleUrl>#PlacemarkStyle</styleUrl>
   <Point>
    <altitudeMode>clampToGround</altitudeMode>
    <coordinates>-80.15280167,26.42372000,4.804</coordinates>
    <extrude>1</extrude>
   </Point>
  </Placemark>

  <Placemark id="2">
   <name>Golf cart center</name>
   <styleUrl>#PlacemarkStyle</styleUrl>
   <Point>
    <altitudeMode>clampToGround</altitudeMode>
    <coordinates>-80.16338333,26.41588000,10.156</coordinates>
    <extrude>1</extrude>
   </Point>
  </Placemark>

  <Placemark id="20260724-103209">
   <name>Track 20260724-103209</name>
   <description><![CDATA[<b>ST2-GolfCartCenter</b><br><br>Distance = 2.62 km<br>Duration = 09:49 | 08:50<br>Altitude Gap = 5 m<br>Max Speed = 15 mph<br>Avg Speed = 10.0 | 11.1 mph<br>Direction = SW <br><br><i>590 Trackpoints</i>]]></description>
   <styleUrl>#TrackStyle</styleUrl>
   <LineString>
    <extrude>0</extrude>
    <tessellate>0</tessellate>
    <altitudeMode>clampToGround</altitudeMode>
    <coordinates>
     -80.15276333,26.42351167,5.504
     -80.15276000,26.42351167,5.504
     -80.15276000,26.42351167,5.504
     -80.15276000,26.42351167,5.504
     -80.15276000,26.42351167,5.504
     -80.15276000,26.42351167,5.504
     -80.15276000,26.42351167,5.504
     -80.15276000,26.42351167,5.504
     -80.15276000,26.42351167,5.504
     -80.15279000,26.42356500,5.304
     -80.15280000,26.42360333,5.104
     -80.15280833,26.42363667,4.704
     -80.15281500,26.42366333,4.704
     -80.15281500,26.42368833,4.704
     -80.15281500,26.42370833,4.704
     -80.15280833,26.42371333,4.604
     -80.15280667,26.42372000,4.704
     -80.15280500,26.42372333,4.904
     -80.15279833,26.42372167,5.104
     -80.15280167,26.42372000,4.804
     -80.15280500,26.42371500,4.704
     -80.15281167,26.42371167,4.604
     -80.15281667,26.42371333,4.504
     -80.15281833,26.42371000,4.404
     -80.15282167,26.42371000,4.404
     -80.15282333,26.42370833,4.504
     -80.15282500,26.42370833,4.504
     -80.15282667,26.42370667,4.504
     -80.15282667,26.42370667,4.504
     -80.15282667,26.42370667,4.504
     -80.15282667,26.42370667,4.504
     -80.15281833,26.42366833,4.104
     -80.15281500,26.42363833,4.104
     -80.15280833,26.42360500,4.004
     -80.15279667,26.42357500,3.904
     -80.15278333,26.42355500,3.904
     -80.15277333,26.42354000,3.904
     -80.15277000,26.42353167,3.904
     -80.15276833,26.42352833,4.004
     -80.15276833,26.42352833,3.904
     -80.15277000,26.42352667,4.104
     -80.15277167,26.42352333,4.004
     -80.15277167,26.42352333,3.904
     -80.15277000,26.42352333,3.904
     -80.15277500,26.42352167,3.804
     -80.15278000,26.42352167,3.504
     -80.15279000,26.42351333,3.404
     -80.15280167,26.42350000,3.504
     -80.15280333,26.42348833,3.504
     -80.15281167,26.42347500,3.604
     -80.15282500,26.42346167,3.804
     -80.15282833,26.42344833,3.704
     -80.15284167,26.42343833,3.404
     -80.15285500,26.42342833,2.904
     -80.15286667,26.42342000,2.004
     -80.15288667,26.42341167,1.904
     -80.15290167,26.42339833,0.904
     -80.15291667,26.42338333,0.304
     -80.15293167,26.42337000,-0.196
     -80.15295167,26.42335500,-0.496
     -80.15297500,26.42334167,-0.897
     -80.15299833,26.42332833,-1.097
     -80.15302333,26.42331167,-1.097
     -80.15305667,26.42329667,-0.797
     -80.15308833,26.42328333,-0.597
     -80.15311667,26.42327167,-0.497
     -80.15314000,26.42326000,-0.397
     -80.15315333,26.42324500,-0.197
     -80.15317167,26.42323333,-0.297
     -80.15318500,26.42321833,-0.297
     -80.15319667,26.42320167,0.102
     -80.15320500,26.42318333,-0.098
     -80.15320500,26.42316333,0.502
     -80.15320333,26.42314167,0.902
     -80.15320333,26.42312500,1.102
     -80.15320333,26.42311167,1.302
     -80.15320500,26.42309667,1.702
     -80.15321000,26.42308333,1.802
     -80.15321667,26.42306833,2.002
     -80.15322000,26.42305167,2.202
     -80.15323000,26.42303000,2.202
     -80.15323667,26.42300500,2.302
     -80.15323667,26.42297833,2.302
     -80.15323500,26.42295000,2.202
     -80.15323500,26.42292333,2.102
     -80.15322833,26.42290000,2.402
     -80.15322000,26.42287833,3.002
     -80.15320833,26.42286167,3.702
     -80.15320500,26.42284500,4.102
     -80.15320333,26.42282833,4.202
     -80.15320333,26.42281333,4.002
     -80.15320167,26.42279667,3.802
     -80.15320167,26.42278000,3.802
     -80.15320167,26.42276333,3.602
     -80.15320500,26.42275167,3.502
     -80.15320667,26.42273500,3.402
     -80.15321667,26.42272000,3.402
     -80.15323667,26.42271333,3.002
     -80.15326000,26.42271167,2.702
     -80.15329000,26.42271500,2.602
     -80.15333000,26.42272167,2.902
     -80.15337500,26.42272667,3.401
     -80.15342000,26.42272667,3.701
     -80.15346833,26.42272500,4.201
     -80.15352000,26.42272500,4.801
     -80.15357333,26.42272167,5.301
     -80.15362667,26.42272000,5.400
     -80.15367667,26.42271833,5.400
     -80.15373333,26.42271833,4.900
     -80.15378833,26.42271833,5.000
     -80.15384333,26.42271667,4.900
     -80.15389833,26.42271333,5.099
     -80.15394833,26.42270833,4.699
     -80.15400333,26.42270833,4.099
     -80.15406167,26.42271333,4.099
     -80.15412167,26.42271500,4.298
     -80.15417833,26.42271500,4.098
     -80.15423500,26.42271500,3.898
     -80.15428833,26.42271500,3.498
     -80.15434333,26.42272000,4.197
     -80.15440000,26.42272833,4.397
     -80.15446000,26.42273667,4.797
     -80.15452167,26.42274500,4.997
     -80.15458167,26.42275500,5.296
     -80.15464000,26.42276333,4.996
     -80.15469833,26.42276667,4.196
     -80.15476000,26.42277500,3.896
     -80.15482000,26.42278167,3.296
     -80.15488000,26.42279000,2.295
     -80.15494333,26.42279833,1.595
     -80.15501000,26.42281000,1.495
     -80.15507000,26.42281667,1.295
     -80.15513167,26.42282500,1.494
     -80.15519333,26.42283000,1.494
     -80.15525500,26.42283833,1.694
     -80.15531667,26.42284500,1.894
     -80.15537500,26.42285667,1.793
     -80.15543500,26.42286000,1.293
     -80.15549667,26.42286500,1.093
     -80.15555500,26.42287167,0.793
     -80.15561500,26.42287833,0.792
     -80.15567667,26.42289000,1.092
     -80.15573500,26.42290000,1.292
     -80.15579833,26.42291500,1.492
     -80.15586000,26.42292667,1.791
     -80.15592000,26.42293500,1.691
     -80.15598167,26.42294167,1.891
     -80.15604167,26.42294500,1.791
     -80.15610000,26.42294833,1.690
     -80.15616333,26.42294833,1.890
     -80.15622667,26.42295167,2.090
     -80.15629167,26.42295167,2.390
     -80.15635500,26.42295167,2.689
     -80.15641667,26.42295000,3.089
     -80.15648167,26.42295000,3.489
     -80.15654667,26.42294667,3.389
     -80.15661500,26.42294333,3.688
     -80.15668333,26.42294333,3.988
     -80.15675167,26.42293500,4.188
     -80.15682000,26.42292833,4.387
     -80.15688833,26.42292167,4.487
     -80.15695833,26.42291167,4.187
     -80.15702333,26.42290333,3.687
     -80.15708500,26.42289167,3.186
     -80.15714667,26.42288000,2.986
     -80.15721000,26.42286833,2.586
     -80.15727333,26.42286000,1.885
     -80.15733333,26.42284833,1.085
     -80.15739667,26.42283500,1.185
     -80.15746333,26.42282167,1.085
     -80.15753167,26.42281000,1.184
     -80.15759667,26.42280167,0.884
     -80.15766500,26.42279167,1.084
     -80.15773000,26.42278167,0.884
     -80.15779333,26.42277167,0.483
     -80.15785833,26.42276500,0.183
     -80.15790833,26.42275667,-1.117
     -80.15796833,26.42274667,-1.517
     -80.15803167,26.42273500,-2.118
     -80.15809667,26.42273167,-2.118
     -80.15815833,26.42272333,-2.818
     -80.15822167,26.42273333,-1.619
     -80.15828833,26.42273500,-1.519
     -80.15835500,26.42273000,-1.419
     -80.15842000,26.42273000,-0.519
     -80.15848333,26.42272833,-0.520
     -80.15855167,26.42273333,-0.420
     -80.15861833,26.42272833,-0.320
     -80.15868833,26.42272833,-0.120
     -80.15875833,26.42272667,0.279
     -80.15882333,26.42272333,0.679
     -80.15889500,26.42272500,0.779
     -80.15895667,26.42272167,0.578
     -80.15902500,26.42272167,0.978
     -80.15909333,26.42271667,1.278
     -80.15916000,26.42271500,1.478
     -80.15922167,26.42270500,1.677
     -80.15929333,26.42269833,1.877
     -80.15935333,26.42268000,2.177
     -80.15941167,26.42265833,2.477
     -80.15946833,26.42263333,2.576
     -80.15952333,26.42260333,2.776
     -80.15957667,26.42256833,3.076
     -80.15962500,26.42253000,3.476
     -80.15967167,26.42248667,3.975
     -80.15971167,26.42244333,4.375
     -80.15975000,26.42240000,4.275
     -80.15977333,26.42234667,4.275
     -80.15979000,26.42229000,4.075
     -80.15981167,26.42223667,4.375
     -80.15982500,26.42218167,4.575
     -80.15983667,26.42213167,4.975
     -80.15985000,26.42208000,4.974
     -80.15986000,26.42203167,4.774
     -80.15986000,26.42198000,4.374
     -80.15985833,26.42193167,4.474
     -80.15985833,26.42188167,3.874
     -80.15986000,26.42182667,3.974
     -80.15985333,26.42177167,3.874
     -80.15984000,26.42171167,4.174
     -80.15982167,26.42166000,3.674
     -80.15979500,26.42161000,4.374
     -80.15977000,26.42155833,4.674
     -80.15974500,26.42151167,4.575
     -80.15972167,26.42146000,4.375
     -80.15969333,26.42141333,4.075
     -80.15965667,26.42136667,3.675
     -80.15961833,26.42132000,3.575
     -80.15957667,26.42127333,3.975
     -80.15953333,26.42122833,3.975
     -80.15949167,26.42118833,4.375
     -80.15944500,26.42114500,4.576
     -80.15939667,26.42110000,4.876
     -80.15935333,26.42106167,5.176
     -80.15931500,26.42102667,4.776
     -80.15927167,26.42098333,4.876
     -80.15923000,26.42094000,4.376
     -80.15918667,26.42089167,3.977
     -80.15914333,26.42085167,3.877
     -80.15910000,26.42081000,4.177
     -80.15906167,26.42076833,4.377
     -80.15903000,26.42072833,4.477
     -80.15899667,26.42068167,3.977
     -80.15896000,26.42064167,3.777
     -80.15891667,26.42059333,3.477
     -80.15887000,26.42054000,4.078
     -80.15882833,26.42048500,3.878
     -80.15878667,26.42043000,4.378
     -80.15875167,26.42038000,4.578
     -80.15871833,26.42033333,4.878
     -80.15868333,26.42028833,4.978
     -80.15865667,26.42024500,5.578
     -80.15863833,26.42021167,5.578
     -80.15862833,26.42019000,5.378
     -80.15862333,26.42017500,5.378
     -80.15861667,26.42014333,5.178
     -80.15861500,26.42011000,5.078
     -80.15862500,26.42007333,4.478
     -80.15867667,26.42004000,4.478
     -80.15872333,26.42000833,3.678
     -80.15877500,26.41997167,3.778
     -80.15882167,26.41994000,3.077
     -80.15886833,26.41990667,1.577
     -80.15891167,26.41987167,1.377
     -80.15896167,26.41983000,2.677
     -80.15901000,26.41979167,2.877
     -80.15905500,26.41975667,3.476
     -80.15909500,26.41973000,2.876
     -80.15912833,26.41970500,2.576
     -80.15915167,26.41968167,2.676
     -80.15917000,26.41966833,2.776
     -80.15917500,26.41966500,2.876
     -80.15917667,26.41966500,3.076
     -80.15917667,26.41966500,3.076
     -80.15917667,26.41966500,3.076
     -80.15917667,26.41966500,3.076
     -80.15917667,26.41966500,3.076
     -80.15917667,26.41966500,3.076
     -80.15917667,26.41966500,3.076
     -80.15917667,26.41966500,3.076
     -80.15917667,26.41966500,3.076
     -80.15917667,26.41966500,3.076
     -80.15917667,26.41966500,3.076
     -80.15917667,26.41966500,3.076
     -80.15917667,26.41966500,3.076
     -80.15917667,26.41966500,3.076
     -80.15917500,26.41966000,3.576
     -80.15919500,26.41964667,3.476
     -80.15921500,26.41963333,3.576
     -80.15924000,26.41961167,3.476
     -80.15925833,26.41957833,3.375
     -80.15926167,26.41954500,3.675
     -80.15926167,26.41951167,3.375
     -80.15925667,26.41948167,3.675
     -80.15924000,26.41944833,3.675
     -80.15920333,26.41941667,3.676
     -80.15916500,26.41938167,4.076
     -80.15913333,26.41934667,3.976
     -80.15910167,26.41931167,3.676
     -80.15907500,26.41928000,3.276
     -80.15904667,26.41924500,3.276
     -80.15902500,26.41920833,3.276
     -80.15899667,26.41917000,3.776
     -80.15896500,26.41913167,3.576
     -80.15893833,26.41909167,4.277
     -80.15891167,26.41904833,5.077
     -80.15888333,26.41900833,5.977
     -80.15885667,26.41897333,6.077
     -80.15882667,26.41893667,6.677
     -80.15879667,26.41890167,6.977
     -80.15876333,26.41886333,6.777
     -80.15872667,26.41882167,6.477
     -80.15869667,26.41878333,6.477
     -80.15867333,26.41874167,6.177
     -80.15864167,26.41870333,5.978
     -80.15861000,26.41866667,6.378
     -80.15857667,26.41862167,7.178
     -80.15854667,26.41858167,7.478
     -80.15851833,26.41854833,7.678
     -80.15848667,26.41850500,8.178
     -80.15845333,26.41846333,7.878
     -80.15842500,26.41842500,7.478
     -80.15839667,26.41838667,6.578
     -80.15836667,26.41834833,5.678
     -80.15833500,26.41831000,5.479
     -80.15830000,26.41827167,4.079
     -80.15826167,26.41823167,3.179
     -80.15822000,26.41819500,2.379
     -80.15818500,26.41815167,1.879
     -80.15815000,26.41811667,1.479
     -80.15811167,26.41807500,1.179
     -80.15807333,26.41803500,1.379
     -80.15803500,26.41799000,1.980
     -80.15800333,26.41794500,1.880
     -80.15797833,26.41789667,2.480
     -80.15795167,26.41784667,3.880
     -80.15793000,26.41779833,3.880
     -80.15791000,26.41774833,3.780
     -80.15789333,26.41770333,3.580
     -80.15787833,26.41765500,3.780
     -80.15786000,26.41760333,4.180
     -80.15784333,26.41755167,5.080
     -80.15782333,26.41750167,5.180
     -80.15781000,26.41745000,5.380
     -80.15779167,26.41739833,6.280
     -80.15777833,26.41734833,6.280
     -80.15776333,26.41729667,6.880
     -80.15775167,26.41724333,7.180
     -80.15774167,26.41719333,6.880
     -80.15773667,26.41714500,6.280
     -80.15773333,26.41709667,5.780
     -80.15773333,26.41704833,5.480
     -80.15774000,26.41700000,5.280
     -80.15774833,26.41695000,5.280
     -80.15775333,26.41689167,4.980
     -80.15775167,26.41684167,5.380
     -80.15775333,26.41679000,5.180
     -80.15775333,26.41673833,5.180
     -80.15775667,26.41668167,5.780
     -80.15776333,26.41663333,5.780
     -80.15777333,26.41658167,5.180
     -80.15779000,26.41652667,5.180
     -80.15781167,26.41647667,5.380
     -80.15783500,26.41643333,4.680
     -80.15785333,26.41638333,4.379
     -80.15788167,26.41633667,4.779
     -80.15790667,26.41628667,5.579
     -80.15793833,26.41624000,4.679
     -80.15797167,26.41619000,4.379
     -80.15800500,26.41614000,3.679
     -80.15803333,26.41609500,2.879
     -80.15807167,26.41604833,2.778
     -80.15810833,26.41600167,2.978
     -80.15813667,26.41595667,3.478
     -80.15817000,26.41591500,4.078
     -80.15820000,26.41586333,4.978
     -80.15823000,26.41581167,5.178
     -80.15826500,26.41576500,5.677
     -80.15830000,26.41572167,5.177
     -80.15833333,26.41567000,5.177
     -80.15837667,26.41562500,5.277
     -80.15841833,26.41558333,5.477
     -80.15845833,26.41554167,6.177
     -80.15849833,26.41549667,6.676
     -80.15854000,26.41544667,6.876
     -80.15858167,26.41539500,6.176
     -80.15862167,26.41534667,5.376
     -80.15866167,26.41530333,5.376
     -80.15870000,26.41525500,5.775
     -80.15873500,26.41520667,5.475
     -80.15877167,26.41515500,5.275
     -80.15881667,26.41511167,4.875
     -80.15885000,26.41506333,4.875
     -80.15888833,26.41501833,5.174
     -80.15892833,26.41497667,5.674
     -80.15896500,26.41493167,5.974
     -80.15900000,26.41488833,6.074
     -80.15903333,26.41484500,6.074
     -80.15907000,26.41480000,6.174
     -80.15911167,26.41476167,5.373
     -80.15914500,26.41471833,5.273
     -80.15918333,26.41467500,5.473
     -80.15921667,26.41463000,5.073
     -80.15925500,26.41457833,3.873
     -80.15929500,26.41453333,3.173
     -80.15932667,26.41448333,2.972
     -80.15936333,26.41443833,3.072
     -80.15939833,26.41439000,3.472
     -80.15943000,26.41434167,3.372
     -80.15946500,26.41429833,3.372
     -80.15950333,26.41426000,3.672
     -80.15953833,26.41421667,4.371
     -80.15957667,26.41417000,4.471
     -80.15961333,26.41412167,4.171
     -80.15964833,26.41407333,3.971
     -80.15968667,26.41403167,3.471
     -80.15972167,26.41398667,4.270
     -80.15975500,26.41394333,4.570
     -80.15979333,26.41389500,4.970
     -80.15982833,26.41384667,5.570
     -80.15986667,26.41379833,5.770
     -80.15990333,26.41375667,6.570
     -80.15993833,26.41371667,6.869
     -80.15997333,26.41367333,7.769
     -80.16001167,26.41362833,8.469
     -80.16005500,26.41358833,8.969
     -80.16009500,26.41355000,8.469
     -80.16013333,26.41352000,8.168
     -80.16016833,26.41349167,8.568
     -80.16019833,26.41347833,8.568
     -80.16021833,26.41346167,8.168
     -80.16024000,26.41345333,7.568
     -80.16026167,26.41344000,6.768
     -80.16029333,26.41342000,6.368
     -80.16034167,26.41339833,6.768
     -80.16039000,26.41337833,6.867
     -80.16043667,26.41335833,7.367
     -80.16048500,26.41333333,7.267
     -80.16052833,26.41329833,7.967
     -80.16057833,26.41326833,8.167
     -80.16062833,26.41323833,7.566
     -80.16067667,26.41321333,7.666
     -80.16072833,26.41318667,7.666
     -80.16077667,26.41315167,6.766
     -80.16082833,26.41312667,6.465
     -80.16087833,26.41310000,6.565
     -80.16093167,26.41307833,6.265
     -80.16098667,26.41305167,5.765
     -80.16104167,26.41302500,5.364
     -80.16109500,26.41299667,5.364
     -80.16115000,26.41297333,5.864
     -80.16119833,26.41295000,5.664
     -80.16123833,26.41292667,4.964
     -80.16127833,26.41290000,4.163
     -80.16130667,26.41288000,3.763
     -80.16133000,26.41286500,3.163
     -80.16135333,26.41285667,2.363
     -80.16137667,26.41284667,2.463
     -80.16140000,26.41284167,2.563
     -80.16143333,26.41284167,3.163
     -80.16147333,26.41286667,3.863
     -80.16150500,26.41289667,4.462
     -80.16153667,26.41294167,5.062
     -80.16157167,26.41298667,5.562
     -80.16160500,26.41302667,6.262
     -80.16163333,26.41306167,6.362
     -80.16165833,26.41309667,6.362
     -80.16169167,26.41313333,6.262
     -80.16172667,26.41317333,5.962
     -80.16175500,26.41321000,5.362
     -80.16179333,26.41325167,4.662
     -80.16183000,26.41329667,3.761
     -80.16187333,26.41333833,3.461
     -80.16191167,26.41337833,3.161
     -80.16195167,26.41341167,2.761
     -80.16199333,26.41344500,2.861
     -80.16203333,26.41348500,2.361
     -80.16207167,26.41352000,2.261
     -80.16211333,26.41355833,1.860
     -80.16215500,26.41359333,1.860
     -80.16219667,26.41363667,1.760
     -80.16223833,26.41367667,1.660
     -80.16228833,26.41371667,1.660
     -80.16233833,26.41375500,2.760
     -80.16237667,26.41379000,2.959
     -80.16242500,26.41382667,3.259
     -80.16247333,26.41385500,3.359
     -80.16252333,26.41388500,3.159
     -80.16257667,26.41392000,3.559
     -80.16262500,26.41394667,3.458
     -80.16267333,26.41398333,3.658
     -80.16272333,26.41401667,3.158
     -80.16277333,26.41404667,2.258
     -80.16281667,26.41407667,1.958
     -80.16286667,26.41410667,1.558
     -80.16292000,26.41413333,2.157
     -80.16297500,26.41416000,2.257
     -80.16303167,26.41419000,2.057
     -80.16308833,26.41422167,1.957
     -80.16314500,26.41424667,2.556
     -80.16319833,26.41426667,3.056
     -80.16324833,26.41429000,2.956
     -80.16328833,26.41431333,2.656
     -80.16332333,26.41433667,2.656
     -80.16335000,26.41435167,2.756
     -80.16336667,26.41435500,2.956
     -80.16337833,26.41436333,3.356
     -80.16338667,26.41436833,3.456
     -80.16340833,26.41438500,2.955
     -80.16342833,26.41440500,2.755
     -80.16345667,26.41443500,2.655
     -80.16347333,26.41447333,2.755
     -80.16347000,26.41451833,2.855
     -80.16345500,26.41456333,2.455
     -80.16343333,26.41460167,2.056
     -80.16340333,26.41463500,1.556
     -80.16337667,26.41467167,1.456
     -80.16334667,26.41470667,1.356
     -80.16331833,26.41474000,1.056
     -80.16328667,26.41476833,0.656
     -80.16325500,26.41480000,0.456
     -80.16322667,26.41482833,-0.244
     -80.16319667,26.41485333,-1.243
     -80.16316167,26.41487833,-1.943
     -80.16313167,26.41491500,-2.543
     -80.16310500,26.41495167,-2.943
     -80.16308833,26.41499333,-3.043
     -80.16307167,26.41503667,-2.943
     -80.16305167,26.41507667,-2.443
     -80.16303500,26.41511833,-2.143
     -80.16302833,26.41516333,-1.643
     -80.16302000,26.41520833,-1.442
     -80.16302500,26.41525333,-0.742
     -80.16303333,26.41530000,-0.242
     -80.16304667,26.41534667,0.158
     -80.16306000,26.41538500,0.657
     -80.16307167,26.41542500,0.957
     -80.16308000,26.41546667,0.857
     -80.16308333,26.41550333,1.257
     -80.16307667,26.41554000,1.057
     -80.16307667,26.41558167,0.958
     -80.16308000,26.41561667,1.358
     -80.16309667,26.41564667,2.057
     -80.16312333,26.41567333,2.857
     -80.16314333,26.41568333,3.357
     -80.16317333,26.41569333,3.357
     -80.16319333,26.41569500,3.557
     -80.16321333,26.41569667,3.857
     -80.16322500,26.41569500,3.757
     -80.16323333,26.41569500,3.257
     -80.16324333,26.41569500,3.257
     -80.16325833,26.41569667,3.057
     -80.16327667,26.41570000,3.357
     -80.16330000,26.41570333,4.457
     -80.16331667,26.41571333,4.557
     -80.16332667,26.41572667,4.957
     -80.16333333,26.41574500,5.457
     -80.16333000,26.41575500,5.657
     -80.16332333,26.41576667,5.857
     -80.16331833,26.41578000,5.857
     -80.16331333,26.41579000,5.957
     -80.16331000,26.41580000,6.057
     -80.16330833,26.41580667,6.457
     -80.16330333,26.41581500,6.257
     -80.16330667,26.41581667,6.657
     -80.16330500,26.41581667,6.857
     -80.16330500,26.41581667,6.957
     -80.16330500,26.41581667,6.957
     -80.16330500,26.41581667,6.957
     -80.16329000,26.41584000,7.657
     -80.16329167,26.41585167,8.257
     -80.16330833,26.41586167,9.357
     -80.16332333,26.41587000,9.857
     -80.16333833,26.41587500,10.157
     -80.16335500,26.41587500,10.157
     -80.16336833,26.41587333,10.056
     -80.16337833,26.41587667,10.056
     -80.16338333,26.41588000,10.156
     -80.16338333,26.41588000,10.156
     -80.16338333,26.41588000,10.156
     -80.16338333,26.41588000,10.156
     -80.16338333,26.41588000,10.156
     -80.16338333,26.41588000,10.156
     -80.16338333,26.41588000,10.156
     -80.16338333,26.41588000,10.156
     -80.16338333,26.41588000,10.156
     -80.16338333,26.41588000,10.156
     -80.16338333,26.41588000,10.156
     -80.16338333,26.41588000,10.156
     -80.16338333,26.41588000,10.156
    </coordinates>
   </LineString>
  </Placemark>

 </Document>
</kml>
 