<?xml version="1.0" encoding="UTF-8"?>
<!-- Created with BasicAirData GPS Logger for Android - ver. 3.3.0 -->
<!-- Track 15 = 442 TrackPoints + 4 Placemarks -->

<!-- Track Statistics (based on Total Time | Time in Movement): -->
<!--  Distance = 841 m -->
<!--  Duration = 07:21 | 04:19 -->
<!--  Altitude Gap = 7 m -->
<!--  Max Speed = 14 mph -->
<!--  Avg Speed = 4.3 | 7.3 mph -->
<!--  Direction = E -->
<!--  Activity = running -->
<!--  Altitudes = Corrected using EGM96 grid (bilinear interpolation) -->

<gpx version="1.0"
     creator="BasicAirData GPS Logger 3.3.0"
     xmlns="http://www.topografix.com/GPX/1/0"
     xmlns:xsi="http://www.w3.org/2001/XMLSchema-instance"
     xsi:schemaLocation="http://www.topografix.com/GPX/1/0 http://www.topografix.com/GPX/1/0/gpx.xsd">
<name>GPS Logger 20260724-113714</name>
<desc>Station3-Maintenance</desc>
<time>2026-07-25T02:04:49Z</time>
<keywords>running</keywords>
<bounds minlat="26.41479833" minlon="-80.17015833" maxlat="26.41662333" maxlon="-80.16456500" />

<wpt lat="26.41657500" lon="-80.17014500"><ele>8.229</ele><time>2026-07-24T15:37:18Z</time><name>Station3</name><sat>15</sat></wpt>

<wpt lat="26.41624167" lon="-80.16730000"><ele>9.040</ele><time>2026-07-24T15:41:42Z</time><name>Int16</name><sat>13</sat></wpt>

<wpt lat="26.41535333" lon="-80.16586500"><ele>5.446</ele><time>2026-07-24T15:42:34Z</time><name>Int17</name><sat>15</sat></wpt>

<wpt lat="26.41604833" lon="-80.16456500"><ele>15.252</ele><time>2026-07-24T15:44:30Z</time><name>Maintenance</name><sat>14</sat></wpt>

<trk>
 <name>Track 20260724-113714</name>
 <trkseg>
  <trkpt lat="26.41659000" lon="-80.17014333"><ele>8.429</ele><time>2026-07-24T15:37:14.625Z</time><speed>0.064</speed><sat>16</sat></trkpt>
  <trkpt lat="26.41658500" lon="-80.17014667"><ele>8.429</ele><time>2026-07-24T15:37:15.625Z</time><speed>0.034</speed><sat>16</sat></trkpt>
  <trkpt lat="26.41657833" lon="-80.17014500"><ele>8.229</ele><time>2026-07-24T15:37:17Z</time><speed>0.145</speed><sat>16</sat></trkpt>
  <trkpt lat="26.41657500" lon="-80.17014500"><ele>8.229</ele><time>2026-07-24T15:37:18Z</time><speed>0.130</speed><sat>15</sat></trkpt>
  <trkpt lat="26.41657333" lon="-80.17014500"><ele>8.129</ele><time>2026-07-24T15:37:19Z</time><speed>0.063</speed><sat>16</sat></trkpt>
  <trkpt lat="26.41657167" lon="-80.17014833"><ele>8.129</ele><time>2026-07-24T15:37:20Z</time><speed>0.022</speed><sat>15</sat></trkpt>
  <trkpt lat="26.41657000" lon="-80.17014833"><ele>8.129</ele><time>2026-07-24T15:37:21Z</time><speed>0.021</speed><sat>15</sat></trkpt>
  <trkpt lat="26.41656833" lon="-80.17014833"><ele>8.129</ele><time>2026-07-24T15:37:22Z</time><speed>0.057</speed><sat>15</sat></trkpt>
  <trkpt lat="26.41656833" lon="-80.17014833"><ele>8.229</ele><time>2026-07-24T15:37:23Z</time><speed>0.061</speed><sat>15</sat></trkpt>
  <trkpt lat="26.41656833" lon="-80.17015000"><ele>8.229</ele><time>2026-07-24T15:37:24Z</time><speed>0.020</speed><sat>15</sat></trkpt>
  <trkpt lat="26.41657000" lon="-80.17015000"><ele>8.229</ele><time>2026-07-24T15:37:25Z</time><speed>0.012</speed><sat>14</sat></trkpt>
  <trkpt lat="26.41657000" lon="-80.17015167"><ele>8.329</ele><time>2026-07-24T15:37:26Z</time><speed>0.045</speed><sat>15</sat></trkpt>
  <trkpt lat="26.41657000" lon="-80.17015333"><ele>8.429</ele><time>2026-07-24T15:37:27Z</time><speed>0.038</speed><sat>15</sat></trkpt>
  <trkpt lat="26.41657167" lon="-80.17015333"><ele>8.529</ele><time>2026-07-24T15:37:28Z</time><speed>0.036</speed><sat>15</sat></trkpt>
  <trkpt lat="26.41657333" lon="-80.17015333"><ele>8.529</ele><time>2026-07-24T15:37:29Z</time><speed>0.032</speed><sat>15</sat></trkpt>
  <trkpt lat="26.41657333" lon="-80.17015500"><ele>8.629</ele><time>2026-07-24T15:37:30Z</time><speed>0.036</speed><sat>15</sat></trkpt>
  <trkpt lat="26.41657500" lon="-80.17015500"><ele>8.729</ele><time>2026-07-24T15:37:31Z</time><speed>0.041</speed><sat>15</sat></trkpt>
  <trkpt lat="26.41657500" lon="-80.17015500"><ele>8.829</ele><time>2026-07-24T15:37:32Z</time><speed>0.043</speed><sat>15</sat></trkpt>
  <trkpt lat="26.41657500" lon="-80.17015500"><ele>8.929</ele><time>2026-07-24T15:37:33Z</time><speed>0.082</speed><sat>15</sat></trkpt>
  <trkpt lat="26.41657333" lon="-80.17015333"><ele>8.929</ele><time>2026-07-24T15:37:34Z</time><speed>0.096</speed><sat>15</sat></trkpt>
  <trkpt lat="26.41657000" lon="-80.17015333"><ele>8.829</ele><time>2026-07-24T15:37:35Z</time><speed>0.102</speed><sat>15</sat></trkpt>
  <trkpt lat="26.41657167" lon="-80.17015500"><ele>8.929</ele><time>2026-07-24T15:37:36Z</time><speed>0.102</speed><sat>15</sat></trkpt>
  <trkpt lat="26.41657000" lon="-80.17015667"><ele>9.129</ele><time>2026-07-24T15:37:37Z</time><speed>0.113</speed><sat>15</sat></trkpt>
  <trkpt lat="26.41657000" lon="-80.17015833"><ele>8.929</ele><time>2026-07-24T15:37:38Z</time><speed>0.114</speed><sat>15</sat></trkpt>
  <trkpt lat="26.41656667" lon="-80.17015667"><ele>8.829</ele><time>2026-07-24T15:37:39Z</time><speed>0.000</speed><sat>15</sat></trkpt>
  <trkpt lat="26.41656667" lon="-80.17015667"><ele>9.029</ele><time>2026-07-24T15:37:40Z</time><speed>0.000</speed><sat>15</sat></trkpt>
  <trkpt lat="26.41656500" lon="-80.17015500"><ele>8.929</ele><time>2026-07-24T15:37:41Z</time><speed>0.000</speed><sat>15</sat></trkpt>
  <trkpt lat="26.41656500" lon="-80.17015500"><ele>8.929</ele><time>2026-07-24T15:37:42Z</time><speed>0.000</speed><sat>14</sat></trkpt>
  <trkpt lat="26.41656500" lon="-80.17015500"><ele>8.929</ele><time>2026-07-24T15:37:43Z</time><speed>0.000</speed><sat>14</sat></trkpt>
  <trkpt lat="26.41656500" lon="-80.17015500"><ele>8.929</ele><time>2026-07-24T15:37:44Z</time><speed>0.000</speed><sat>14</sat></trkpt>
  <trkpt lat="26.41656500" lon="-80.17015500"><ele>8.929</ele><time>2026-07-24T15:37:45Z</time><speed>0.000</speed><sat>14</sat></trkpt>
  <trkpt lat="26.41656500" lon="-80.17015500"><ele>8.929</ele><time>2026-07-24T15:37:46Z</time><speed>0.000</speed><sat>14</sat></trkpt>
  <trkpt lat="26.41656500" lon="-80.17015500"><ele>8.929</ele><time>2026-07-24T15:37:47Z</time><speed>0.000</speed><sat>14</sat></trkpt>
  <trkpt lat="26.41656500" lon="-80.17015500"><ele>8.929</ele><time>2026-07-24T15:37:48Z</time><speed>0.000</speed><sat>14</sat></trkpt>
  <trkpt lat="26.41656500" lon="-80.17015500"><ele>8.929</ele><time>2026-07-24T15:37:49Z</time><speed>0.000</speed><sat>14</sat></trkpt>
  <trkpt lat="26.41656500" lon="-80.17015500"><ele>8.929</ele><time>2026-07-24T15:37:50Z</time><speed>0.000</speed><sat>14</sat></trkpt>
  <trkpt lat="26.41656500" lon="-80.17015500"><ele>8.929</ele><time>2026-07-24T15:37:51Z</time><speed>0.000</speed><sat>14</sat></trkpt>
  <trkpt lat="26.41656500" lon="-80.17015500"><ele>8.929</ele><time>2026-07-24T15:37:52Z</time><speed>0.000</speed><sat>14</sat></trkpt>
  <trkpt lat="26.41656500" lon="-80.17015500"><ele>8.929</ele><time>2026-07-24T15:37:53Z</time><speed>0.000</speed><sat>14</sat></trkpt>
  <trkpt lat="26.41656500" lon="-80.17015500"><ele>8.929</ele><time>2026-07-24T15:37:54Z</time><speed>0.000</speed><sat>14</sat></trkpt>
  <trkpt lat="26.41656500" lon="-80.17015500"><ele>8.929</ele><time>2026-07-24T15:37:55Z</time><speed>0.000</speed><sat>14</sat></trkpt>
  <trkpt lat="26.41656500" lon="-80.17015500"><ele>8.929</ele><time>2026-07-24T15:37:56Z</time><speed>0.000</speed><sat>14</sat></trkpt>
  <trkpt lat="26.41656500" lon="-80.17015500"><ele>8.929</ele><time>2026-07-24T15:37:57Z</time><speed>0.000</speed><sat>14</sat></trkpt>
  <trkpt lat="26.41656500" lon="-80.17015500"><ele>8.929</ele><time>2026-07-24T15:37:58Z</time><speed>0.000</speed><sat>14</sat></trkpt>
  <trkpt lat="26.41656500" lon="-80.17015500"><ele>8.929</ele><time>2026-07-24T15:37:59Z</time><speed>0.000</speed><sat>14</sat></trkpt>
  <trkpt lat="26.41656500" lon="-80.17015500"><ele>8.929</ele><time>2026-07-24T15:38:00Z</time><speed>0.000</speed><sat>14</sat></trkpt>
  <trkpt lat="26.41656500" lon="-80.17015500"><ele>8.929</ele><time>2026-07-24T15:38:01Z</time><speed>0.000</speed><sat>14</sat></trkpt>
  <trkpt lat="26.41656500" lon="-80.17015500"><ele>8.929</ele><time>2026-07-24T15:38:02Z</time><speed>0.000</speed><sat>15</sat></trkpt>
  <trkpt lat="26.41656500" lon="-80.17015500"><ele>8.929</ele><time>2026-07-24T15:38:03Z</time><speed>0.000</speed><sat>15</sat></trkpt>
  <trkpt lat="26.41656500" lon="-80.17015500"><ele>8.929</ele><time>2026-07-24T15:38:04Z</time><speed>0.000</speed><sat>15</sat></trkpt>
  <trkpt lat="26.41656500" lon="-80.17015500"><ele>8.929</ele><time>2026-07-24T15:38:05Z</time><speed>0.000</speed><sat>14</sat></trkpt>
  <trkpt lat="26.41656500" lon="-80.17015500"><ele>8.929</ele><time>2026-07-24T15:38:06Z</time><speed>0.000</speed><sat>14</sat></trkpt>
  <trkpt lat="26.41656500" lon="-80.17015500"><ele>8.929</ele><time>2026-07-24T15:38:07Z</time><speed>0.000</speed><sat>14</sat></trkpt>
  <trkpt lat="26.41656500" lon="-80.17015500"><ele>8.929</ele><time>2026-07-24T15:38:08Z</time><speed>0.000</speed><sat>15</sat></trkpt>
  <trkpt lat="26.41656500" lon="-80.17015500"><ele>8.929</ele><time>2026-07-24T15:38:09Z</time><speed>0.000</speed><sat>15</sat></trkpt>
  <trkpt lat="26.41656500" lon="-80.17015500"><ele>8.929</ele><time>2026-07-24T15:38:10Z</time><speed>0.000</speed><sat>15</sat></trkpt>
  <trkpt lat="26.41656500" lon="-80.17015500"><ele>8.929</ele><time>2026-07-24T15:38:11Z</time><speed>0.000</speed><sat>13</sat></trkpt>
  <trkpt lat="26.41656500" lon="-80.17015500"><ele>8.929</ele><time>2026-07-24T15:38:12Z</time><speed>0.000</speed><sat>13</sat></trkpt>
  <trkpt lat="26.41656500" lon="-80.17015500"><ele>8.929</ele><time>2026-07-24T15:38:13Z</time><speed>0.000</speed><sat>13</sat></trkpt>
  <trkpt lat="26.41656500" lon="-80.17015500"><ele>8.929</ele><time>2026-07-24T15:38:14Z</time><speed>0.000</speed><sat>15</sat></trkpt>
  <trkpt lat="26.41656500" lon="-80.17015500"><ele>8.929</ele><time>2026-07-24T15:38:15Z</time><speed>0.000</speed><sat>15</sat></trkpt>
  <trkpt lat="26.41656500" lon="-80.17015500"><ele>8.929</ele><time>2026-07-24T15:38:16Z</time><speed>0.000</speed><sat>15</sat></trkpt>
  <trkpt lat="26.41656500" lon="-80.17015500"><ele>8.929</ele><time>2026-07-24T15:38:17Z</time><speed>0.000</speed><sat>15</sat></trkpt>
  <trkpt lat="26.41656500" lon="-80.17015500"><ele>8.929</ele><time>2026-07-24T15:38:18Z</time><speed>0.000</speed><sat>15</sat></trkpt>
  <trkpt lat="26.41656500" lon="-80.17015500"><ele>8.929</ele><time>2026-07-24T15:38:19Z</time><speed>0.000</speed><sat>15</sat></trkpt>
  <trkpt lat="26.41656500" lon="-80.17015500"><ele>8.929</ele><time>2026-07-24T15:38:20Z</time><speed>0.000</speed><sat>15</sat></trkpt>
  <trkpt lat="26.41656500" lon="-80.17015500"><ele>8.929</ele><time>2026-07-24T15:38:21Z</time><speed>0.000</speed><sat>15</sat></trkpt>
  <trkpt lat="26.41656500" lon="-80.17015500"><ele>8.929</ele><time>2026-07-24T15:38:22Z</time><speed>0.000</speed><sat>15</sat></trkpt>
  <trkpt lat="26.41656500" lon="-80.17015500"><ele>8.929</ele><time>2026-07-24T15:38:23Z</time><speed>0.000</speed><sat>14</sat></trkpt>
  <trkpt lat="26.41656500" lon="-80.17015500"><ele>8.929</ele><time>2026-07-24T15:38:24Z</time><speed>0.000</speed><sat>14</sat></trkpt>
  <trkpt lat="26.41656500" lon="-80.17015500"><ele>8.929</ele><time>2026-07-24T15:38:25Z</time><speed>0.000</speed><sat>14</sat></trkpt>
  <trkpt lat="26.41656500" lon="-80.17015500"><ele>8.929</ele><time>2026-07-24T15:38:26Z</time><speed>0.000</speed><sat>14</sat></trkpt>
  <trkpt lat="26.41656500" lon="-80.17015500"><ele>8.929</ele><time>2026-07-24T15:38:27Z</time><speed>0.000</speed><sat>14</sat></trkpt>
  <trkpt lat="26.41656500" lon="-80.17015500"><ele>8.929</ele><time>2026-07-24T15:38:28Z</time><speed>0.000</speed><sat>13</sat></trkpt>
  <trkpt lat="26.41656500" lon="-80.17015500"><ele>8.929</ele><time>2026-07-24T15:38:29Z</time><speed>0.000</speed><sat>13</sat></trkpt>
  <trkpt lat="26.41656500" lon="-80.17015500"><ele>8.929</ele><time>2026-07-24T15:38:30Z</time><speed>0.000</speed><sat>13</sat></trkpt>
  <trkpt lat="26.41656500" lon="-80.17015500"><ele>8.929</ele><time>2026-07-24T15:38:31Z</time><speed>0.000</speed><sat>14</sat></trkpt>
  <trkpt lat="26.41656500" lon="-80.17015500"><ele>8.929</ele><time>2026-07-24T15:38:32Z</time><speed>0.000</speed><sat>14</sat></trkpt>
  <trkpt lat="26.41656500" lon="-80.17015500"><ele>8.929</ele><time>2026-07-24T15:38:33Z</time><speed>0.000</speed><sat>14</sat></trkpt>
  <trkpt lat="26.41656500" lon="-80.17015500"><ele>8.929</ele><time>2026-07-24T15:38:34Z</time><speed>0.000</speed><sat>14</sat></trkpt>
  <trkpt lat="26.41656500" lon="-80.17015500"><ele>8.929</ele><time>2026-07-24T15:38:35Z</time><speed>0.000</speed><sat>14</sat></trkpt>
  <trkpt lat="26.41656500" lon="-80.17015500"><ele>8.929</ele><time>2026-07-24T15:38:36Z</time><speed>0.000</speed><sat>14</sat></trkpt>
  <trkpt lat="26.41656500" lon="-80.17015500"><ele>8.929</ele><time>2026-07-24T15:38:37Z</time><speed>0.000</speed><sat>14</sat></trkpt>
  <trkpt lat="26.41656500" lon="-80.17015500"><ele>8.929</ele><time>2026-07-24T15:38:38Z</time><speed>0.000</speed><sat>14</sat></trkpt>
  <trkpt lat="26.41656500" lon="-80.17015500"><ele>8.929</ele><time>2026-07-24T15:38:39Z</time><speed>0.000</speed><sat>14</sat></trkpt>
  <trkpt lat="26.41656500" lon="-80.17015500"><ele>8.929</ele><time>2026-07-24T15:38:40Z</time><speed>0.000</speed><sat>14</sat></trkpt>
  <trkpt lat="26.41656500" lon="-80.17015500"><ele>8.929</ele><time>2026-07-24T15:38:41Z</time><speed>0.000</speed><sat>14</sat></trkpt>
  <trkpt lat="26.41656500" lon="-80.17015500"><ele>8.929</ele><time>2026-07-24T15:38:42Z</time><speed>0.000</speed><sat>14</sat></trkpt>
  <trkpt lat="26.41656500" lon="-80.17015500"><ele>8.929</ele><time>2026-07-24T15:38:43Z</time><speed>0.000</speed><sat>13</sat></trkpt>
  <trkpt lat="26.41658167" lon="-80.17012667"><ele>3.729</ele><time>2026-07-24T15:38:44Z</time><speed>0.353</speed><sat>14</sat></trkpt>
  <trkpt lat="26.41660000" lon="-80.17011000"><ele>3.629</ele><time>2026-07-24T15:38:45Z</time><speed>0.614</speed><sat>14</sat></trkpt>
  <trkpt lat="26.41661167" lon="-80.17008500"><ele>3.429</ele><time>2026-07-24T15:38:46Z</time><speed>0.891</speed><sat>14</sat></trkpt>
  <trkpt lat="26.41660833" lon="-80.17004833"><ele>3.029</ele><time>2026-07-24T15:38:47Z</time><speed>1.239</speed><sat>14</sat></trkpt>
  <trkpt lat="26.41660500" lon="-80.17001167"><ele>3.330</ele><time>2026-07-24T15:38:48Z</time><speed>1.622</speed><sat>14</sat></trkpt>
  <trkpt lat="26.41658000" lon="-80.16998333"><ele>3.530</ele><time>2026-07-24T15:38:49Z</time><speed>2.014</speed><sat>14</sat></trkpt>
  <trkpt lat="26.41655500" lon="-80.16996167"><ele>3.630</ele><time>2026-07-24T15:38:50Z</time><speed>2.358</speed><sat>14</sat></trkpt>
  <trkpt lat="26.41652500" lon="-80.16996167"><ele>3.530</ele><time>2026-07-24T15:38:51Z</time><speed>2.658</speed><sat>14</sat></trkpt>
  <trkpt lat="26.41649833" lon="-80.16996833"><ele>3.930</ele><time>2026-07-24T15:38:52Z</time><speed>2.933</speed><sat>15</sat></trkpt>
  <trkpt lat="26.41648000" lon="-80.16999667"><ele>4.030</ele><time>2026-07-24T15:38:53Z</time><speed>3.180</speed><sat>15</sat></trkpt>
  <trkpt lat="26.41647000" lon="-80.17002667"><ele>4.729</ele><time>2026-07-24T15:38:54Z</time><speed>3.280</speed><sat>15</sat></trkpt>
  <trkpt lat="26.41647167" lon="-80.17006000"><ele>5.329</ele><time>2026-07-24T15:38:55Z</time><speed>3.303</speed><sat>15</sat></trkpt>
  <trkpt lat="26.41647333" lon="-80.17010000"><ele>6.529</ele><time>2026-07-24T15:38:56Z</time><speed>3.302</speed><sat>15</sat></trkpt>
  <trkpt lat="26.41646333" lon="-80.17013500"><ele>7.329</ele><time>2026-07-24T15:38:57Z</time><speed>3.240</speed><sat>15</sat></trkpt>
  <trkpt lat="26.41644833" lon="-80.17015000"><ele>7.029</ele><time>2026-07-24T15:38:58Z</time><speed>3.077</speed><sat>15</sat></trkpt>
  <trkpt lat="26.41643167" lon="-80.17015500"><ele>6.629</ele><time>2026-07-24T15:38:59Z</time><speed>2.897</speed><sat>15</sat></trkpt>
  <trkpt lat="26.41641167" lon="-80.17014833"><ele>6.729</ele><time>2026-07-24T15:39:00Z</time><speed>2.775</speed><sat>15</sat></trkpt>
  <trkpt lat="26.41639167" lon="-80.17014500"><ele>6.629</ele><time>2026-07-24T15:39:01Z</time><speed>2.691</speed><sat>15</sat></trkpt>
  <trkpt lat="26.41637333" lon="-80.17014000"><ele>5.829</ele><time>2026-07-24T15:39:02Z</time><speed>2.544</speed><sat>15</sat></trkpt>
  <trkpt lat="26.41636333" lon="-80.17013333"><ele>5.329</ele><time>2026-07-24T15:39:03Z</time><speed>2.358</speed><sat>15</sat></trkpt>
  <trkpt lat="26.41635500" lon="-80.17012167"><ele>5.229</ele><time>2026-07-24T15:39:04Z</time><speed>2.172</speed><sat>15</sat></trkpt>
  <trkpt lat="26.41634667" lon="-80.17012167"><ele>5.229</ele><time>2026-07-24T15:39:05Z</time><speed>1.939</speed><sat>14</sat></trkpt>
  <trkpt lat="26.41633500" lon="-80.17012000"><ele>5.229</ele><time>2026-07-24T15:39:06Z</time><speed>1.757</speed><sat>14</sat></trkpt>
  <trkpt lat="26.41632500" lon="-80.17011667"><ele>5.029</ele><time>2026-07-24T15:39:07Z</time><speed>1.567</speed><sat>14</sat></trkpt>
  <trkpt lat="26.41631667" lon="-80.17011500"><ele>4.729</ele><time>2026-07-24T15:39:08Z</time><speed>1.385</speed><sat>14</sat></trkpt>
  <trkpt lat="26.41631500" lon="-80.17011333"><ele>4.529</ele><time>2026-07-24T15:39:09Z</time><speed>1.197</speed><sat>15</sat></trkpt>
  <trkpt lat="26.41631000" lon="-80.17011167"><ele>4.329</ele><time>2026-07-24T15:39:10Z</time><speed>1.000</speed><sat>15</sat></trkpt>
  <trkpt lat="26.41631167" lon="-80.17011167"><ele>4.229</ele><time>2026-07-24T15:39:11Z</time><speed>0.776</speed><sat>13</sat></trkpt>
  <trkpt lat="26.41631333" lon="-80.17011000"><ele>4.229</ele><time>2026-07-24T15:39:12Z</time><speed>0.628</speed><sat>13</sat></trkpt>
  <trkpt lat="26.41631333" lon="-80.17010667"><ele>4.429</ele><time>2026-07-24T15:39:13Z</time><speed>0.509</speed><sat>13</sat></trkpt>
  <trkpt lat="26.41631333" lon="-80.17010667"><ele>4.629</ele><time>2026-07-24T15:39:14Z</time><speed>0.428</speed><sat>14</sat></trkpt>
  <trkpt lat="26.41631333" lon="-80.17010833"><ele>4.629</ele><time>2026-07-24T15:39:15Z</time><speed>0.000</speed><sat>14</sat></trkpt>
  <trkpt lat="26.41631333" lon="-80.17010833"><ele>4.729</ele><time>2026-07-24T15:39:16Z</time><speed>0.000</speed><sat>14</sat></trkpt>
  <trkpt lat="26.41630500" lon="-80.17010500"><ele>4.729</ele><time>2026-07-24T15:39:17Z</time><speed>0.286</speed><sat>14</sat></trkpt>
  <trkpt lat="26.41629167" lon="-80.17009167"><ele>4.729</ele><time>2026-07-24T15:39:18Z</time><speed>0.473</speed><sat>14</sat></trkpt>
  <trkpt lat="26.41627000" lon="-80.17006500"><ele>5.029</ele><time>2026-07-24T15:39:19Z</time><speed>0.748</speed><sat>14</sat></trkpt>
  <trkpt lat="26.41626000" lon="-80.17002333"><ele>4.629</ele><time>2026-07-24T15:39:20Z</time><speed>1.103</speed><sat>14</sat></trkpt>
  <trkpt lat="26.41625500" lon="-80.16998333"><ele>4.329</ele><time>2026-07-24T15:39:21Z</time><speed>1.529</speed><sat>14</sat></trkpt>
  <trkpt lat="26.41626167" lon="-80.16993333"><ele>4.130</ele><time>2026-07-24T15:39:22Z</time><speed>2.015</speed><sat>14</sat></trkpt>
  <trkpt lat="26.41627000" lon="-80.16988167"><ele>3.730</ele><time>2026-07-24T15:39:23Z</time><speed>2.538</speed><sat>14</sat></trkpt>
  <trkpt lat="26.41628000" lon="-80.16983000"><ele>3.330</ele><time>2026-07-24T15:39:24Z</time><speed>3.055</speed><sat>14</sat></trkpt>
  <trkpt lat="26.41629000" lon="-80.16978000"><ele>2.830</ele><time>2026-07-24T15:39:25Z</time><speed>3.553</speed><sat>14</sat></trkpt>
  <trkpt lat="26.41629833" lon="-80.16973000"><ele>2.631</ele><time>2026-07-24T15:39:26Z</time><speed>3.988</speed><sat>14</sat></trkpt>
  <trkpt lat="26.41630000" lon="-80.16968500"><ele>2.231</ele><time>2026-07-24T15:39:27Z</time><speed>4.376</speed><sat>14</sat></trkpt>
  <trkpt lat="26.41630667" lon="-80.16964333"><ele>2.131</ele><time>2026-07-24T15:39:28Z</time><speed>4.567</speed><sat>14</sat></trkpt>
  <trkpt lat="26.41630667" lon="-80.16960167"><ele>2.031</ele><time>2026-07-24T15:39:29Z</time><speed>4.664</speed><sat>14</sat></trkpt>
  <trkpt lat="26.41631167" lon="-80.16956500"><ele>2.531</ele><time>2026-07-24T15:39:30Z</time><speed>4.650</speed><sat>14</sat></trkpt>
  <trkpt lat="26.41631500" lon="-80.16953167"><ele>2.531</ele><time>2026-07-24T15:39:31Z</time><speed>4.530</speed><sat>15</sat></trkpt>
  <trkpt lat="26.41631667" lon="-80.16950500"><ele>2.531</ele><time>2026-07-24T15:39:32Z</time><speed>4.276</speed><sat>15</sat></trkpt>
  <trkpt lat="26.41631500" lon="-80.16948500"><ele>2.432</ele><time>2026-07-24T15:39:33Z</time><speed>3.936</speed><sat>15</sat></trkpt>
  <trkpt lat="26.41631500" lon="-80.16947167"><ele>2.532</ele><time>2026-07-24T15:39:34Z</time><speed>3.585</speed><sat>15</sat></trkpt>
  <trkpt lat="26.41631333" lon="-80.16945833"><ele>2.632</ele><time>2026-07-24T15:39:35Z</time><speed>3.225</speed><sat>15</sat></trkpt>
  <trkpt lat="26.41631333" lon="-80.16944333"><ele>2.232</ele><time>2026-07-24T15:39:36Z</time><speed>2.850</speed><sat>15</sat></trkpt>
  <trkpt lat="26.41631333" lon="-80.16943667"><ele>2.032</ele><time>2026-07-24T15:39:37Z</time><speed>2.437</speed><sat>15</sat></trkpt>
  <trkpt lat="26.41631500" lon="-80.16943500"><ele>2.032</ele><time>2026-07-24T15:39:38Z</time><speed>2.032</speed><sat>15</sat></trkpt>
  <trkpt lat="26.41631667" lon="-80.16943333"><ele>2.632</ele><time>2026-07-24T15:39:39Z</time><speed>1.635</speed><sat>15</sat></trkpt>
  <trkpt lat="26.41631667" lon="-80.16943167"><ele>2.532</ele><time>2026-07-24T15:39:40Z</time><speed>1.273</speed><sat>15</sat></trkpt>
  <trkpt lat="26.41631833" lon="-80.16943000"><ele>2.632</ele><time>2026-07-24T15:39:41Z</time><speed>0.965</speed><sat>15</sat></trkpt>
  <trkpt lat="26.41631833" lon="-80.16942833"><ele>2.832</ele><time>2026-07-24T15:39:42Z</time><speed>0.726</speed><sat>15</sat></trkpt>
  <trkpt lat="26.41631667" lon="-80.16942667"><ele>3.032</ele><time>2026-07-24T15:39:43Z</time><speed>0.537</speed><sat>15</sat></trkpt>
  <trkpt lat="26.41631667" lon="-80.16942500"><ele>3.232</ele><time>2026-07-24T15:39:44Z</time><speed>0.000</speed><sat>15</sat></trkpt>
  <trkpt lat="26.41631667" lon="-80.16942167"><ele>3.332</ele><time>2026-07-24T15:39:45Z</time><speed>0.000</speed><sat>16</sat></trkpt>
  <trkpt lat="26.41631833" lon="-80.16942000"><ele>3.432</ele><time>2026-07-24T15:39:46Z</time><speed>0.000</speed><sat>16</sat></trkpt>
  <trkpt lat="26.41631833" lon="-80.16942000"><ele>3.432</ele><time>2026-07-24T15:39:47Z</time><speed>0.000</speed><sat>16</sat></trkpt>
  <trkpt lat="26.41631833" lon="-80.16942000"><ele>3.432</ele><time>2026-07-24T15:39:48Z</time><speed>0.000</speed><sat>16</sat></trkpt>
  <trkpt lat="26.41631833" lon="-80.16942000"><ele>3.432</ele><time>2026-07-24T15:39:49Z</time><speed>0.000</speed><sat>16</sat></trkpt>
  <trkpt lat="26.41631833" lon="-80.16942000"><ele>3.432</ele><time>2026-07-24T15:39:50Z</time><speed>0.000</speed><sat>16</sat></trkpt>
  <trkpt lat="26.41631833" lon="-80.16942000"><ele>3.432</ele><time>2026-07-24T15:39:51Z</time><speed>0.000</speed><sat>16</sat></trkpt>
  <trkpt lat="26.41631833" lon="-80.16942000"><ele>3.432</ele><time>2026-07-24T15:39:52Z</time><speed>0.000</speed><sat>16</sat></trkpt>
  <trkpt lat="26.41631833" lon="-80.16942000"><ele>3.432</ele><time>2026-07-24T15:39:53Z</time><speed>0.000</speed><sat>16</sat></trkpt>
  <trkpt lat="26.41631833" lon="-80.16942000"><ele>3.432</ele><time>2026-07-24T15:39:54Z</time><speed>0.000</speed><sat>16</sat></trkpt>
  <trkpt lat="26.41631833" lon="-80.16942000"><ele>3.432</ele><time>2026-07-24T15:39:55Z</time><speed>0.000</speed><sat>16</sat></trkpt>
  <trkpt lat="26.41631833" lon="-80.16942000"><ele>3.432</ele><time>2026-07-24T15:39:56Z</time><speed>0.000</speed><sat>16</sat></trkpt>
  <trkpt lat="26.41631833" lon="-80.16942000"><ele>3.432</ele><time>2026-07-24T15:39:57Z</time><speed>0.000</speed><sat>16</sat></trkpt>
  <trkpt lat="26.41631833" lon="-80.16942000"><ele>3.432</ele><time>2026-07-24T15:39:58Z</time><speed>0.000</speed><sat>16</sat></trkpt>
  <trkpt lat="26.41631833" lon="-80.16942000"><ele>3.432</ele><time>2026-07-24T15:39:59Z</time><speed>0.000</speed><sat>16</sat></trkpt>
  <trkpt lat="26.41631833" lon="-80.16942000"><ele>3.432</ele><time>2026-07-24T15:40:00Z</time><speed>0.000</speed><sat>16</sat></trkpt>
  <trkpt lat="26.41631833" lon="-80.16942000"><ele>3.432</ele><time>2026-07-24T15:40:01Z</time><speed>0.000</speed><sat>16</sat></trkpt>
  <trkpt lat="26.41631833" lon="-80.16942000"><ele>3.432</ele><time>2026-07-24T15:40:02Z</time><speed>0.000</speed><sat>16</sat></trkpt>
  <trkpt lat="26.41631833" lon="-80.16942000"><ele>3.432</ele><time>2026-07-24T15:40:03Z</time><speed>0.000</speed><sat>16</sat></trkpt>
  <trkpt lat="26.41631833" lon="-80.16942000"><ele>3.432</ele><time>2026-07-24T15:40:04Z</time><speed>0.000</speed><sat>16</sat></trkpt>
  <trkpt lat="26.41631833" lon="-80.16942000"><ele>3.432</ele><time>2026-07-24T15:40:05Z</time><speed>0.000</speed><sat>16</sat></trkpt>
  <trkpt lat="26.41631833" lon="-80.16942000"><ele>3.432</ele><time>2026-07-24T15:40:06Z</time><speed>0.000</speed><sat>16</sat></trkpt>
  <trkpt lat="26.41631833" lon="-80.16942000"><ele>3.432</ele><time>2026-07-24T15:40:07Z</time><speed>0.000</speed><sat>16</sat></trkpt>
  <trkpt lat="26.41631833" lon="-80.16942000"><ele>3.432</ele><time>2026-07-24T15:40:08Z</time><speed>0.000</speed><sat>15</sat></trkpt>
  <trkpt lat="26.41631833" lon="-80.16942000"><ele>3.432</ele><time>2026-07-24T15:40:09Z</time><speed>0.000</speed><sat>15</sat></trkpt>
  <trkpt lat="26.41631833" lon="-80.16942000"><ele>3.432</ele><time>2026-07-24T15:40:10Z</time><speed>0.000</speed><sat>14</sat></trkpt>
  <trkpt lat="26.41631833" lon="-80.16942000"><ele>3.432</ele><time>2026-07-24T15:40:11Z</time><speed>0.000</speed><sat>14</sat></trkpt>
  <trkpt lat="26.41631833" lon="-80.16942000"><ele>3.432</ele><time>2026-07-24T15:40:12Z</time><speed>0.000</speed><sat>13</sat></trkpt>
  <trkpt lat="26.41631833" lon="-80.16942000"><ele>3.432</ele><time>2026-07-24T15:40:13Z</time><speed>0.000</speed><sat>13</sat></trkpt>
  <trkpt lat="26.41631833" lon="-80.16942000"><ele>3.432</ele><time>2026-07-24T15:40:14Z</time><speed>0.000</speed><sat>14</sat></trkpt>
  <trkpt lat="26.41631833" lon="-80.16942000"><ele>3.432</ele><time>2026-07-24T15:40:15Z</time><speed>0.000</speed><sat>14</sat></trkpt>
  <trkpt lat="26.41631833" lon="-80.16942000"><ele>3.432</ele><time>2026-07-24T15:40:16Z</time><speed>0.000</speed><sat>14</sat></trkpt>
  <trkpt lat="26.41631833" lon="-80.16942000"><ele>3.432</ele><time>2026-07-24T15:40:17Z</time><speed>0.000</speed><sat>14</sat></trkpt>
  <trkpt lat="26.41631833" lon="-80.16942000"><ele>3.432</ele><time>2026-07-24T15:40:18Z</time><speed>0.000</speed><sat>14</sat></trkpt>
  <trkpt lat="26.41631833" lon="-80.16942000"><ele>3.432</ele><time>2026-07-24T15:40:19Z</time><speed>0.000</speed><sat>13</sat></trkpt>
  <trkpt lat="26.41631833" lon="-80.16942000"><ele>3.432</ele><time>2026-07-24T15:40:20Z</time><speed>0.000</speed><sat>13</sat></trkpt>
  <trkpt lat="26.41631833" lon="-80.16942000"><ele>3.432</ele><time>2026-07-24T15:40:21Z</time><speed>0.000</speed><sat>13</sat></trkpt>
  <trkpt lat="26.41631833" lon="-80.16942000"><ele>3.432</ele><time>2026-07-24T15:40:22Z</time><speed>0.000</speed><sat>13</sat></trkpt>
  <trkpt lat="26.41631833" lon="-80.16942000"><ele>3.432</ele><time>2026-07-24T15:40:23Z</time><speed>0.000</speed><sat>13</sat></trkpt>
  <trkpt lat="26.41631833" lon="-80.16942000"><ele>3.432</ele><time>2026-07-24T15:40:24Z</time><speed>0.000</speed><sat>13</sat></trkpt>
  <trkpt lat="26.41631833" lon="-80.16942000"><ele>3.432</ele><time>2026-07-24T15:40:25Z</time><speed>0.000</speed><sat>13</sat></trkpt>
  <trkpt lat="26.41631833" lon="-80.16942000"><ele>3.432</ele><time>2026-07-24T15:40:26Z</time><speed>0.000</speed><sat>14</sat></trkpt>
  <trkpt lat="26.41631833" lon="-80.16942000"><ele>3.432</ele><time>2026-07-24T15:40:27Z</time><speed>0.000</speed><sat>14</sat></trkpt>
  <trkpt lat="26.41631833" lon="-80.16942000"><ele>3.432</ele><time>2026-07-24T15:40:28Z</time><speed>0.000</speed><sat>14</sat></trkpt>
  <trkpt lat="26.41631833" lon="-80.16942000"><ele>3.432</ele><time>2026-07-24T15:40:29Z</time><speed>0.000</speed><sat>14</sat></trkpt>
  <trkpt lat="26.41631833" lon="-80.16942000"><ele>3.432</ele><time>2026-07-24T15:40:30Z</time><speed>0.000</speed><sat>14</sat></trkpt>
  <trkpt lat="26.41631833" lon="-80.16942000"><ele>3.432</ele><time>2026-07-24T15:40:31Z</time><speed>0.000</speed><sat>14</sat></trkpt>
  <trkpt lat="26.41631833" lon="-80.16942000"><ele>3.432</ele><time>2026-07-24T15:40:32Z</time><speed>0.000</speed><sat>14</sat></trkpt>
  <trkpt lat="26.41633000" lon="-80.16938667"><ele>8.132</ele><time>2026-07-24T15:40:33Z</time><speed>0.312</speed><sat>14</sat></trkpt>
  <trkpt lat="26.41632500" lon="-80.16936000"><ele>8.032</ele><time>2026-07-24T15:40:34Z</time><speed>0.569</speed><sat>14</sat></trkpt>
  <trkpt lat="26.41632000" lon="-80.16933000"><ele>8.032</ele><time>2026-07-24T15:40:35Z</time><speed>0.881</speed><sat>14</sat></trkpt>
  <trkpt lat="26.41631333" lon="-80.16929667"><ele>7.932</ele><time>2026-07-24T15:40:36Z</time><speed>1.229</speed><sat>14</sat></trkpt>
  <trkpt lat="26.41630667" lon="-80.16926000"><ele>8.032</ele><time>2026-07-24T15:40:37Z</time><speed>1.580</speed><sat>14</sat></trkpt>
  <trkpt lat="26.41630167" lon="-80.16922667"><ele>8.333</ele><time>2026-07-24T15:40:38Z</time><speed>1.915</speed><sat>14</sat></trkpt>
  <trkpt lat="26.41629833" lon="-80.16919167"><ele>8.233</ele><time>2026-07-24T15:40:39Z</time><speed>2.253</speed><sat>14</sat></trkpt>
  <trkpt lat="26.41629333" lon="-80.16915500"><ele>8.333</ele><time>2026-07-24T15:40:40Z</time><speed>2.599</speed><sat>14</sat></trkpt>
  <trkpt lat="26.41628833" lon="-80.16911667"><ele>8.333</ele><time>2026-07-24T15:40:41Z</time><speed>2.968</speed><sat>14</sat></trkpt>
  <trkpt lat="26.41628167" lon="-80.16907667"><ele>8.233</ele><time>2026-07-24T15:40:42Z</time><speed>3.324</speed><sat>14</sat></trkpt>
  <trkpt lat="26.41627500" lon="-80.16903667"><ele>7.833</ele><time>2026-07-24T15:40:43Z</time><speed>3.599</speed><sat>14</sat></trkpt>
  <trkpt lat="26.41627000" lon="-80.16899667"><ele>7.534</ele><time>2026-07-24T15:40:44Z</time><speed>3.772</speed><sat>14</sat></trkpt>
  <trkpt lat="26.41626833" lon="-80.16895667"><ele>7.234</ele><time>2026-07-24T15:40:45Z</time><speed>3.912</speed><sat>14</sat></trkpt>
  <trkpt lat="26.41626667" lon="-80.16891500"><ele>7.334</ele><time>2026-07-24T15:40:46Z</time><speed>3.987</speed><sat>14</sat></trkpt>
  <trkpt lat="26.41626667" lon="-80.16887167"><ele>7.534</ele><time>2026-07-24T15:40:47Z</time><speed>4.069</speed><sat>14</sat></trkpt>
  <trkpt lat="26.41626833" lon="-80.16882667"><ele>7.534</ele><time>2026-07-24T15:40:48Z</time><speed>4.188</speed><sat>14</sat></trkpt>
  <trkpt lat="26.41626333" lon="-80.16878500"><ele>6.934</ele><time>2026-07-24T15:40:49Z</time><speed>4.313</speed><sat>14</sat></trkpt>
  <trkpt lat="26.41625833" lon="-80.16874000"><ele>6.835</ele><time>2026-07-24T15:40:50Z</time><speed>4.390</speed><sat>14</sat></trkpt>
  <trkpt lat="26.41624667" lon="-80.16870167"><ele>6.335</ele><time>2026-07-24T15:40:51Z</time><speed>4.370</speed><sat>15</sat></trkpt>
  <trkpt lat="26.41623500" lon="-80.16867500"><ele>4.935</ele><time>2026-07-24T15:40:52Z</time><speed>4.317</speed><sat>15</sat></trkpt>
  <trkpt lat="26.41623000" lon="-80.16864167"><ele>4.535</ele><time>2026-07-24T15:40:53Z</time><speed>4.231</speed><sat>15</sat></trkpt>
  <trkpt lat="26.41622500" lon="-80.16860500"><ele>4.635</ele><time>2026-07-24T15:40:54Z</time><speed>4.172</speed><sat>15</sat></trkpt>
  <trkpt lat="26.41622667" lon="-80.16856333"><ele>3.935</ele><time>2026-07-24T15:40:55Z</time><speed>4.132</speed><sat>15</sat></trkpt>
  <trkpt lat="26.41622833" lon="-80.16852167"><ele>3.935</ele><time>2026-07-24T15:40:56Z</time><speed>4.117</speed><sat>15</sat></trkpt>
  <trkpt lat="26.41622833" lon="-80.16848167"><ele>4.336</ele><time>2026-07-24T15:40:57Z</time><speed>4.111</speed><sat>15</sat></trkpt>
  <trkpt lat="26.41623000" lon="-80.16843833"><ele>4.336</ele><time>2026-07-24T15:40:58Z</time><speed>4.083</speed><sat>15</sat></trkpt>
  <trkpt lat="26.41623500" lon="-80.16839667"><ele>4.336</ele><time>2026-07-24T15:40:59Z</time><speed>4.050</speed><sat>15</sat></trkpt>
  <trkpt lat="26.41623500" lon="-80.16835333"><ele>4.336</ele><time>2026-07-24T15:41:00Z</time><speed>4.067</speed><sat>15</sat></trkpt>
  <trkpt lat="26.41623333" lon="-80.16830833"><ele>4.536</ele><time>2026-07-24T15:41:01Z</time><speed>4.136</speed><sat>15</sat></trkpt>
  <trkpt lat="26.41623167" lon="-80.16826167"><ele>4.437</ele><time>2026-07-24T15:41:02Z</time><speed>4.223</speed><sat>14</sat></trkpt>
  <trkpt lat="26.41623667" lon="-80.16821167"><ele>3.937</ele><time>2026-07-24T15:41:03Z</time><speed>4.358</speed><sat>14</sat></trkpt>
  <trkpt lat="26.41624833" lon="-80.16817000"><ele>4.337</ele><time>2026-07-24T15:41:04Z</time><speed>4.405</speed><sat>14</sat></trkpt>
  <trkpt lat="26.41626667" lon="-80.16812833"><ele>5.137</ele><time>2026-07-24T15:41:05Z</time><speed>4.343</speed><sat>14</sat></trkpt>
  <trkpt lat="26.41628333" lon="-80.16809500"><ele>5.337</ele><time>2026-07-24T15:41:06Z</time><speed>4.260</speed><sat>14</sat></trkpt>
  <trkpt lat="26.41629833" lon="-80.16806667"><ele>4.937</ele><time>2026-07-24T15:41:07Z</time><speed>4.197</speed><sat>15</sat></trkpt>
  <trkpt lat="26.41631667" lon="-80.16803500"><ele>5.137</ele><time>2026-07-24T15:41:08Z</time><speed>4.117</speed><sat>15</sat></trkpt>
  <trkpt lat="26.41633000" lon="-80.16800667"><ele>5.538</ele><time>2026-07-24T15:41:09Z</time><speed>4.080</speed><sat>14</sat></trkpt>
  <trkpt lat="26.41635000" lon="-80.16797667"><ele>6.338</ele><time>2026-07-24T15:41:10Z</time><speed>3.905</speed><sat>15</sat></trkpt>
  <trkpt lat="26.41636667" lon="-80.16795167"><ele>6.538</ele><time>2026-07-24T15:41:11Z</time><speed>3.784</speed><sat>15</sat></trkpt>
  <trkpt lat="26.41638667" lon="-80.16792333"><ele>6.538</ele><time>2026-07-24T15:41:12Z</time><speed>3.725</speed><sat>15</sat></trkpt>
  <trkpt lat="26.41641167" lon="-80.16788667"><ele>6.538</ele><time>2026-07-24T15:41:13Z</time><speed>3.715</speed><sat>15</sat></trkpt>
  <trkpt lat="26.41644000" lon="-80.16785000"><ele>6.438</ele><time>2026-07-24T15:41:14Z</time><speed>3.767</speed><sat>15</sat></trkpt>
  <trkpt lat="26.41647000" lon="-80.16781000"><ele>6.539</ele><time>2026-07-24T15:41:15Z</time><speed>3.990</speed><sat>15</sat></trkpt>
  <trkpt lat="26.41650333" lon="-80.16777000"><ele>6.639</ele><time>2026-07-24T15:41:16Z</time><speed>4.158</speed><sat>15</sat></trkpt>
  <trkpt lat="26.41653333" lon="-80.16773500"><ele>6.439</ele><time>2026-07-24T15:41:17Z</time><speed>4.269</speed><sat>15</sat></trkpt>
  <trkpt lat="26.41656333" lon="-80.16770500"><ele>6.439</ele><time>2026-07-24T15:41:18Z</time><speed>4.345</speed><sat>15</sat></trkpt>
  <trkpt lat="26.41659000" lon="-80.16767667"><ele>6.439</ele><time>2026-07-24T15:41:19Z</time><speed>4.398</speed><sat>15</sat></trkpt>
  <trkpt lat="26.41661667" lon="-80.16764500"><ele>6.439</ele><time>2026-07-24T15:41:20Z</time><speed>4.579</speed><sat>15</sat></trkpt>
  <trkpt lat="26.41662333" lon="-80.16760833"><ele>6.539</ele><time>2026-07-24T15:41:21Z</time><speed>4.619</speed><sat>15</sat></trkpt>
  <trkpt lat="26.41662333" lon="-80.16757333"><ele>6.440</ele><time>2026-07-24T15:41:22Z</time><speed>4.599</speed><sat>15</sat></trkpt>
  <trkpt lat="26.41660667" lon="-80.16754833"><ele>6.640</ele><time>2026-07-24T15:41:23Z</time><speed>4.420</speed><sat>15</sat></trkpt>
  <trkpt lat="26.41658667" lon="-80.16752833"><ele>6.340</ele><time>2026-07-24T15:41:24Z</time><speed>4.234</speed><sat>15</sat></trkpt>
  <trkpt lat="26.41655500" lon="-80.16751167"><ele>5.840</ele><time>2026-07-24T15:41:25Z</time><speed>3.993</speed><sat>15</sat></trkpt>
  <trkpt lat="26.41652167" lon="-80.16749667"><ele>5.740</ele><time>2026-07-24T15:41:26Z</time><speed>3.894</speed><sat>15</sat></trkpt>
  <trkpt lat="26.41648833" lon="-80.16748167"><ele>5.740</ele><time>2026-07-24T15:41:27Z</time><speed>3.820</speed><sat>15</sat></trkpt>
  <trkpt lat="26.41645333" lon="-80.16746333"><ele>5.840</ele><time>2026-07-24T15:41:28Z</time><speed>3.862</speed><sat>15</sat></trkpt>
  <trkpt lat="26.41642000" lon="-80.16744333"><ele>6.240</ele><time>2026-07-24T15:41:29Z</time><speed>3.849</speed><sat>15</sat></trkpt>
  <trkpt lat="26.41638833" lon="-80.16742000"><ele>6.740</ele><time>2026-07-24T15:41:30Z</time><speed>3.856</speed><sat>15</sat></trkpt>
  <trkpt lat="26.41635500" lon="-80.16739833"><ele>7.540</ele><time>2026-07-24T15:41:31Z</time><speed>3.915</speed><sat>15</sat></trkpt>
  <trkpt lat="26.41632000" lon="-80.16737833"><ele>7.840</ele><time>2026-07-24T15:41:32Z</time><speed>3.984</speed><sat>15</sat></trkpt>
  <trkpt lat="26.41629000" lon="-80.16735333"><ele>8.240</ele><time>2026-07-24T15:41:33Z</time><speed>4.040</speed><sat>15</sat></trkpt>
  <trkpt lat="26.41626167" lon="-80.16733500"><ele>8.440</ele><time>2026-07-24T15:41:34Z</time><speed>4.070</speed><sat>15</sat></trkpt>
  <trkpt lat="26.41624667" lon="-80.16732000"><ele>8.540</ele><time>2026-07-24T15:41:35Z</time><speed>3.838</speed><sat>15</sat></trkpt>
  <trkpt lat="26.41624167" lon="-80.16731000"><ele>9.240</ele><time>2026-07-24T15:41:36Z</time><speed>0.000</speed><sat>15</sat></trkpt>
  <trkpt lat="26.41624333" lon="-80.16730333"><ele>9.340</ele><time>2026-07-24T15:41:37Z</time><speed>0.000</speed><sat>15</sat></trkpt>
  <trkpt lat="26.41624167" lon="-80.16730000"><ele>9.040</ele><time>2026-07-24T15:41:38Z</time><speed>0.000</speed><sat>14</sat></trkpt>
  <trkpt lat="26.41624167" lon="-80.16730000"><ele>9.040</ele><time>2026-07-24T15:41:39Z</time><speed>0.000</speed><sat>14</sat></trkpt>
  <trkpt lat="26.41624167" lon="-80.16730000"><ele>9.040</ele><time>2026-07-24T15:41:40Z</time><speed>0.000</speed><sat>14</sat></trkpt>
  <trkpt lat="26.41624167" lon="-80.16730000"><ele>9.040</ele><time>2026-07-24T15:41:41Z</time><speed>0.000</speed><sat>14</sat></trkpt>
  <trkpt lat="26.41624167" lon="-80.16730000"><ele>9.040</ele><time>2026-07-24T15:41:42Z</time><speed>0.000</speed><sat>13</sat></trkpt>
  <trkpt lat="26.41624167" lon="-80.16730000"><ele>9.040</ele><time>2026-07-24T15:41:43Z</time><speed>0.000</speed><sat>14</sat></trkpt>
  <trkpt lat="26.41624167" lon="-80.16730000"><ele>9.040</ele><time>2026-07-24T15:41:44Z</time><speed>0.000</speed><sat>14</sat></trkpt>
  <trkpt lat="26.41624167" lon="-80.16730000"><ele>9.040</ele><time>2026-07-24T15:41:45Z</time><speed>0.000</speed><sat>14</sat></trkpt>
  <trkpt lat="26.41624167" lon="-80.16730000"><ele>9.040</ele><time>2026-07-24T15:41:46Z</time><speed>0.000</speed><sat>13</sat></trkpt>
  <trkpt lat="26.41624167" lon="-80.16730000"><ele>9.040</ele><time>2026-07-24T15:41:47Z</time><speed>0.000</speed><sat>13</sat></trkpt>
  <trkpt lat="26.41624167" lon="-80.16730000"><ele>9.040</ele><time>2026-07-24T15:41:48Z</time><speed>0.000</speed><sat>13</sat></trkpt>
  <trkpt lat="26.41624167" lon="-80.16730000"><ele>9.040</ele><time>2026-07-24T15:41:49Z</time><speed>0.000</speed><sat>14</sat></trkpt>
  <trkpt lat="26.41624167" lon="-80.16730000"><ele>9.040</ele><time>2026-07-24T15:41:50Z</time><speed>0.000</speed><sat>14</sat></trkpt>
  <trkpt lat="26.41624167" lon="-80.16730000"><ele>9.040</ele><time>2026-07-24T15:41:51Z</time><speed>0.000</speed><sat>14</sat></trkpt>
  <trkpt lat="26.41624167" lon="-80.16730000"><ele>9.040</ele><time>2026-07-24T15:41:52Z</time><speed>0.000</speed><sat>14</sat></trkpt>
  <trkpt lat="26.41624167" lon="-80.16730000"><ele>9.040</ele><time>2026-07-24T15:41:53Z</time><speed>0.000</speed><sat>14</sat></trkpt>
  <trkpt lat="26.41622167" lon="-80.16729167"><ele>7.741</ele><time>2026-07-24T15:41:54Z</time><speed>0.399</speed><sat>15</sat></trkpt>
  <trkpt lat="26.41620833" lon="-80.16726833"><ele>8.341</ele><time>2026-07-24T15:41:55Z</time><speed>0.617</speed><sat>15</sat></trkpt>
  <trkpt lat="26.41619333" lon="-80.16724667"><ele>8.941</ele><time>2026-07-24T15:41:56Z</time><speed>0.867</speed><sat>15</sat></trkpt>
  <trkpt lat="26.41617500" lon="-80.16722667"><ele>9.141</ele><time>2026-07-24T15:41:57Z</time><speed>1.167</speed><sat>15</sat></trkpt>
  <trkpt lat="26.41615667" lon="-80.16720333"><ele>9.141</ele><time>2026-07-24T15:41:58Z</time><speed>1.447</speed><sat>15</sat></trkpt>
  <trkpt lat="26.41613667" lon="-80.16717167"><ele>9.441</ele><time>2026-07-24T15:41:59Z</time><speed>1.789</speed><sat>15</sat></trkpt>
  <trkpt lat="26.41610667" lon="-80.16713000"><ele>10.341</ele><time>2026-07-24T15:42:00Z</time><speed>2.207</speed><sat>15</sat></trkpt>
  <trkpt lat="26.41608167" lon="-80.16709667"><ele>10.441</ele><time>2026-07-24T15:42:01Z</time><speed>2.615</speed><sat>15</sat></trkpt>
  <trkpt lat="26.41605333" lon="-80.16707167"><ele>10.641</ele><time>2026-07-24T15:42:02Z</time><speed>2.983</speed><sat>15</sat></trkpt>
  <trkpt lat="26.41602667" lon="-80.16704500"><ele>10.841</ele><time>2026-07-24T15:42:03Z</time><speed>3.288</speed><sat>15</sat></trkpt>
  <trkpt lat="26.41599833" lon="-80.16701833"><ele>10.942</ele><time>2026-07-24T15:42:04Z</time><speed>3.510</speed><sat>15</sat></trkpt>
  <trkpt lat="26.41596167" lon="-80.16699167"><ele>11.142</ele><time>2026-07-24T15:42:05Z</time><speed>3.757</speed><sat>15</sat></trkpt>
  <trkpt lat="26.41592833" lon="-80.16696000"><ele>11.142</ele><time>2026-07-24T15:42:06Z</time><speed>4.022</speed><sat>15</sat></trkpt>
  <trkpt lat="26.41589667" lon="-80.16691833"><ele>11.142</ele><time>2026-07-24T15:42:07Z</time><speed>4.251</speed><sat>15</sat></trkpt>
  <trkpt lat="26.41586333" lon="-80.16687667"><ele>10.942</ele><time>2026-07-24T15:42:08Z</time><speed>4.551</speed><sat>15</sat></trkpt>
  <trkpt lat="26.41583333" lon="-80.16682833"><ele>10.542</ele><time>2026-07-24T15:42:09Z</time><speed>4.802</speed><sat>15</sat></trkpt>
  <trkpt lat="26.41580167" lon="-80.16678167"><ele>9.442</ele><time>2026-07-24T15:42:10Z</time><speed>5.007</speed><sat>15</sat></trkpt>
  <trkpt lat="26.41577333" lon="-80.16673167"><ele>8.043</ele><time>2026-07-24T15:42:11Z</time><speed>5.216</speed><sat>15</sat></trkpt>
  <trkpt lat="26.41574500" lon="-80.16667833"><ele>7.543</ele><time>2026-07-24T15:42:12Z</time><speed>5.436</speed><sat>15</sat></trkpt>
  <trkpt lat="26.41571833" lon="-80.16662167"><ele>6.843</ele><time>2026-07-24T15:42:13Z</time><speed>5.683</speed><sat>15</sat></trkpt>
  <trkpt lat="26.41569167" lon="-80.16656333"><ele>6.543</ele><time>2026-07-24T15:42:14Z</time><speed>5.868</speed><sat>15</sat></trkpt>
  <trkpt lat="26.41566333" lon="-80.16650500"><ele>6.243</ele><time>2026-07-24T15:42:15Z</time><speed>6.064</speed><sat>15</sat></trkpt>
  <trkpt lat="26.41563833" lon="-80.16644667"><ele>5.844</ele><time>2026-07-24T15:42:16Z</time><speed>6.188</speed><sat>15</sat></trkpt>
  <trkpt lat="26.41561000" lon="-80.16639000"><ele>5.344</ele><time>2026-07-24T15:42:17Z</time><speed>6.309</speed><sat>15</sat></trkpt>
  <trkpt lat="26.41558167" lon="-80.16633333"><ele>4.944</ele><time>2026-07-24T15:42:18Z</time><speed>6.374</speed><sat>15</sat></trkpt>
  <trkpt lat="26.41555500" lon="-80.16627500"><ele>4.544</ele><time>2026-07-24T15:42:19Z</time><speed>6.422</speed><sat>15</sat></trkpt>
  <trkpt lat="26.41552667" lon="-80.16621667"><ele>4.145</ele><time>2026-07-24T15:42:20Z</time><speed>6.419</speed><sat>15</sat></trkpt>
  <trkpt lat="26.41550167" lon="-80.16616167"><ele>3.945</ele><time>2026-07-24T15:42:21Z</time><speed>6.393</speed><sat>15</sat></trkpt>
  <trkpt lat="26.41547500" lon="-80.16611000"><ele>4.045</ele><time>2026-07-24T15:42:22Z</time><speed>6.344</speed><sat>15</sat></trkpt>
  <trkpt lat="26.41545333" lon="-80.16606167"><ele>3.745</ele><time>2026-07-24T15:42:23Z</time><speed>6.233</speed><sat>15</sat></trkpt>
  <trkpt lat="26.41543000" lon="-80.16601500"><ele>3.245</ele><time>2026-07-24T15:42:24Z</time><speed>6.087</speed><sat>15</sat></trkpt>
  <trkpt lat="26.41541500" lon="-80.16597833"><ele>3.245</ele><time>2026-07-24T15:42:25Z</time><speed>5.814</speed><sat>15</sat></trkpt>
  <trkpt lat="26.41540167" lon="-80.16594667"><ele>2.746</ele><time>2026-07-24T15:42:26Z</time><speed>5.498</speed><sat>15</sat></trkpt>
  <trkpt lat="26.41539000" lon="-80.16592667"><ele>3.346</ele><time>2026-07-24T15:42:27Z</time><speed>5.121</speed><sat>15</sat></trkpt>
  <trkpt lat="26.41537500" lon="-80.16591167"><ele>3.546</ele><time>2026-07-24T15:42:28Z</time><speed>4.686</speed><sat>15</sat></trkpt>
  <trkpt lat="26.41536333" lon="-80.16589667"><ele>4.546</ele><time>2026-07-24T15:42:29Z</time><speed>4.212</speed><sat>15</sat></trkpt>
  <trkpt lat="26.41535500" lon="-80.16588667"><ele>4.946</ele><time>2026-07-24T15:42:30Z</time><speed>3.676</speed><sat>15</sat></trkpt>
  <trkpt lat="26.41535167" lon="-80.16587833"><ele>5.346</ele><time>2026-07-24T15:42:31Z</time><speed>3.107</speed><sat>15</sat></trkpt>
  <trkpt lat="26.41535000" lon="-80.16587333"><ele>5.546</ele><time>2026-07-24T15:42:32Z</time><speed>2.539</speed><sat>15</sat></trkpt>
  <trkpt lat="26.41535167" lon="-80.16586833"><ele>5.446</ele><time>2026-07-24T15:42:33Z</time><speed>2.008</speed><sat>15</sat></trkpt>
  <trkpt lat="26.41535333" lon="-80.16586500"><ele>5.446</ele><time>2026-07-24T15:42:34Z</time><speed>1.511</speed><sat>15</sat></trkpt>
  <trkpt lat="26.41535500" lon="-80.16586333"><ele>5.546</ele><time>2026-07-24T15:42:35Z</time><speed>1.122</speed><sat>15</sat></trkpt>
  <trkpt lat="26.41535500" lon="-80.16586167"><ele>5.746</ele><time>2026-07-24T15:42:36Z</time><speed>0.800</speed><sat>15</sat></trkpt>
  <trkpt lat="26.41535333" lon="-80.16586000"><ele>5.946</ele><time>2026-07-24T15:42:37Z</time><speed>0.527</speed><sat>15</sat></trkpt>
  <trkpt lat="26.41535500" lon="-80.16585833"><ele>6.046</ele><time>2026-07-24T15:42:38Z</time><speed>0.000</speed><sat>15</sat></trkpt>
  <trkpt lat="26.41535500" lon="-80.16585833"><ele>6.146</ele><time>2026-07-24T15:42:39Z</time><speed>0.000</speed><sat>15</sat></trkpt>
  <trkpt lat="26.41535500" lon="-80.16585667"><ele>6.246</ele><time>2026-07-24T15:42:40Z</time><speed>0.000</speed><sat>15</sat></trkpt>
  <trkpt lat="26.41535500" lon="-80.16585667"><ele>6.246</ele><time>2026-07-24T15:42:41Z</time><speed>0.000</speed><sat>15</sat></trkpt>
  <trkpt lat="26.41535500" lon="-80.16585667"><ele>6.246</ele><time>2026-07-24T15:42:42Z</time><speed>0.000</speed><sat>15</sat></trkpt>
  <trkpt lat="26.41534333" lon="-80.16583833"><ele>6.846</ele><time>2026-07-24T15:42:43Z</time><speed>0.393</speed><sat>14</sat></trkpt>
  <trkpt lat="26.41532167" lon="-80.16581333"><ele>6.746</ele><time>2026-07-24T15:42:44Z</time><speed>0.779</speed><sat>15</sat></trkpt>
  <trkpt lat="26.41530000" lon="-80.16578333"><ele>6.746</ele><time>2026-07-24T15:42:45Z</time><speed>1.156</speed><sat>14</sat></trkpt>
  <trkpt lat="26.41527833" lon="-80.16575333"><ele>6.746</ele><time>2026-07-24T15:42:46Z</time><speed>1.554</speed><sat>15</sat></trkpt>
  <trkpt lat="26.41526167" lon="-80.16572667"><ele>6.646</ele><time>2026-07-24T15:42:47Z</time><speed>1.870</speed><sat>15</sat></trkpt>
  <trkpt lat="26.41524833" lon="-80.16570667"><ele>6.746</ele><time>2026-07-24T15:42:48Z</time><speed>2.111</speed><sat>15</sat></trkpt>
  <trkpt lat="26.41524000" lon="-80.16568667"><ele>6.947</ele><time>2026-07-24T15:42:49Z</time><speed>2.379</speed><sat>15</sat></trkpt>
  <trkpt lat="26.41523167" lon="-80.16565833"><ele>6.547</ele><time>2026-07-24T15:42:50Z</time><speed>2.714</speed><sat>15</sat></trkpt>
  <trkpt lat="26.41521833" lon="-80.16562667"><ele>5.847</ele><time>2026-07-24T15:42:51Z</time><speed>3.134</speed><sat>15</sat></trkpt>
  <trkpt lat="26.41520000" lon="-80.16558833"><ele>5.747</ele><time>2026-07-24T15:42:52Z</time><speed>3.526</speed><sat>15</sat></trkpt>
  <trkpt lat="26.41518167" lon="-80.16555000"><ele>5.047</ele><time>2026-07-24T15:42:53Z</time><speed>3.713</speed><sat>15</sat></trkpt>
  <trkpt lat="26.41516167" lon="-80.16550500"><ele>5.047</ele><time>2026-07-24T15:42:54Z</time><speed>3.824</speed><sat>15</sat></trkpt>
  <trkpt lat="26.41513667" lon="-80.16546500"><ele>4.647</ele><time>2026-07-24T15:42:55Z</time><speed>3.929</speed><sat>15</sat></trkpt>
  <trkpt lat="26.41511333" lon="-80.16542167"><ele>4.448</ele><time>2026-07-24T15:42:56Z</time><speed>4.025</speed><sat>15</sat></trkpt>
  <trkpt lat="26.41509333" lon="-80.16537667"><ele>4.448</ele><time>2026-07-24T15:42:57Z</time><speed>4.208</speed><sat>15</sat></trkpt>
  <trkpt lat="26.41507333" lon="-80.16533500"><ele>4.648</ele><time>2026-07-24T15:42:58Z</time><speed>4.444</speed><sat>14</sat></trkpt>
  <trkpt lat="26.41505167" lon="-80.16529667"><ele>4.548</ele><time>2026-07-24T15:42:59Z</time><speed>4.662</speed><sat>14</sat></trkpt>
  <trkpt lat="26.41503167" lon="-80.16525667"><ele>4.648</ele><time>2026-07-24T15:43:00Z</time><speed>4.752</speed><sat>15</sat></trkpt>
  <trkpt lat="26.41501000" lon="-80.16522000"><ele>4.948</ele><time>2026-07-24T15:43:01Z</time><speed>4.717</speed><sat>15</sat></trkpt>
  <trkpt lat="26.41498333" lon="-80.16519167"><ele>5.448</ele><time>2026-07-24T15:43:02Z</time><speed>4.647</speed><sat>15</sat></trkpt>
  <trkpt lat="26.41495667" lon="-80.16517000"><ele>5.749</ele><time>2026-07-24T15:43:03Z</time><speed>4.520</speed><sat>15</sat></trkpt>
  <trkpt lat="26.41492500" lon="-80.16516500"><ele>5.949</ele><time>2026-07-24T15:43:04Z</time><speed>4.394</speed><sat>15</sat></trkpt>
  <trkpt lat="26.41489500" lon="-80.16516833"><ele>6.049</ele><time>2026-07-24T15:43:05Z</time><speed>4.234</speed><sat>15</sat></trkpt>
  <trkpt lat="26.41486833" lon="-80.16517000"><ele>5.848</ele><time>2026-07-24T15:43:06Z</time><speed>4.004</speed><sat>15</sat></trkpt>
  <trkpt lat="26.41484667" lon="-80.16516333"><ele>5.949</ele><time>2026-07-24T15:43:07Z</time><speed>3.709</speed><sat>15</sat></trkpt>
  <trkpt lat="26.41482500" lon="-80.16515000"><ele>6.749</ele><time>2026-07-24T15:43:08Z</time><speed>3.486</speed><sat>15</sat></trkpt>
  <trkpt lat="26.41481000" lon="-80.16512000"><ele>6.349</ele><time>2026-07-24T15:43:09Z</time><speed>3.381</speed><sat>15</sat></trkpt>
  <trkpt lat="26.41479833" lon="-80.16508667"><ele>5.849</ele><time>2026-07-24T15:43:10Z</time><speed>3.330</speed><sat>15</sat></trkpt>
  <trkpt lat="26.41479833" lon="-80.16504833"><ele>5.649</ele><time>2026-07-24T15:43:11Z</time><speed>3.363</speed><sat>15</sat></trkpt>
  <trkpt lat="26.41481333" lon="-80.16501333"><ele>5.349</ele><time>2026-07-24T15:43:12Z</time><speed>3.407</speed><sat>15</sat></trkpt>
  <trkpt lat="26.41483333" lon="-80.16498833"><ele>4.949</ele><time>2026-07-24T15:43:13Z</time><speed>3.369</speed><sat>15</sat></trkpt>
  <trkpt lat="26.41485833" lon="-80.16496833"><ele>4.649</ele><time>2026-07-24T15:43:14Z</time><speed>3.349</speed><sat>15</sat></trkpt>
  <trkpt lat="26.41488167" lon="-80.16496167"><ele>4.249</ele><time>2026-07-24T15:43:15Z</time><speed>3.263</speed><sat>15</sat></trkpt>
  <trkpt lat="26.41490333" lon="-80.16495333"><ele>3.949</ele><time>2026-07-24T15:43:16Z</time><speed>3.261</speed><sat>15</sat></trkpt>
  <trkpt lat="26.41491500" lon="-80.16494500"><ele>3.649</ele><time>2026-07-24T15:43:17Z</time><speed>3.245</speed><sat>15</sat></trkpt>
  <trkpt lat="26.41493500" lon="-80.16494833"><ele>3.549</ele><time>2026-07-24T15:43:18Z</time><speed>3.187</speed><sat>15</sat></trkpt>
  <trkpt lat="26.41496167" lon="-80.16494667"><ele>1.449</ele><time>2026-07-24T15:43:19Z</time><speed>3.002</speed><sat>15</sat></trkpt>
  <trkpt lat="26.41499333" lon="-80.16495667"><ele>0.049</ele><time>2026-07-24T15:43:20Z</time><speed>2.892</speed><sat>14</sat></trkpt>
  <trkpt lat="26.41504000" lon="-80.16494500"><ele>0.250</ele><time>2026-07-24T15:43:21Z</time><speed>2.810</speed><sat>15</sat></trkpt>
  <trkpt lat="26.41506500" lon="-80.16490667"><ele>-0.450</ele><time>2026-07-24T15:43:22Z</time><speed>2.765</speed><sat>14</sat></trkpt>
  <trkpt lat="26.41510000" lon="-80.16488667"><ele>0.150</ele><time>2026-07-24T15:43:23Z</time><speed>2.758</speed><sat>14</sat></trkpt>
  <trkpt lat="26.41513000" lon="-80.16486667"><ele>-0.250</ele><time>2026-07-24T15:43:24Z</time><speed>2.656</speed><sat>14</sat></trkpt>
  <trkpt lat="26.41515167" lon="-80.16485167"><ele>-0.250</ele><time>2026-07-24T15:43:25Z</time><speed>2.644</speed><sat>14</sat></trkpt>
  <trkpt lat="26.41518333" lon="-80.16482833"><ele>0.250</ele><time>2026-07-24T15:43:26Z</time><speed>2.571</speed><sat>14</sat></trkpt>
  <trkpt lat="26.41520833" lon="-80.16481333"><ele>0.850</ele><time>2026-07-24T15:43:27Z</time><speed>2.593</speed><sat>14</sat></trkpt>
  <trkpt lat="26.41523833" lon="-80.16480500"><ele>1.050</ele><time>2026-07-24T15:43:28Z</time><speed>2.669</speed><sat>14</sat></trkpt>
  <trkpt lat="26.41526833" lon="-80.16481167"><ele>0.750</ele><time>2026-07-24T15:43:29Z</time><speed>2.802</speed><sat>14</sat></trkpt>
  <trkpt lat="26.41530833" lon="-80.16482667"><ele>0.550</ele><time>2026-07-24T15:43:30Z</time><speed>2.925</speed><sat>14</sat></trkpt>
  <trkpt lat="26.41534500" lon="-80.16484167"><ele>0.150</ele><time>2026-07-24T15:43:31Z</time><speed>3.012</speed><sat>14</sat></trkpt>
  <trkpt lat="26.41538000" lon="-80.16485667"><ele>-0.250</ele><time>2026-07-24T15:43:32Z</time><speed>3.055</speed><sat>14</sat></trkpt>
  <trkpt lat="26.41542000" lon="-80.16487333"><ele>-0.650</ele><time>2026-07-24T15:43:33Z</time><speed>3.191</speed><sat>14</sat></trkpt>
  <trkpt lat="26.41546333" lon="-80.16489000"><ele>-0.350</ele><time>2026-07-24T15:43:34Z</time><speed>3.417</speed><sat>14</sat></trkpt>
  <trkpt lat="26.41550667" lon="-80.16490333"><ele>-0.250</ele><time>2026-07-24T15:43:35Z</time><speed>3.669</speed><sat>14</sat></trkpt>
  <trkpt lat="26.41555333" lon="-80.16491000"><ele>0.850</ele><time>2026-07-24T15:43:36Z</time><speed>3.944</speed><sat>14</sat></trkpt>
  <trkpt lat="26.41560167" lon="-80.16491667"><ele>1.450</ele><time>2026-07-24T15:43:37Z</time><speed>4.188</speed><sat>14</sat></trkpt>
  <trkpt lat="26.41564500" lon="-80.16493167"><ele>1.850</ele><time>2026-07-24T15:43:38Z</time><speed>4.369</speed><sat>14</sat></trkpt>
  <trkpt lat="26.41569000" lon="-80.16493333"><ele>2.350</ele><time>2026-07-24T15:43:39Z</time><speed>4.521</speed><sat>14</sat></trkpt>
  <trkpt lat="26.41573500" lon="-80.16492667"><ele>2.950</ele><time>2026-07-24T15:43:40Z</time><speed>4.626</speed><sat>14</sat></trkpt>
  <trkpt lat="26.41577500" lon="-80.16491000"><ele>3.350</ele><time>2026-07-24T15:43:41Z</time><speed>4.669</speed><sat>14</sat></trkpt>
  <trkpt lat="26.41581167" lon="-80.16488833"><ele>3.750</ele><time>2026-07-24T15:43:42Z</time><speed>4.682</speed><sat>14</sat></trkpt>
  <trkpt lat="26.41584667" lon="-80.16486667"><ele>4.350</ele><time>2026-07-24T15:43:43Z</time><speed>4.608</speed><sat>14</sat></trkpt>
  <trkpt lat="26.41587333" lon="-80.16484500"><ele>4.750</ele><time>2026-07-24T15:43:44Z</time><speed>4.486</speed><sat>14</sat></trkpt>
  <trkpt lat="26.41588500" lon="-80.16483000"><ele>4.750</ele><time>2026-07-24T15:43:45Z</time><speed>4.227</speed><sat>14</sat></trkpt>
  <trkpt lat="26.41589667" lon="-80.16481667"><ele>4.751</ele><time>2026-07-24T15:43:46Z</time><speed>3.950</speed><sat>14</sat></trkpt>
  <trkpt lat="26.41590667" lon="-80.16481500"><ele>5.251</ele><time>2026-07-24T15:43:47Z</time><speed>3.647</speed><sat>13</sat></trkpt>
  <trkpt lat="26.41591000" lon="-80.16480500"><ele>5.951</ele><time>2026-07-24T15:43:48Z</time><speed>3.343</speed><sat>13</sat></trkpt>
  <trkpt lat="26.41592167" lon="-80.16479500"><ele>5.751</ele><time>2026-07-24T15:43:49Z</time><speed>2.953</speed><sat>14</sat></trkpt>
  <trkpt lat="26.41592333" lon="-80.16478333"><ele>5.951</ele><time>2026-07-24T15:43:50Z</time><speed>2.512</speed><sat>13</sat></trkpt>
  <trkpt lat="26.41592667" lon="-80.16477167"><ele>5.951</ele><time>2026-07-24T15:43:51Z</time><speed>2.073</speed><sat>14</sat></trkpt>
  <trkpt lat="26.41593833" lon="-80.16475500"><ele>5.351</ele><time>2026-07-24T15:43:52Z</time><speed>1.726</speed><sat>14</sat></trkpt>
  <trkpt lat="26.41594667" lon="-80.16475000"><ele>5.351</ele><time>2026-07-24T15:43:53Z</time><speed>1.455</speed><sat>14</sat></trkpt>
  <trkpt lat="26.41595667" lon="-80.16474333"><ele>5.651</ele><time>2026-07-24T15:43:54Z</time><speed>1.212</speed><sat>14</sat></trkpt>
  <trkpt lat="26.41596500" lon="-80.16473833"><ele>6.251</ele><time>2026-07-24T15:43:55Z</time><speed>1.098</speed><sat>13</sat></trkpt>
  <trkpt lat="26.41597167" lon="-80.16473333"><ele>6.251</ele><time>2026-07-24T15:43:56Z</time><speed>0.970</speed><sat>14</sat></trkpt>
  <trkpt lat="26.41597500" lon="-80.16472833"><ele>6.551</ele><time>2026-07-24T15:43:57Z</time><speed>0.887</speed><sat>14</sat></trkpt>
  <trkpt lat="26.41597833" lon="-80.16472333"><ele>6.851</ele><time>2026-07-24T15:43:58Z</time><speed>0.809</speed><sat>14</sat></trkpt>
  <trkpt lat="26.41598167" lon="-80.16471667"><ele>7.051</ele><time>2026-07-24T15:43:59Z</time><speed>0.789</speed><sat>14</sat></trkpt>
  <trkpt lat="26.41598667" lon="-80.16471000"><ele>7.151</ele><time>2026-07-24T15:44:00Z</time><speed>0.799</speed><sat>14</sat></trkpt>
  <trkpt lat="26.41599000" lon="-80.16470500"><ele>7.151</ele><time>2026-07-24T15:44:01Z</time><speed>0.845</speed><sat>14</sat></trkpt>
  <trkpt lat="26.41598333" lon="-80.16469000"><ele>7.651</ele><time>2026-07-24T15:44:02Z</time><speed>0.914</speed><sat>14</sat></trkpt>
  <trkpt lat="26.41598333" lon="-80.16468000"><ele>8.551</ele><time>2026-07-24T15:44:03Z</time><speed>0.919</speed><sat>14</sat></trkpt>
  <trkpt lat="26.41598167" lon="-80.16466833"><ele>9.051</ele><time>2026-07-24T15:44:04Z</time><speed>0.897</speed><sat>14</sat></trkpt>
  <trkpt lat="26.41598167" lon="-80.16466333"><ele>9.451</ele><time>2026-07-24T15:44:05Z</time><speed>0.850</speed><sat>14</sat></trkpt>
  <trkpt lat="26.41599167" lon="-80.16465333"><ele>9.551</ele><time>2026-07-24T15:44:06Z</time><speed>0.904</speed><sat>14</sat></trkpt>
  <trkpt lat="26.41600500" lon="-80.16464500"><ele>10.051</ele><time>2026-07-24T15:44:07Z</time><speed>0.893</speed><sat>14</sat></trkpt>
  <trkpt lat="26.41601167" lon="-80.16464000"><ele>10.451</ele><time>2026-07-24T15:44:08Z</time><speed>0.850</speed><sat>14</sat></trkpt>
  <trkpt lat="26.41601833" lon="-80.16464000"><ele>10.651</ele><time>2026-07-24T15:44:09Z</time><speed>0.818</speed><sat>14</sat></trkpt>
  <trkpt lat="26.41602333" lon="-80.16464000"><ele>10.751</ele><time>2026-07-24T15:44:10Z</time><speed>0.790</speed><sat>14</sat></trkpt>
  <trkpt lat="26.41602833" lon="-80.16464000"><ele>11.351</ele><time>2026-07-24T15:44:11Z</time><speed>0.756</speed><sat>14</sat></trkpt>
  <trkpt lat="26.41603167" lon="-80.16464167"><ele>11.551</ele><time>2026-07-24T15:44:12Z</time><speed>0.645</speed><sat>14</sat></trkpt>
  <trkpt lat="26.41603833" lon="-80.16463833"><ele>12.051</ele><time>2026-07-24T15:44:13Z</time><speed>0.588</speed><sat>14</sat></trkpt>
  <trkpt lat="26.41604667" lon="-80.16463167"><ele>12.351</ele><time>2026-07-24T15:44:14Z</time><speed>0.655</speed><sat>14</sat></trkpt>
  <trkpt lat="26.41605667" lon="-80.16462167"><ele>12.651</ele><time>2026-07-24T15:44:15Z</time><speed>0.714</speed><sat>14</sat></trkpt>
  <trkpt lat="26.41606667" lon="-80.16461500"><ele>12.951</ele><time>2026-07-24T15:44:16Z</time><speed>0.705</speed><sat>14</sat></trkpt>
  <trkpt lat="26.41607500" lon="-80.16461333"><ele>13.151</ele><time>2026-07-24T15:44:17Z</time><speed>0.742</speed><sat>14</sat></trkpt>
  <trkpt lat="26.41607167" lon="-80.16460500"><ele>13.351</ele><time>2026-07-24T15:44:18Z</time><speed>0.748</speed><sat>14</sat></trkpt>
  <trkpt lat="26.41606833" lon="-80.16459833"><ele>13.752</ele><time>2026-07-24T15:44:19Z</time><speed>0.726</speed><sat>14</sat></trkpt>
  <trkpt lat="26.41606500" lon="-80.16459333"><ele>14.052</ele><time>2026-07-24T15:44:20Z</time><speed>0.702</speed><sat>14</sat></trkpt>
  <trkpt lat="26.41606333" lon="-80.16459000"><ele>14.052</ele><time>2026-07-24T15:44:21Z</time><speed>0.680</speed><sat>14</sat></trkpt>
  <trkpt lat="26.41606500" lon="-80.16458500"><ele>13.952</ele><time>2026-07-24T15:44:22Z</time><speed>0.670</speed><sat>14</sat></trkpt>
  <trkpt lat="26.41606333" lon="-80.16458000"><ele>14.152</ele><time>2026-07-24T15:44:23Z</time><speed>0.638</speed><sat>14</sat></trkpt>
  <trkpt lat="26.41606000" lon="-80.16457500"><ele>14.552</ele><time>2026-07-24T15:44:24Z</time><speed>0.495</speed><sat>14</sat></trkpt>
  <trkpt lat="26.41605667" lon="-80.16457167"><ele>14.752</ele><time>2026-07-24T15:44:25Z</time><speed>0.000</speed><sat>14</sat></trkpt>
  <trkpt lat="26.41605167" lon="-80.16456667"><ele>14.952</ele><time>2026-07-24T15:44:26Z</time><speed>0.000</speed><sat>14</sat></trkpt>
  <trkpt lat="26.41604833" lon="-80.16456500"><ele>15.252</ele><time>2026-07-24T15:44:27Z</time><speed>0.000</speed><sat>14</sat></trkpt>
  <trkpt lat="26.41604833" lon="-80.16456500"><ele>15.252</ele><time>2026-07-24T15:44:28Z</time><speed>0.000</speed><sat>14</sat></trkpt>
  <trkpt lat="26.41604833" lon="-80.16456500"><ele>15.252</ele><time>2026-07-24T15:44:29Z</time><speed>0.000</speed><sat>14</sat></trkpt>
  <trkpt lat="26.41604833" lon="-80.16456500"><ele>15.252</ele><time>2026-07-24T15:44:30Z</time><speed>0.000</speed><sat>14</sat></trkpt>
  <trkpt lat="26.41604833" lon="-80.16456500"><ele>15.252</ele><time>2026-07-24T15:44:31Z</time><speed>0.000</speed><sat>14</sat></trkpt>
  <trkpt lat="26.41604833" lon="-80.16456500"><ele>15.252</ele><time>2026-07-24T15:44:32Z</time><speed>0.000</speed><sat>14</sat></trkpt>
  <trkpt lat="26.41604833" lon="-80.16456500"><ele>15.252</ele><time>2026-07-24T15:44:33Z</time><speed>0.000</speed><sat>14</sat></trkpt>
  <trkpt lat="26.41604833" lon="-80.16456500"><ele>15.252</ele><time>2026-07-24T15:44:34Z</time><speed>0.000</speed><sat>14</sat></trkpt>
  <trkpt lat="26.41604833" lon="-80.16456500"><ele>15.252</ele><time>2026-07-24T15:44:35Z</time><speed>0.000</speed><sat>14</sat></trkpt>
  <trkpt lat="26.41604833" lon="-80.16456500"><ele>15.252</ele><time>2026-07-24T15:44:36Z</time><speed>0.000</speed><sat>14</sat></trkpt>
 </trkseg>
</trk>

</gpx>
 