<?xml version="1.0" encoding="UTF-8"?>
<!-- Created with BasicAirData GPS Logger for Android - ver. 3.3.0 -->
<!-- Track 19 = 345 TrackPoints + 2 Placemarks -->
<kml xmlns="http://www.opengis.net/kml/2.2">
 <Document>
  <name>GPS Logger 20260724-141804</name>
  <description><![CDATA[Gate-ST5
345 Trackpoints + 2 Placemarks]]></description>
  <Style id="TrackStyle">
   <LineStyle>
    <color>ff0000ff</color>
    <width>3</width>
   </LineStyle>
   <PolyStyle>
    <color>7f0000ff</color>
   </PolyStyle>
   <BalloonStyle>
    <text><![CDATA[<p style="color:red;font-weight:bold">$[name]</p><p style="font-size:11px">$[description]</p><p style="font-size:7px">Track Stats based on: Total time | Time in Movement</p>]]></text>
   </BalloonStyle>
  </Style>
  <Style id="PlacemarkStyle">
   <IconStyle>
    <Icon><href>http://maps.google.com/mapfiles/kml/shapes/placemark_circle_highlight.png</href></Icon>
   </IconStyle>
  </Style>

  <Placemark id="1">
   <name>Gate</name>
   <styleUrl>#PlacemarkStyle</styleUrl>
   <Point>
    <altitudeMode>clampToGround</altitudeMode>
    <coordinates>-80.16109667,26.41065000,25.963</coordinates>
    <extrude>1</extrude>
   </Point>
  </Placemark>

  <Placemark id="2">
   <name>Station5</name>
   <styleUrl>#PlacemarkStyle</styleUrl>
   <Point>
    <altitudeMode>clampToGround</altitudeMode>
    <coordinates>-80.16271667,26.41459667,14.458</coordinates>
    <extrude>1</extrude>
   </Point>
  </Placemark>

  <Placemark id="20260724-141804">
   <name>Track 20260724-141804</name>
   <description><![CDATA[<b>Gate-ST5</b><br><br>Distance = 710 m<br>Duration = 05:44 | 04:30<br>Altitude Gap = -10 m<br>Max Speed = 8 mph<br>Avg Speed = 4.6 | 5.9 mph<br>Direction = NNW <br><br><i>345 Trackpoints</i>]]></description>
   <styleUrl>#TrackStyle</styleUrl>
   <LineString>
    <extrude>0</extrude>
    <tessellate>0</tessellate>
    <altitudeMode>clampToGround</altitudeMode>
    <coordinates>
     -80.16109667,26.41065000,25.963
     -80.16109667,26.41065000,25.963
     -80.16109667,26.41065000,25.963
     -80.16109667,26.41065000,25.963
     -80.16109667,26.41065000,25.963
     -80.16109667,26.41065000,25.963
     -80.16109667,26.41065000,25.963
     -80.16109667,26.41065000,25.963
     -80.16109667,26.41065000,25.963
     -80.16109667,26.41065000,25.963
     -80.16109667,26.41065000,25.963
     -80.16109667,26.41065000,25.963
     -80.16109667,26.41065000,25.963
     -80.16109667,26.41065000,25.963
     -80.16109667,26.41065000,25.963
     -80.16109667,26.41065000,25.963
     -80.16109667,26.41065000,25.963
     -80.16109667,26.41065000,25.963
     -80.16109667,26.41065000,25.963
     -80.16109667,26.41065000,25.963
     -80.16109667,26.41065000,25.963
     -80.16109667,26.41065000,25.963
     -80.16109667,26.41065000,25.963
     -80.16109667,26.41065000,25.963
     -80.16109667,26.41065000,25.963
     -80.16109667,26.41065000,25.963
     -80.16109667,26.41065000,25.963
     -80.16109667,26.41065000,25.963
     -80.16109667,26.41065000,25.963
     -80.16109667,26.41065000,25.963
     -80.16109667,26.41065000,25.963
     -80.16109667,26.41065000,25.963
     -80.16109667,26.41065000,25.963
     -80.16109667,26.41065000,25.963
     -80.16109667,26.41065000,25.963
     -80.16109667,26.41065000,25.963
     -80.16109667,26.41065000,25.963
     -80.16109667,26.41065000,25.963
     -80.16109667,26.41065000,25.963
     -80.16109667,26.41065000,25.963
     -80.16109667,26.41065000,25.963
     -80.16109667,26.41065000,25.963
     -80.16109667,26.41065000,25.963
     -80.16109667,26.41065000,25.963
     -80.16109667,26.41065000,25.963
     -80.16109667,26.41065000,25.963
     -80.16109667,26.41065000,25.963
     -80.16109667,26.41065000,25.963
     -80.16109667,26.41065000,25.963
     -80.16109667,26.41065000,25.963
     -80.16111000,26.41068000,23.563
     -80.16111000,26.41067833,23.263
     -80.16111000,26.41067667,23.263
     -80.16110167,26.41066000,22.963
     -80.16110167,26.41066000,22.963
     -80.16110167,26.41066000,22.963
     -80.16110167,26.41066000,22.963
     -80.16110333,26.41065000,22.563
     -80.16109667,26.41064667,22.363
     -80.16109333,26.41064167,22.263
     -80.16109000,26.41063667,22.263
     -80.16108667,26.41063333,22.363
     -80.16108167,26.41062500,22.563
     -80.16107833,26.41062000,22.663
     -80.16107500,26.41061500,22.763
     -80.16107000,26.41061333,22.863
     -80.16106667,26.41060833,23.163
     -80.16106833,26.41060500,23.263
     -80.16107000,26.41060500,23.163
     -80.16107667,26.41060667,23.363
     -80.16109500,26.41059667,22.863
     -80.16111167,26.41059500,21.763
     -80.16113333,26.41060333,20.763
     -80.16115833,26.41060667,20.263
     -80.16117167,26.41061833,19.163
     -80.16119000,26.41062833,17.963
     -80.16120000,26.41064167,17.462
     -80.16120667,26.41066167,16.162
     -80.16121167,26.41068333,14.962
     -80.16120833,26.41070333,14.562
     -80.16120000,26.41072333,14.463
     -80.16119167,26.41074000,14.563
     -80.16118167,26.41076500,14.263
     -80.16117500,26.41079000,13.963
     -80.16117167,26.41081500,13.763
     -80.16117167,26.41083833,13.863
     -80.16117167,26.41086167,13.563
     -80.16117000,26.41088667,13.463
     -80.16116833,26.41091167,13.163
     -80.16116667,26.41093667,13.063
     -80.16116833,26.41096000,13.063
     -80.16116833,26.41098833,12.663
     -80.16116667,26.41101833,12.963
     -80.16116833,26.41105333,13.163
     -80.16116833,26.41109000,13.463
     -80.16116833,26.41112000,13.463
     -80.16117000,26.41114167,13.663
     -80.16117333,26.41115500,14.063
     -80.16117167,26.41117000,14.363
     -80.16117167,26.41118333,14.363
     -80.16117333,26.41120000,14.063
     -80.16117333,26.41122167,13.963
     -80.16117500,26.41124500,14.063
     -80.16117500,26.41127167,14.563
     -80.16117667,26.41129667,14.863
     -80.16117500,26.41132000,14.863
     -80.16117167,26.41134500,14.463
     -80.16117000,26.41136833,14.063
     -80.16117000,26.41139500,13.763
     -80.16117500,26.41142000,13.563
     -80.16117667,26.41144667,13.463
     -80.16118000,26.41147667,13.963
     -80.16118000,26.41150500,13.663
     -80.16118000,26.41153333,13.163
     -80.16118000,26.41156167,12.663
     -80.16118167,26.41159000,12.263
     -80.16118667,26.41162000,12.263
     -80.16118500,26.41164333,12.063
     -80.16118000,26.41166833,11.563
     -80.16118500,26.41169667,11.763
     -80.16119167,26.41172667,11.363
     -80.16119333,26.41175333,11.063
     -80.16119667,26.41178167,11.363
     -80.16119833,26.41180833,11.663
     -80.16120000,26.41183500,10.763
     -80.16120000,26.41186000,9.763
     -80.16120833,26.41187667,10.063
     -80.16120833,26.41189333,10.263
     -80.16121000,26.41191333,10.963
     -80.16121167,26.41193833,10.963
     -80.16121667,26.41196500,11.163
     -80.16122167,26.41199500,10.863
     -80.16123000,26.41202333,10.963
     -80.16124000,26.41205500,11.063
     -80.16125333,26.41208833,10.963
     -80.16126667,26.41212167,10.363
     -80.16127500,26.41214833,10.163
     -80.16128167,26.41217333,10.463
     -80.16128833,26.41219833,10.363
     -80.16129333,26.41222167,10.463
     -80.16129667,26.41224000,10.163
     -80.16131000,26.41226333,9.963
     -80.16131667,26.41228667,10.263
     -80.16132833,26.41231167,10.763
     -80.16133833,26.41233833,11.463
     -80.16135000,26.41236167,11.963
     -80.16135500,26.41238333,12.263
     -80.16136000,26.41241000,13.463
     -80.16137333,26.41243500,14.463
     -80.16138167,26.41244833,14.463
     -80.16138667,26.41247333,14.863
     -80.16139000,26.41249167,15.263
     -80.16139833,26.41250667,15.863
     -80.16140500,26.41252000,16.363
     -80.16141167,26.41253167,16.663
     -80.16142167,26.41254333,16.763
     -80.16143667,26.41256333,17.163
     -80.16144500,26.41258333,17.363
     -80.16145833,26.41259667,17.163
     -80.16146333,26.41260667,17.263
     -80.16147167,26.41261500,17.062
     -80.16148000,26.41263000,17.062
     -80.16149167,26.41264833,17.162
     -80.16149500,26.41267167,17.062
     -80.16149833,26.41269167,17.162
     -80.16150000,26.41271667,17.262
     -80.16149833,26.41274667,17.462
     -80.16149667,26.41278333,17.862
     -80.16149667,26.41281167,17.662
     -80.16149333,26.41283167,17.363
     -80.16149500,26.41285667,17.263
     -80.16150333,26.41288167,17.162
     -80.16151000,26.41290667,16.562
     -80.16152000,26.41293333,16.462
     -80.16153500,26.41296000,16.262
     -80.16155167,26.41298500,16.062
     -80.16156333,26.41300167,15.462
     -80.16158167,26.41302333,14.962
     -80.16160000,26.41304500,14.462
     -80.16162167,26.41306833,14.162
     -80.16164000,26.41309000,13.662
     -80.16165667,26.41311333,13.262
     -80.16168000,26.41313833,13.062
     -80.16170167,26.41316167,11.762
     -80.16172333,26.41318833,11.662
     -80.16174500,26.41321500,10.762
     -80.16176500,26.41323667,9.462
     -80.16178500,26.41325833,8.262
     -80.16180333,26.41328000,7.961
     -80.16182667,26.41330000,7.961
     -80.16185167,26.41332167,8.261
     -80.16187667,26.41334500,8.461
     -80.16190333,26.41336833,8.761
     -80.16192833,26.41339167,9.061
     -80.16195333,26.41341167,9.061
     -80.16197667,26.41343500,9.061
     -80.16200167,26.41345500,9.561
     -80.16202833,26.41347667,9.561
     -80.16205333,26.41350000,9.861
     -80.16208000,26.41352167,10.160
     -80.16210500,26.41354333,10.660
     -80.16213167,26.41356333,10.960
     -80.16215667,26.41358333,11.160
     -80.16218333,26.41360333,11.460
     -80.16221000,26.41362833,11.860
     -80.16223833,26.41365333,12.160
     -80.16226833,26.41367500,12.360
     -80.16229500,26.41369667,12.160
     -80.16232167,26.41371667,12.160
     -80.16234833,26.41373333,11.459
     -80.16237333,26.41375333,10.459
     -80.16240000,26.41377333,9.759
     -80.16242667,26.41379167,9.659
     -80.16244833,26.41380833,9.459
     -80.16247667,26.41382833,9.559
     -80.16249833,26.41384333,8.859
     -80.16252167,26.41385667,8.259
     -80.16254833,26.41387333,7.459
     -80.16257167,26.41388833,6.759
     -80.16259833,26.41390667,6.259
     -80.16262500,26.41392833,5.858
     -80.16265000,26.41394833,5.558
     -80.16267833,26.41396667,5.258
     -80.16270500,26.41398333,5.058
     -80.16273333,26.41400167,4.858
     -80.16276500,26.41402000,4.558
     -80.16280167,26.41404667,5.858
     -80.16283333,26.41406833,6.258
     -80.16286333,26.41409000,6.158
     -80.16289167,26.41411167,5.657
     -80.16292500,26.41413167,5.357
     -80.16295833,26.41415167,5.657
     -80.16299333,26.41416833,5.657
     -80.16302667,26.41418333,6.057
     -80.16306000,26.41420333,6.857
     -80.16309500,26.41422000,7.257
     -80.16313167,26.41423833,7.957
     -80.16316500,26.41425667,8.356
     -80.16319667,26.41427000,8.756
     -80.16322500,26.41428500,9.156
     -80.16324500,26.41429500,9.756
     -80.16325167,26.41429667,10.156
     -80.16325833,26.41430000,10.456
     -80.16327167,26.41431000,11.056
     -80.16329167,26.41431833,11.556
     -80.16331833,26.41433000,12.056
     -80.16334500,26.41434333,12.556
     -80.16337333,26.41435500,13.056
     -80.16340000,26.41436667,13.156
     -80.16342000,26.41438500,12.955
     -80.16343833,26.41440333,13.255
     -80.16345333,26.41442333,13.255
     -80.16346833,26.41444500,13.555
     -80.16347167,26.41447500,13.655
     -80.16347000,26.41451000,13.755
     -80.16345833,26.41453500,14.255
     -80.16344167,26.41456333,13.555
     -80.16342000,26.41459000,13.256
     -80.16339667,26.41462500,13.156
     -80.16337667,26.41465000,13.156
     -80.16335500,26.41467667,13.456
     -80.16334000,26.41469833,12.856
     -80.16332500,26.41471833,12.256
     -80.16330667,26.41473833,12.056
     -80.16328667,26.41475833,11.556
     -80.16326500,26.41477833,11.456
     -80.16324167,26.41480167,11.456
     -80.16322000,26.41482333,11.757
     -80.16319667,26.41484500,11.757
     -80.16317500,26.41486667,11.457
     -80.16315500,26.41489000,11.357
     -80.16313167,26.41490667,10.257
     -80.16311833,26.41493000,10.257
     -80.16309667,26.41494667,10.657
     -80.16307167,26.41495500,11.257
     -80.16304000,26.41496333,11.057
     -80.16301333,26.41497500,11.257
     -80.16299000,26.41497833,11.458
     -80.16297500,26.41497167,12.058
     -80.16296000,26.41495000,11.658
     -80.16295000,26.41492333,11.058
     -80.16294833,26.41489167,11.058
     -80.16295667,26.41486667,10.658
     -80.16297333,26.41484667,10.258
     -80.16299500,26.41482667,10.457
     -80.16301333,26.41481000,10.257
     -80.16303833,26.41479833,10.857
     -80.16305500,26.41478333,11.757
     -80.16307167,26.41476333,11.957
     -80.16308667,26.41473833,12.457
     -80.16309500,26.41471833,12.657
     -80.16309500,26.41469167,12.557
     -80.16308667,26.41466333,12.157
     -80.16308167,26.41463667,11.857
     -80.16307167,26.41461500,11.257
     -80.16305667,26.41460333,10.857
     -80.16303667,26.41460667,10.657
     -80.16302333,26.41460167,10.657
     -80.16300167,26.41459667,10.757
     -80.16298000,26.41459167,11.357
     -80.16296000,26.41458333,11.157
     -80.16293333,26.41456333,10.458
     -80.16291167,26.41455000,9.758
     -80.16289167,26.41454167,9.258
     -80.16287333,26.41453333,8.358
     -80.16285500,26.41452333,7.758
     -80.16284167,26.41451833,6.758
     -80.16282500,26.41452333,6.658
     -80.16281167,26.41452500,6.558
     -80.16281000,26.41452500,6.458
     -80.16281333,26.41452667,6.458
     -80.16281500,26.41452500,6.558
     -80.16281500,26.41452833,6.758
     -80.16281500,26.41452833,7.258
     -80.16280667,26.41452833,8.458
     -80.16280833,26.41452667,9.158
     -80.16281000,26.41451833,9.458
     -80.16280833,26.41451000,9.958
     -80.16280667,26.41450333,10.358
     -80.16280667,26.41450500,10.858
     -80.16280667,26.41450500,10.858
     -80.16280667,26.41450500,10.858
     -80.16280667,26.41450500,10.858
     -80.16280667,26.41450500,10.858
     -80.16280667,26.41450500,10.858
     -80.16277833,26.41454667,11.458
     -80.16277333,26.41455333,11.458
     -80.16276667,26.41455833,11.658
     -80.16275833,26.41456333,11.558
     -80.16275167,26.41456667,11.458
     -80.16274500,26.41457000,11.958
     -80.16273500,26.41457333,12.458
     -80.16272833,26.41458000,12.958
     -80.16272500,26.41458500,13.458
     -80.16272333,26.41459333,14.158
     -80.16272000,26.41459833,14.158
     -80.16271667,26.41459667,14.458
     -80.16271333,26.41459500,14.558
     -80.16271167,26.41459333,14.558
     -80.16270833,26.41459167,14.758
     -80.16270833,26.41459167,14.958
     -80.16270667,26.41459500,15.258
     -80.16270667,26.41459667,15.558
     -80.16270667,26.41459500,15.958
     -80.16270833,26.41459333,16.158
    </coordinates>
   </LineString>
  </Placemark>

 </Document>
</kml>
 