<?xml version="1.0" encoding="UTF-8"?>
<!-- Created with BasicAirData GPS Logger for Android - ver. 3.3.0 -->
<!-- Track 10 = 800 TrackPoints + 7 Placemarks -->
<kml xmlns="http://www.opengis.net/kml/2.2">
 <Document>
  <name>GPS Logger 20260724-080355</name>
  <description><![CDATA[Maintenance to Station1
800 Trackpoints + 7 Placemarks]]></description>
  <Style id="TrackStyle">
   <LineStyle>
    <color>ff0000ff</color>
    <width>3</width>
   </LineStyle>
   <PolyStyle>
    <color>7f0000ff</color>
   </PolyStyle>
   <BalloonStyle>
    <text><![CDATA[<p style="color:red;font-weight:bold">$[name]</p><p style="font-size:11px">$[description]</p><p style="font-size:7px">Track Stats based on: Total time | Time in Movement</p>]]></text>
   </BalloonStyle>
  </Style>
  <Style id="PlacemarkStyle">
   <IconStyle>
    <Icon><href>http://maps.google.com/mapfiles/kml/shapes/placemark_circle_highlight.png</href></Icon>
   </IconStyle>
  </Style>

  <Placemark id="1">
   <name>Maintenance</name>
   <styleUrl>#PlacemarkStyle</styleUrl>
   <Point>
    <altitudeMode>clampToGround</altitudeMode>
    <coordinates>-80.16462167,26.41606000,2.851</coordinates>
    <extrude>1</extrude>
   </Point>
  </Placemark>

  <Placemark id="2">
   <name>Int1</name>
   <styleUrl>#PlacemarkStyle</styleUrl>
   <Point>
    <altitudeMode>clampToGround</altitudeMode>
    <coordinates>-80.16356667,26.41484833,3.555</coordinates>
    <extrude>1</extrude>
   </Point>
  </Placemark>

  <Placemark id="3">
   <name>Int2</name>
   <styleUrl>#PlacemarkStyle</styleUrl>
   <Point>
    <altitudeMode>clampToGround</altitudeMode>
    <coordinates>-80.16359000,26.41451833,10.155</coordinates>
    <extrude>1</extrude>
   </Point>
  </Placemark>

  <Placemark id="4">
   <name>Int4</name>
   <styleUrl>#PlacemarkStyle</styleUrl>
   <Point>
    <altitudeMode>clampToGround</altitudeMode>
    <coordinates>-80.16157167,26.41279333,2.962</coordinates>
    <extrude>1</extrude>
   </Point>
  </Placemark>

  <Placemark id="5">
   <name>Int4</name>
   <styleUrl>#PlacemarkStyle</styleUrl>
   <Point>
    <altitudeMode>clampToGround</altitudeMode>
    <coordinates>-80.16037167,26.41326167,10.067</coordinates>
    <extrude>1</extrude>
   </Point>
  </Placemark>

  <Placemark id="6">
   <name>Int5</name>
   <styleUrl>#PlacemarkStyle</styleUrl>
   <Point>
    <altitudeMode>clampToGround</altitudeMode>
    <coordinates>-80.15518167,26.41309500,9.889</coordinates>
    <extrude>1</extrude>
   </Point>
  </Placemark>

  <Placemark id="7">
   <name>Station1</name>
   <styleUrl>#PlacemarkStyle</styleUrl>
   <Point>
    <altitudeMode>clampToGround</altitudeMode>
    <coordinates>-80.15468333,26.41328333,8.791</coordinates>
    <extrude>1</extrude>
   </Point>
  </Placemark>

  <Placemark id="20260724-080355">
   <name>Track 20260724-080355</name>
   <description><![CDATA[<b>Maintenance to Station1</b><br><br>Distance = 1.52 km<br>Duration = 13:19 | 07:34<br>Altitude Gap = 5 m<br>Max Speed = 12 mph<br>Avg Speed = 4.3 | 7.5 mph<br>Direction = ESE <br><br><i>800 Trackpoints</i>]]></description>
   <styleUrl>#TrackStyle</styleUrl>
   <LineString>
    <extrude>0</extrude>
    <tessellate>0</tessellate>
    <altitudeMode>clampToGround</altitudeMode>
    <coordinates>
     -80.16462833,26.41607833,3.951
     -80.16462667,26.41607333,2.651
     -80.16462667,26.41606833,2.151
     -80.16462167,26.41606000,2.851
     -80.16462167,26.41605333,3.151
     -80.16462333,26.41604667,3.351
     -80.16462167,26.41604000,3.351
     -80.16461833,26.41603167,3.851
     -80.16461667,26.41602667,3.851
     -80.16461500,26.41602500,3.951
     -80.16461333,26.41602500,4.251
     -80.16461167,26.41602667,4.851
     -80.16461000,26.41602500,5.551
     -80.16460833,26.41603167,5.751
     -80.16460667,26.41602833,6.751
     -80.16460833,26.41602500,7.251
     -80.16461000,26.41602167,7.651
     -80.16460833,26.41601667,8.151
     -80.16461000,26.41601500,8.451
     -80.16461167,26.41601333,8.651
     -80.16461500,26.41601167,8.951
     -80.16461333,26.41600667,9.251
     -80.16461333,26.41600667,9.251
     -80.16461333,26.41600667,9.251
     -80.16461333,26.41600667,9.251
     -80.16461333,26.41600667,9.251
     -80.16461333,26.41600667,9.251
     -80.16461333,26.41600667,9.251
     -80.16461333,26.41600667,9.251
     -80.16461333,26.41600667,9.251
     -80.16461333,26.41600667,9.251
     -80.16461333,26.41600667,9.251
     -80.16461333,26.41600667,9.251
     -80.16461333,26.41600667,9.251
     -80.16461333,26.41600667,9.251
     -80.16461333,26.41600667,9.251
     -80.16461333,26.41600667,9.251
     -80.16461333,26.41600667,9.251
     -80.16461333,26.41600667,9.251
     -80.16458167,26.41599167,13.352
     -80.16457667,26.41600000,12.952
     -80.16457667,26.41600667,12.752
     -80.16457667,26.41601000,12.752
     -80.16457667,26.41601000,12.752
     -80.16457667,26.41601000,12.752
     -80.16457667,26.41601000,12.752
     -80.16457667,26.41601000,12.752
     -80.16457667,26.41601000,12.752
     -80.16457667,26.41601000,12.752
     -80.16457667,26.41601000,12.752
     -80.16457667,26.41601000,12.752
     -80.16457667,26.41601000,12.752
     -80.16457667,26.41601000,12.752
     -80.16457667,26.41601000,12.752
     -80.16457667,26.41601000,12.752
     -80.16457667,26.41601000,12.752
     -80.16457667,26.41601000,12.752
     -80.16457667,26.41601000,12.752
     -80.16457667,26.41601000,12.752
     -80.16457667,26.41601000,12.752
     -80.16457667,26.41601000,12.752
     -80.16457667,26.41601000,12.752
     -80.16457500,26.41605833,14.752
     -80.16457333,26.41606667,13.652
     -80.16457500,26.41606333,13.852
     -80.16457667,26.41606333,14.052
     -80.16457833,26.41606167,14.352
     -80.16457833,26.41606167,14.352
     -80.16457833,26.41606167,14.352
     -80.16457833,26.41606167,14.352
     -80.16457833,26.41606167,14.352
     -80.16457833,26.41606167,14.352
     -80.16457833,26.41606167,14.352
     -80.16457833,26.41606167,14.352
     -80.16457833,26.41606167,14.352
     -80.16457833,26.41606167,14.352
     -80.16457833,26.41606167,14.352
     -80.16457833,26.41606167,14.352
     -80.16457833,26.41606167,14.352
     -80.16457833,26.41606167,14.352
     -80.16457833,26.41606167,14.352
     -80.16457833,26.41606167,14.352
     -80.16457833,26.41606167,14.352
     -80.16457833,26.41606167,14.352
     -80.16457833,26.41606167,14.352
     -80.16457833,26.41606167,14.352
     -80.16457833,26.41606167,14.352
     -80.16457833,26.41606167,14.352
     -80.16457833,26.41606167,14.352
     -80.16457833,26.41606167,14.352
     -80.16457833,26.41606167,14.352
     -80.16457833,26.41606167,14.352
     -80.16457833,26.41606167,14.352
     -80.16457833,26.41606167,14.352
     -80.16457833,26.41606167,14.352
     -80.16457833,26.41606167,14.352
     -80.16457833,26.41606167,14.352
     -80.16457833,26.41606167,14.352
     -80.16457833,26.41606167,14.352
     -80.16457833,26.41606167,14.352
     -80.16457833,26.41606167,14.352
     -80.16457833,26.41606167,14.352
     -80.16457833,26.41606167,14.352
     -80.16457833,26.41606167,14.352
     -80.16457833,26.41606167,14.352
     -80.16457833,26.41606167,14.352
     -80.16457833,26.41606167,14.352
     -80.16464833,26.41604833,17.451
     -80.16465333,26.41603833,17.151
     -80.16465833,26.41602833,16.951
     -80.16466333,26.41602167,16.551
     -80.16466667,26.41601333,16.051
     -80.16467000,26.41601000,15.651
     -80.16467000,26.41600167,15.151
     -80.16467167,26.41599500,14.651
     -80.16467333,26.41598667,14.151
     -80.16467667,26.41598500,14.051
     -80.16467667,26.41597833,13.951
     -80.16467500,26.41597333,13.751
     -80.16467667,26.41597000,13.451
     -80.16467667,26.41596667,13.151
     -80.16467833,26.41596667,12.751
     -80.16467667,26.41596667,12.451
     -80.16467667,26.41596667,12.451
     -80.16467667,26.41596667,12.451
     -80.16467667,26.41596667,12.451
     -80.16467833,26.41596167,11.951
     -80.16468167,26.41596000,11.751
     -80.16468500,26.41596000,11.651
     -80.16469333,26.41595833,11.551
     -80.16470333,26.41595667,11.551
     -80.16471000,26.41595500,11.351
     -80.16471500,26.41595333,11.251
     -80.16471833,26.41595167,11.351
     -80.16471667,26.41595500,11.551
     -80.16471167,26.41595833,11.851
     -80.16470667,26.41596000,11.851
     -80.16470167,26.41595667,11.951
     -80.16469333,26.41595500,11.751
     -80.16468500,26.41595167,11.551
     -80.16468167,26.41594167,11.651
     -80.16468000,26.41593833,11.851
     -80.16467500,26.41594000,12.251
     -80.16467333,26.41593833,12.451
     -80.16467333,26.41593833,12.451
     -80.16467333,26.41593833,12.451
     -80.16467333,26.41593833,12.451
     -80.16467333,26.41593833,12.451
     -80.16467333,26.41593833,12.451
     -80.16467333,26.41593833,12.451
     -80.16467333,26.41593833,12.451
     -80.16467333,26.41593833,12.451
     -80.16467333,26.41593833,12.451
     -80.16467333,26.41593833,12.451
     -80.16467333,26.41593833,12.451
     -80.16467333,26.41593833,12.451
     -80.16467333,26.41593833,12.451
     -80.16467333,26.41593833,12.451
     -80.16467333,26.41593833,12.451
     -80.16467333,26.41593833,12.451
     -80.16467333,26.41593833,12.451
     -80.16467333,26.41593833,12.451
     -80.16467333,26.41593833,12.451
     -80.16467333,26.41593833,12.451
     -80.16467333,26.41593833,12.451
     -80.16467333,26.41593833,12.451
     -80.16467333,26.41593833,12.451
     -80.16467333,26.41593833,12.451
     -80.16467333,26.41593833,12.451
     -80.16467333,26.41593833,12.451
     -80.16467333,26.41593833,12.451
     -80.16467333,26.41593833,12.451
     -80.16467333,26.41593833,12.451
     -80.16467333,26.41593833,12.451
     -80.16467333,26.41593833,12.451
     -80.16467333,26.41593833,12.451
     -80.16467333,26.41593833,12.451
     -80.16467333,26.41593833,12.451
     -80.16467333,26.41593833,12.451
     -80.16467333,26.41593833,12.451
     -80.16467333,26.41593833,12.451
     -80.16467333,26.41593833,12.451
     -80.16467333,26.41593833,12.451
     -80.16467333,26.41593833,12.451
     -80.16467333,26.41593833,12.451
     -80.16467333,26.41593833,12.451
     -80.16467333,26.41593833,12.451
     -80.16467333,26.41593833,12.451
     -80.16467333,26.41593833,12.451
     -80.16467333,26.41593833,12.451
     -80.16467333,26.41593833,12.451
     -80.16467333,26.41593833,12.451
     -80.16467333,26.41593833,12.451
     -80.16467333,26.41593833,12.451
     -80.16467333,26.41593833,12.451
     -80.16467333,26.41593833,12.451
     -80.16467333,26.41593833,12.451
     -80.16467333,26.41593833,12.451
     -80.16467333,26.41593833,12.451
     -80.16467333,26.41593833,12.451
     -80.16467333,26.41593833,12.451
     -80.16467333,26.41593833,12.451
     -80.16467333,26.41593833,12.451
     -80.16467333,26.41593833,12.451
     -80.16467333,26.41593833,12.451
     -80.16467333,26.41593833,12.451
     -80.16467333,26.41593833,12.451
     -80.16467333,26.41593833,12.451
     -80.16467333,26.41593833,12.451
     -80.16467333,26.41593833,12.451
     -80.16467333,26.41593833,12.451
     -80.16467333,26.41593833,12.451
     -80.16467333,26.41593833,12.451
     -80.16467333,26.41593833,12.451
     -80.16467333,26.41593833,12.451
     -80.16467333,26.41593833,12.451
     -80.16467333,26.41593833,12.451
     -80.16467333,26.41593833,12.451
     -80.16467333,26.41593833,12.451
     -80.16467333,26.41593833,12.451
     -80.16467333,26.41593833,12.451
     -80.16467333,26.41593833,12.451
     -80.16467333,26.41593833,12.451
     -80.16467333,26.41593833,12.451
     -80.16467333,26.41593833,12.451
     -80.16467333,26.41593833,12.451
     -80.16467333,26.41593833,12.451
     -80.16467333,26.41593833,12.451
     -80.16467333,26.41593833,12.451
     -80.16467333,26.41593833,12.451
     -80.16467333,26.41593833,12.451
     -80.16467333,26.41593833,12.451
     -80.16467333,26.41593833,12.451
     -80.16467333,26.41593833,12.451
     -80.16467333,26.41593833,12.451
     -80.16467333,26.41593833,12.451
     -80.16467333,26.41593833,12.451
     -80.16467333,26.41593833,12.451
     -80.16467333,26.41593833,12.451
     -80.16467333,26.41593833,12.451
     -80.16467333,26.41593833,12.451
     -80.16467333,26.41593833,12.451
     -80.16467333,26.41593833,12.451
     -80.16467333,26.41593833,12.451
     -80.16467333,26.41593833,12.451
     -80.16467333,26.41593833,12.451
     -80.16467333,26.41593833,12.451
     -80.16467333,26.41593833,12.451
     -80.16467333,26.41593833,12.451
     -80.16467333,26.41593833,12.451
     -80.16467333,26.41593833,12.451
     -80.16467333,26.41593833,12.451
     -80.16467333,26.41593833,12.451
     -80.16467333,26.41593833,12.451
     -80.16470167,26.41591000,8.951
     -80.16470333,26.41589500,9.251
     -80.16470667,26.41587667,9.851
     -80.16471000,26.41585833,10.851
     -80.16471500,26.41584000,11.351
     -80.16472000,26.41582167,11.951
     -80.16472333,26.41580167,13.051
     -80.16472667,26.41578333,13.551
     -80.16472833,26.41575833,14.251
     -80.16472333,26.41572833,14.051
     -80.16471667,26.41570500,12.451
     -80.16470833,26.41568000,11.451
     -80.16471000,26.41565000,10.751
     -80.16470833,26.41562333,9.651
     -80.16470500,26.41560000,8.551
     -80.16470167,26.41557000,7.751
     -80.16469333,26.41554167,6.751
     -80.16468333,26.41551333,5.951
     -80.16467333,26.41549000,5.351
     -80.16465833,26.41546333,4.751
     -80.16463833,26.41543500,4.751
     -80.16461833,26.41541167,4.551
     -80.16459833,26.41538667,4.251
     -80.16457500,26.41536500,4.251
     -80.16454833,26.41534500,4.151
     -80.16452000,26.41532000,3.951
     -80.16449167,26.41529500,3.352
     -80.16446167,26.41527333,3.052
     -80.16443167,26.41525167,3.052
     -80.16440167,26.41523333,3.352
     -80.16436833,26.41521500,3.452
     -80.16433000,26.41520000,3.752
     -80.16429333,26.41518667,3.852
     -80.16425833,26.41517833,4.052
     -80.16422167,26.41517333,4.553
     -80.16418500,26.41516500,5.053
     -80.16414500,26.41515833,5.653
     -80.16410667,26.41515667,5.953
     -80.16407000,26.41515500,6.153
     -80.16403333,26.41515500,6.153
     -80.16400500,26.41516333,5.553
     -80.16397667,26.41517000,5.154
     -80.16394167,26.41518167,4.954
     -80.16391667,26.41519333,4.554
     -80.16389333,26.41520667,4.154
     -80.16387500,26.41521833,3.454
     -80.16386667,26.41522000,3.054
     -80.16385000,26.41521500,2.754
     -80.16383833,26.41521167,2.154
     -80.16382500,26.41521000,1.754
     -80.16380667,26.41520000,1.954
     -80.16379500,26.41519000,1.654
     -80.16378500,26.41517333,1.754
     -80.16377167,26.41515000,1.454
     -80.16375167,26.41512333,1.454
     -80.16373000,26.41509333,1.655
     -80.16370667,26.41506333,2.155
     -80.16368833,26.41503667,2.255
     -80.16367667,26.41501333,1.955
     -80.16366500,26.41499000,1.655
     -80.16365333,26.41496833,1.255
     -80.16363500,26.41495000,0.855
     -80.16362667,26.41493167,0.255
     -80.16361167,26.41491500,0.855
     -80.16359333,26.41489667,1.755
     -80.16358500,26.41488167,2.355
     -80.16358000,26.41486833,2.655
     -80.16357833,26.41486167,2.855
     -80.16357333,26.41485500,3.155
     -80.16357000,26.41485333,3.055
     -80.16356833,26.41485333,3.255
     -80.16356833,26.41485000,3.355
     -80.16356667,26.41484833,3.555
     -80.16356500,26.41484833,3.855
     -80.16356500,26.41484667,4.055
     -80.16356500,26.41484500,4.255
     -80.16356333,26.41484500,4.455
     -80.16356333,26.41484500,4.455
     -80.16356333,26.41484500,4.455
     -80.16356333,26.41484500,4.455
     -80.16356333,26.41484500,4.455
     -80.16356333,26.41484500,4.455
     -80.16356333,26.41484500,4.455
     -80.16356333,26.41484500,4.455
     -80.16353833,26.41482000,6.155
     -80.16353000,26.41479833,6.255
     -80.16352000,26.41477000,6.255
     -80.16351500,26.41474333,7.155
     -80.16351667,26.41471500,7.455
     -80.16352167,26.41469500,8.555
     -80.16353000,26.41467000,9.055
     -80.16353833,26.41464167,9.055
     -80.16355000,26.41460500,9.155
     -80.16356000,26.41458000,9.355
     -80.16357167,26.41455667,9.555
     -80.16358000,26.41453333,9.855
     -80.16359000,26.41451833,10.155
     -80.16359333,26.41451500,9.955
     -80.16359833,26.41451333,10.055
     -80.16360000,26.41451833,9.855
     -80.16360000,26.41452333,9.255
     -80.16360000,26.41452667,9.155
     -80.16359333,26.41453167,7.955
     -80.16359333,26.41453000,8.155
     -80.16359500,26.41452000,8.055
     -80.16360167,26.41449333,8.055
     -80.16360333,26.41445833,8.155
     -80.16359833,26.41442667,8.055
     -80.16358667,26.41439500,7.855
     -80.16357000,26.41436333,7.755
     -80.16354667,26.41433500,7.655
     -80.16351833,26.41430833,7.255
     -80.16348000,26.41429333,6.855
     -80.16344167,26.41427500,7.455
     -80.16340333,26.41425667,7.655
     -80.16336833,26.41423500,8.056
     -80.16333667,26.41420667,7.456
     -80.16330333,26.41418500,6.856
     -80.16325833,26.41416500,7.456
     -80.16322833,26.41415000,6.456
     -80.16319333,26.41413333,5.256
     -80.16315833,26.41411667,3.856
     -80.16312333,26.41409667,2.556
     -80.16307833,26.41407167,2.257
     -80.16303333,26.41404667,2.057
     -80.16299667,26.41402667,1.157
     -80.16294500,26.41399667,0.457
     -80.16290333,26.41397167,0.657
     -80.16286000,26.41394833,1.057
     -80.16281833,26.41392167,0.958
     -80.16277333,26.41389333,1.958
     -80.16273500,26.41386667,2.158
     -80.16269833,26.41384333,1.158
     -80.16265333,26.41381333,2.058
     -80.16261667,26.41378833,1.058
     -80.16256833,26.41375333,2.759
     -80.16252667,26.41372333,2.459
     -80.16249167,26.41370000,1.759
     -80.16244667,26.41366667,2.059
     -80.16240500,26.41363500,1.659
     -80.16236333,26.41360333,0.959
     -80.16232333,26.41357333,1.060
     -80.16228333,26.41354500,1.160
     -80.16225000,26.41351833,1.360
     -80.16221833,26.41348833,1.660
     -80.16218667,26.41346000,2.160
     -80.16216167,26.41343500,2.560
     -80.16214333,26.41341500,2.360
     -80.16213000,26.41340500,2.360
     -80.16211167,26.41338833,2.760
     -80.16209167,26.41336833,2.860
     -80.16206500,26.41334333,3.360
     -80.16204167,26.41331833,2.861
     -80.16201333,26.41329333,2.361
     -80.16198667,26.41326833,2.261
     -80.16195667,26.41323833,2.261
     -80.16193000,26.41320833,1.861
     -80.16189667,26.41317333,2.261
     -80.16186333,26.41314167,2.561
     -80.16183000,26.41311000,2.861
     -80.16179500,26.41307667,3.461
     -80.16176333,26.41304167,3.762
     -80.16173333,26.41300667,4.062
     -80.16170333,26.41297333,4.362
     -80.16167333,26.41294000,4.662
     -80.16164833,26.41290500,4.362
     -80.16162500,26.41287500,4.362
     -80.16160333,26.41284500,4.762
     -80.16158667,26.41282167,3.962
     -80.16157833,26.41280500,2.962
     -80.16157167,26.41279333,2.962
     -80.16157167,26.41278667,2.962
     -80.16157000,26.41278167,3.362
     -80.16157000,26.41278167,3.662
     -80.16157167,26.41278167,3.962
     -80.16157167,26.41278167,4.362
     -80.16157500,26.41278167,4.562
     -80.16157500,26.41278167,4.662
     -80.16157167,26.41278000,4.762
     -80.16156667,26.41277167,4.762
     -80.16154000,26.41275167,4.862
     -80.16150833,26.41273667,4.962
     -80.16147167,26.41272500,5.163
     -80.16143167,26.41272167,5.563
     -80.16139000,26.41272333,5.763
     -80.16134833,26.41272667,5.963
     -80.16130500,26.41274167,6.663
     -80.16126833,26.41276000,6.863
     -80.16123167,26.41277833,7.364
     -80.16119667,26.41280000,7.964
     -80.16116167,26.41282000,8.264
     -80.16112667,26.41284000,8.464
     -80.16109333,26.41285833,8.764
     -80.16106000,26.41287833,8.764
     -80.16103000,26.41289833,8.964
     -80.16099667,26.41291833,9.365
     -80.16096167,26.41293833,9.565
     -80.16092667,26.41296000,9.365
     -80.16088833,26.41298167,9.265
     -80.16085000,26.41300500,9.165
     -80.16081333,26.41302833,8.865
     -80.16077333,26.41304833,8.966
     -80.16073667,26.41307000,8.866
     -80.16069833,26.41309500,8.766
     -80.16066333,26.41311833,8.166
     -80.16062333,26.41313833,7.966
     -80.16058167,26.41315833,7.666
     -80.16054167,26.41317667,7.267
     -80.16050500,26.41319833,7.067
     -80.16047167,26.41321833,7.067
     -80.16043833,26.41323500,7.267
     -80.16041000,26.41324833,7.467
     -80.16038833,26.41325833,7.767
     -80.16037167,26.41326167,10.067
     -80.16036500,26.41326167,10.367
     -80.16036167,26.41326000,10.767
     -80.16036167,26.41325833,10.867
     -80.16035833,26.41326167,10.967
     -80.16035333,26.41326500,10.767
     -80.16034667,26.41326667,10.567
     -80.16033667,26.41327000,10.368
     -80.16032000,26.41327167,10.368
     -80.16029833,26.41326333,10.068
     -80.16027167,26.41324333,9.868
     -80.16024500,26.41321667,9.768
     -80.16022000,26.41318833,9.768
     -80.16019500,26.41315667,9.468
     -80.16017167,26.41312333,9.168
     -80.16014833,26.41308667,8.368
     -80.16012500,26.41305167,7.568
     -80.16011167,26.41302500,5.868
     -80.16008667,26.41299000,5.468
     -80.16006000,26.41295500,4.768
     -80.16003333,26.41292333,4.569
     -80.16001500,26.41289000,4.069
     -80.15999833,26.41285667,3.569
     -80.15998000,26.41281500,3.969
     -80.15996167,26.41277667,3.969
     -80.15994833,26.41274333,3.569
     -80.15993333,26.41270833,3.469
     -80.15992333,26.41267167,2.769
     -80.15991333,26.41264000,3.069
     -80.15991167,26.41260667,3.369
     -80.15990000,26.41256500,3.869
     -80.15989000,26.41252167,3.669
     -80.15987833,26.41248167,3.569
     -80.15987667,26.41244167,3.369
     -80.15987000,26.41240000,3.269
     -80.15985167,26.41236000,3.669
     -80.15984333,26.41232167,3.169
     -80.15982333,26.41228167,3.269
     -80.15980833,26.41224333,3.169
     -80.15979833,26.41220667,3.169
     -80.15978500,26.41216833,2.869
     -80.15976167,26.41211500,3.569
     -80.15975000,26.41206167,4.769
     -80.15975000,26.41202667,4.269
     -80.15974667,26.41198167,4.869
     -80.15974167,26.41193333,5.469
     -80.15973833,26.41189167,5.669
     -80.15973333,26.41185333,6.069
     -80.15971167,26.41181500,6.569
     -80.15969500,26.41177333,6.769
     -80.15967167,26.41173167,6.469
     -80.15965000,26.41169833,6.169
     -80.15962167,26.41165833,6.270
     -80.15958833,26.41162000,6.470
     -80.15955833,26.41159000,6.370
     -80.15952833,26.41156000,6.370
     -80.15949167,26.41153167,6.670
     -80.15946333,26.41150667,6.570
     -80.15943833,26.41147333,6.570
     -80.15941167,26.41144667,6.170
     -80.15938000,26.41142167,5.670
     -80.15934500,26.41140167,5.371
     -80.15930500,26.41138333,5.871
     -80.15926833,26.41136833,6.171
     -80.15925000,26.41136000,5.871
     -80.15924333,26.41136167,4.971
     -80.15923167,26.41135833,5.271
     -80.15923000,26.41136000,5.471
     -80.15923000,26.41135833,5.771
     -80.15923167,26.41135833,6.071
     -80.15923000,26.41135500,6.071
     -80.15923000,26.41135500,5.971
     -80.15923000,26.41135167,5.971
     -80.15923000,26.41135000,6.071
     -80.15923167,26.41135000,5.971
     -80.15923333,26.41134833,5.871
     -80.15923333,26.41134500,5.671
     -80.15923333,26.41134500,5.671
     -80.15923333,26.41134500,5.671
     -80.15923333,26.41134500,5.671
     -80.15923333,26.41134500,5.671
     -80.15923333,26.41134500,5.671
     -80.15923333,26.41134500,5.671
     -80.15923333,26.41134500,5.671
     -80.15923333,26.41134500,5.671
     -80.15923333,26.41134500,5.671
     -80.15923333,26.41134500,5.671
     -80.15923333,26.41134500,5.671
     -80.15923333,26.41134500,5.671
     -80.15923333,26.41134500,5.671
     -80.15923333,26.41134500,5.671
     -80.15923333,26.41134500,5.671
     -80.15923333,26.41134500,5.671
     -80.15923333,26.41134500,5.671
     -80.15923333,26.41134500,5.671
     -80.15923333,26.41134500,5.671
     -80.15923333,26.41134500,5.671
     -80.15923333,26.41134500,5.671
     -80.15923333,26.41134500,5.671
     -80.15923333,26.41134500,5.671
     -80.15923333,26.41134500,5.671
     -80.15923333,26.41134500,5.671
     -80.15923333,26.41134500,5.671
     -80.15923333,26.41134500,5.671
     -80.15923333,26.41134500,5.671
     -80.15923333,26.41134500,5.671
     -80.15923333,26.41134500,5.671
     -80.15923333,26.41134500,5.671
     -80.15923333,26.41134500,5.671
     -80.15923333,26.41134500,5.671
     -80.15923333,26.41134500,5.671
     -80.15923333,26.41134500,5.671
     -80.15923333,26.41134500,5.671
     -80.15923333,26.41134500,5.671
     -80.15923333,26.41134500,5.671
     -80.15923333,26.41134500,5.671
     -80.15923333,26.41134500,5.671
     -80.15923333,26.41134500,5.671
     -80.15923333,26.41134500,5.671
     -80.15923333,26.41134500,5.671
     -80.15923333,26.41134500,5.671
     -80.15923333,26.41134500,5.671
     -80.15923333,26.41134500,5.671
     -80.15923333,26.41134500,5.671
     -80.15923333,26.41134500,5.671
     -80.15923333,26.41134500,5.671
     -80.15923333,26.41134500,5.671
     -80.15923333,26.41134500,5.671
     -80.15923333,26.41134500,5.671
     -80.15923333,26.41134500,5.671
     -80.15923333,26.41134500,5.671
     -80.15921667,26.41131333,8.171
     -80.15920500,26.41131333,7.871
     -80.15919333,26.41131167,7.771
     -80.15918167,26.41131167,7.871
     -80.15917333,26.41131000,7.771
     -80.15916167,26.41131167,7.571
     -80.15915167,26.41131167,7.471
     -80.15914167,26.41130833,7.671
     -80.15913000,26.41131000,7.971
     -80.15911833,26.41130833,8.171
     -80.15910167,26.41130667,8.272
     -80.15907500,26.41130500,8.572
     -80.15904333,26.41130500,8.272
     -80.15901333,26.41130500,8.072
     -80.15897833,26.41130500,8.872
     -80.15894333,26.41130667,9.272
     -80.15891000,26.41130500,9.372
     -80.15887500,26.41131000,9.172
     -80.15884000,26.41131333,8.873
     -80.15880833,26.41132333,8.073
     -80.15877333,26.41133167,8.073
     -80.15874167,26.41134333,8.373
     -80.15870833,26.41135333,8.373
     -80.15867667,26.41136667,8.073
     -80.15864667,26.41138333,7.773
     -80.15861500,26.41140167,7.474
     -80.15858333,26.41142167,7.274
     -80.15855000,26.41144167,7.274
     -80.15851500,26.41146000,7.274
     -80.15847833,26.41148000,6.974
     -80.15844333,26.41150000,6.774
     -80.15840833,26.41152167,6.574
     -80.15837667,26.41154333,6.175
     -80.15834333,26.41156333,5.875
     -80.15830833,26.41158167,5.975
     -80.15827333,26.41160500,5.875
     -80.15824000,26.41162667,5.775
     -80.15820500,26.41165333,5.875
     -80.15817000,26.41167167,5.376
     -80.15813667,26.41169500,5.176
     -80.15810167,26.41171667,4.976
     -80.15806500,26.41174333,5.176
     -80.15803167,26.41176500,4.976
     -80.15799333,26.41179500,5.176
     -80.15796167,26.41182000,4.877
     -80.15792833,26.41184833,5.277
     -80.15789500,26.41187500,5.777
     -80.15786000,26.41189500,5.477
     -80.15782333,26.41192167,5.977
     -80.15778667,26.41195167,7.477
     -80.15775000,26.41197333,8.177
     -80.15771333,26.41199667,9.078
     -80.15767500,26.41201833,9.078
     -80.15763667,26.41203833,9.978
     -80.15759667,26.41205667,10.278
     -80.15755500,26.41207667,10.478
     -80.15751167,26.41209333,10.679
     -80.15747333,26.41210500,11.179
     -80.15743000,26.41211833,10.679
     -80.15739000,26.41213000,9.979
     -80.15734333,26.41213500,9.379
     -80.15729500,26.41214167,8.979
     -80.15724500,26.41214500,8.280
     -80.15719500,26.41214667,7.880
     -80.15714167,26.41215167,7.880
     -80.15709000,26.41215667,8.180
     -80.15703667,26.41216167,8.281
     -80.15698333,26.41215333,8.081
     -80.15693000,26.41215167,7.981
     -80.15687667,26.41214167,7.581
     -80.15682000,26.41213333,7.481
     -80.15676167,26.41212667,7.782
     -80.15670167,26.41212333,8.082
     -80.15664000,26.41212000,7.982
     -80.15658167,26.41212000,7.582
     -80.15652833,26.41212000,6.783
     -80.15648000,26.41212167,6.183
     -80.15643667,26.41212167,6.183
     -80.15639667,26.41212167,6.183
     -80.15636333,26.41212167,7.083
     -80.15632833,26.41212167,7.283
     -80.15629833,26.41212333,6.884
     -80.15627333,26.41212500,6.784
     -80.15625500,26.41213000,7.184
     -80.15623500,26.41213000,7.184
     -80.15622167,26.41213167,6.984
     -80.15621167,26.41213167,6.984
     -80.15619833,26.41213167,7.284
     -80.15618167,26.41213667,7.684
     -80.15615833,26.41214333,8.484
     -80.15613500,26.41215167,8.784
     -80.15611000,26.41216000,9.084
     -80.15607667,26.41216833,9.284
     -80.15603667,26.41217500,9.085
     -80.15599833,26.41217833,9.085
     -80.15595833,26.41218333,8.785
     -80.15591000,26.41218833,8.885
     -80.15586833,26.41219667,9.185
     -80.15582833,26.41221000,9.186
     -80.15578500,26.41222500,10.186
     -80.15574833,26.41224500,10.386
     -80.15571167,26.41226833,10.286
     -80.15567167,26.41229333,10.786
     -80.15563167,26.41231500,10.986
     -80.15559000,26.41233667,11.087
     -80.15555167,26.41236333,10.987
     -80.15551667,26.41239000,10.587
     -80.15547833,26.41241833,10.787
     -80.15545000,26.41245500,10.587
     -80.15542000,26.41248333,9.687
     -80.15539167,26.41252333,9.687
     -80.15536333,26.41256000,9.488
     -80.15533833,26.41259667,9.288
     -80.15531500,26.41263667,9.888
     -80.15529500,26.41267667,9.588
     -80.15527500,26.41271667,8.888
     -80.15525667,26.41276000,8.988
     -80.15524333,26.41280500,9.188
     -80.15523333,26.41284833,9.088
     -80.15522667,26.41289000,8.888
     -80.15521833,26.41293167,8.788
     -80.15521167,26.41297500,8.688
     -80.15520833,26.41300833,8.789
     -80.15520500,26.41303000,8.689
     -80.15520167,26.41305167,8.689
     -80.15519500,26.41307333,8.889
     -80.15519167,26.41309333,9.389
     -80.15518667,26.41310667,9.989
     -80.15519167,26.41310667,10.089
     -80.15519333,26.41310333,10.389
     -80.15519500,26.41310333,10.589
     -80.15519667,26.41310167,10.589
     -80.15519833,26.41310000,10.689
     -80.15519500,26.41309833,10.689
     -80.15518833,26.41310000,10.489
     -80.15518333,26.41310000,10.389
     -80.15518333,26.41309833,10.189
     -80.15518167,26.41309500,9.889
     -80.15518167,26.41309500,9.889
     -80.15518167,26.41309500,9.889
     -80.15518167,26.41309500,9.889
     -80.15518167,26.41309500,9.889
     -80.15518167,26.41309500,9.889
     -80.15518167,26.41309500,9.889
     -80.15518167,26.41309500,9.889
     -80.15518167,26.41309500,9.889
     -80.15518167,26.41309500,9.889
     -80.15518167,26.41309500,9.889
     -80.15518167,26.41309500,9.889
     -80.15517000,26.41310667,9.189
     -80.15515667,26.41312500,9.189
     -80.15513833,26.41313500,9.589
     -80.15512333,26.41314333,9.889
     -80.15510667,26.41314833,9.589
     -80.15508667,26.41315333,9.189
     -80.15506000,26.41315333,8.889
     -80.15503000,26.41315000,8.789
     -80.15499833,26.41314667,8.989
     -80.15496667,26.41314667,9.290
     -80.15493500,26.41314667,9.390
     -80.15490333,26.41314500,9.490
     -80.15487500,26.41314500,9.490
     -80.15484833,26.41314333,9.490
     -80.15482500,26.41314167,8.690
     -80.15480667,26.41314667,7.790
     -80.15478500,26.41315333,7.590
     -80.15476833,26.41316000,7.490
     -80.15475833,26.41316500,7.790
     -80.15474833,26.41316833,7.990
     -80.15474167,26.41317333,8.391
     -80.15473167,26.41317833,8.491
     -80.15471833,26.41318500,8.591
     -80.15471167,26.41319167,8.291
     -80.15470500,26.41319667,7.991
     -80.15469167,26.41320333,7.691
     -80.15468167,26.41321167,7.691
     -80.15468000,26.41321833,7.491
     -80.15467500,26.41322833,7.591
     -80.15467000,26.41323833,7.791
     -80.15466667,26.41324667,7.991
     -80.15466667,26.41325667,7.991
     -80.15466500,26.41326167,8.291
     -80.15466500,26.41326500,8.191
     -80.15466667,26.41326833,8.091
     -80.15466833,26.41327333,7.991
     -80.15467000,26.41327667,8.091
     -80.15467167,26.41327833,8.191
     -80.15467667,26.41328000,8.391
     -80.15468167,26.41328167,8.591
     -80.15468167,26.41328167,8.591
     -80.15468333,26.41328333,8.791
     -80.15468500,26.41328667,8.891
     -80.15468667,26.41328833,9.091
     -80.15468667,26.41328833,9.091
     -80.15468667,26.41328833,9.091
     -80.15468667,26.41328833,9.091
     -80.15468667,26.41328833,9.091
     -80.15468667,26.41328833,9.091
     -80.15468667,26.41328833,9.091
     -80.15468667,26.41328833,9.091
     -80.15468667,26.41328833,9.091
     -80.15468667,26.41328833,9.091
    </coordinates>
   </LineString>
  </Placemark>

 </Document>
</kml>
 