<?xml version="1.0" encoding="UTF-8"?>
<!-- Created with BasicAirData GPS Logger for Android - ver. 3.3.0 -->
<!-- Track 8 = 691 TrackPoints + 2 Placemarks -->
<kml xmlns="http://www.opengis.net/kml/2.2">
 <Document>
  <name>GPS Logger 20260718-135758</name>
  <description><![CDATA[ST-4-Gate
691 Trackpoints + 2 Placemarks]]></description>
  <Style id="TrackStyle">
   <LineStyle>
    <color>ff0000ff</color>
    <width>3</width>
   </LineStyle>
   <PolyStyle>
    <color>7f0000ff</color>
   </PolyStyle>
   <BalloonStyle>
    <text><![CDATA[<p style="color:red;font-weight:bold">$[name]</p><p style="font-size:11px">$[description]</p><p style="font-size:7px">Track Stats based on: Total time | Time in Movement</p>]]></text>
   </BalloonStyle>
  </Style>
  <Style id="PlacemarkStyle">
   <IconStyle>
    <Icon><href>http://maps.google.com/mapfiles/kml/shapes/placemark_circle_highlight.png</href></Icon>
   </IconStyle>
  </Style>

  <Placemark id="1">
   <name>Site4</name>
   <styleUrl>#PlacemarkStyle</styleUrl>
   <Point>
    <altitudeMode>clampToGround</altitudeMode>
    <coordinates>-80.16283833,26.41454833,23.158</coordinates>
    <extrude>1</extrude>
   </Point>
  </Placemark>

  <Placemark id="2">
   <name>Gate</name>
   <styleUrl>#PlacemarkStyle</styleUrl>
   <Point>
    <altitudeMode>clampToGround</altitudeMode>
    <coordinates>-80.16104000,26.41059000,25.763</coordinates>
    <extrude>1</extrude>
   </Point>
  </Placemark>

  <Placemark id="20260718-135758">
   <name>Track 20260718-135758</name>
   <description><![CDATA[<b>ST-4-Gate</b><br><br>Distance = 1.31 km<br>Duration = 11:30 | 08:18<br>Altitude Gap = 3 m<br>Max Speed = 10 mph<br>Avg Speed = 4.3 | 5.9 mph<br>Direction = SSE <br><br><i>691 Trackpoints</i>]]></description>
   <styleUrl>#TrackStyle</styleUrl>
   <LineString>
    <extrude>0</extrude>
    <tessellate>0</tessellate>
    <altitudeMode>clampToGround</altitudeMode>
    <coordinates>
     -80.16283833,26.41454833,23.158
     -80.16283833,26.41454833,23.158
     -80.16283833,26.41454833,23.158
     -80.16283833,26.41454833,23.158
     -80.16283833,26.41454833,23.158
     -80.16283833,26.41454833,23.158
     -80.16283833,26.41454833,23.158
     -80.16283833,26.41454833,23.158
     -80.16283833,26.41454833,23.158
     -80.16283833,26.41454833,23.158
     -80.16283833,26.41454833,23.158
     -80.16283833,26.41454833,23.158
     -80.16283833,26.41454833,23.158
     -80.16283833,26.41454833,23.158
     -80.16283833,26.41454833,23.158
     -80.16284500,26.41452333,22.058
     -80.16284667,26.41452833,22.258
     -80.16284833,26.41453167,22.158
     -80.16284500,26.41453500,22.358
     -80.16284333,26.41453667,22.458
     -80.16284167,26.41453667,22.258
     -80.16284167,26.41453667,22.258
     -80.16284167,26.41453667,22.258
     -80.16284167,26.41453667,22.258
     -80.16284167,26.41453667,22.258
     -80.16283833,26.41454500,21.158
     -80.16283833,26.41454500,20.758
     -80.16283500,26.41454333,20.358
     -80.16283500,26.41453833,20.058
     -80.16283500,26.41453500,19.758
     -80.16283667,26.41453167,19.458
     -80.16283667,26.41453167,19.458
     -80.16283667,26.41453167,19.458
     -80.16283667,26.41453167,19.458
     -80.16283667,26.41453167,19.458
     -80.16283667,26.41453167,19.458
     -80.16283667,26.41453167,19.458
     -80.16283667,26.41453167,19.458
     -80.16283667,26.41453167,19.458
     -80.16283667,26.41453167,19.458
     -80.16283667,26.41453167,19.458
     -80.16283667,26.41453167,19.458
     -80.16283667,26.41453167,19.458
     -80.16283667,26.41453167,19.458
     -80.16283667,26.41453167,19.458
     -80.16283667,26.41453167,19.458
     -80.16283667,26.41453167,19.458
     -80.16283667,26.41453167,19.458
     -80.16283667,26.41453167,19.458
     -80.16283667,26.41453167,19.458
     -80.16283667,26.41453167,19.458
     -80.16283667,26.41453167,19.458
     -80.16283667,26.41453167,19.458
     -80.16283667,26.41453167,19.458
     -80.16283667,26.41453167,19.458
     -80.16283667,26.41453167,19.458
     -80.16283667,26.41453167,19.458
     -80.16283667,26.41453167,19.458
     -80.16283667,26.41453167,19.458
     -80.16283667,26.41453167,19.458
     -80.16283667,26.41453167,19.458
     -80.16283667,26.41453167,19.458
     -80.16283667,26.41453167,19.458
     -80.16283667,26.41453167,19.458
     -80.16283667,26.41453167,19.458
     -80.16283667,26.41453167,19.458
     -80.16283667,26.41453167,19.458
     -80.16283667,26.41453167,19.458
     -80.16283667,26.41453167,19.458
     -80.16283667,26.41453167,19.458
     -80.16283667,26.41453167,19.458
     -80.16283667,26.41453167,19.458
     -80.16283667,26.41453167,19.458
     -80.16283667,26.41453167,19.458
     -80.16283667,26.41453167,19.458
     -80.16283667,26.41453167,19.458
     -80.16283667,26.41453167,19.458
     -80.16283667,26.41453167,19.458
     -80.16283667,26.41453167,19.458
     -80.16283667,26.41453167,19.458
     -80.16283667,26.41453167,19.458
     -80.16283667,26.41453167,19.458
     -80.16283667,26.41453167,19.458
     -80.16283667,26.41453167,19.458
     -80.16283667,26.41453167,19.458
     -80.16283667,26.41453167,19.458
     -80.16283667,26.41453167,19.458
     -80.16283667,26.41453167,19.458
     -80.16283667,26.41453167,19.458
     -80.16283667,26.41453167,19.458
     -80.16283667,26.41453167,19.458
     -80.16283667,26.41453167,19.458
     -80.16283667,26.41453167,19.458
     -80.16283667,26.41453167,19.458
     -80.16283667,26.41453167,19.458
     -80.16283667,26.41453167,19.458
     -80.16283667,26.41453167,19.458
     -80.16283667,26.41453167,19.458
     -80.16283667,26.41453167,19.458
     -80.16283667,26.41453167,19.458
     -80.16283667,26.41453167,19.458
     -80.16283667,26.41453167,19.458
     -80.16283667,26.41453167,19.458
     -80.16283667,26.41453167,19.458
     -80.16283667,26.41453167,19.458
     -80.16283667,26.41453167,19.458
     -80.16283667,26.41453167,19.458
     -80.16283667,26.41453167,19.458
     -80.16283667,26.41453167,19.458
     -80.16283667,26.41453167,19.458
     -80.16283667,26.41453167,19.458
     -80.16283667,26.41453167,19.458
     -80.16283667,26.41453167,19.458
     -80.16283667,26.41453167,19.458
     -80.16283667,26.41453167,19.458
     -80.16283667,26.41453167,19.458
     -80.16283667,26.41453167,19.458
     -80.16283667,26.41453167,19.458
     -80.16283667,26.41453167,19.458
     -80.16283667,26.41453167,19.458
     -80.16283667,26.41453167,19.458
     -80.16283667,26.41453167,19.458
     -80.16283667,26.41453167,19.458
     -80.16283667,26.41453167,19.458
     -80.16283667,26.41453167,19.458
     -80.16283667,26.41453167,19.458
     -80.16282833,26.41452667,20.558
     -80.16282333,26.41453333,20.558
     -80.16282000,26.41453667,20.558
     -80.16281667,26.41454167,20.458
     -80.16281500,26.41455167,20.358
     -80.16281333,26.41456333,20.158
     -80.16281333,26.41457333,20.058
     -80.16281500,26.41458500,20.458
     -80.16281500,26.41459333,20.858
     -80.16281667,26.41460500,20.958
     -80.16281667,26.41461833,20.858
     -80.16281833,26.41463500,21.058
     -80.16281833,26.41464500,20.758
     -80.16281833,26.41465500,20.958
     -80.16282167,26.41466500,20.858
     -80.16282167,26.41467167,20.558
     -80.16282333,26.41468167,20.258
     -80.16282333,26.41469500,20.058
     -80.16282500,26.41470833,19.758
     -80.16282500,26.41472000,19.258
     -80.16282500,26.41473167,18.958
     -80.16282000,26.41474667,18.958
     -80.16281500,26.41476333,19.558
     -80.16281000,26.41478000,19.558
     -80.16281333,26.41479667,19.558
     -80.16281833,26.41481167,19.358
     -80.16282000,26.41482167,18.958
     -80.16282167,26.41483500,18.758
     -80.16282333,26.41484833,18.458
     -80.16283000,26.41486167,17.858
     -80.16283333,26.41487500,17.358
     -80.16283833,26.41489167,16.558
     -80.16284667,26.41490833,16.358
     -80.16285000,26.41493000,16.158
     -80.16285000,26.41495167,15.958
     -80.16285000,26.41497167,16.158
     -80.16285000,26.41498833,16.658
     -80.16285000,26.41500167,17.158
     -80.16285000,26.41501667,17.658
     -80.16284833,26.41502500,18.158
     -80.16285167,26.41503667,18.058
     -80.16285333,26.41505167,17.958
     -80.16285833,26.41506833,17.658
     -80.16285833,26.41508500,17.058
     -80.16285833,26.41510167,16.758
     -80.16286000,26.41511500,16.658
     -80.16286167,26.41512833,16.458
     -80.16286500,26.41514167,16.558
     -80.16286833,26.41515500,16.758
     -80.16287333,26.41516833,16.758
     -80.16287500,26.41518333,16.258
     -80.16288000,26.41519667,15.958
     -80.16288333,26.41521167,15.958
     -80.16288500,26.41522667,15.958
     -80.16288500,26.41524333,15.958
     -80.16289167,26.41526167,16.058
     -80.16289167,26.41527833,16.158
     -80.16289500,26.41530000,16.158
     -80.16289833,26.41532000,16.658
     -80.16289833,26.41533667,16.758
     -80.16289833,26.41535000,16.858
     -80.16289333,26.41536333,16.658
     -80.16289500,26.41537833,16.058
     -80.16289333,26.41539167,15.658
     -80.16289333,26.41540500,15.258
     -80.16289500,26.41541833,15.658
     -80.16289333,26.41543333,15.958
     -80.16288833,26.41545167,16.458
     -80.16289167,26.41546500,16.858
     -80.16289167,26.41548167,16.958
     -80.16289333,26.41550000,17.158
     -80.16289667,26.41552000,17.558
     -80.16290333,26.41553667,17.458
     -80.16290333,26.41555333,17.558
     -80.16290500,26.41557000,17.758
     -80.16290500,26.41558500,18.058
     -80.16290667,26.41560000,18.258
     -80.16291167,26.41561500,18.558
     -80.16291167,26.41563167,18.558
     -80.16291333,26.41564833,18.558
     -80.16291500,26.41566500,18.858
     -80.16291667,26.41568667,19.158
     -80.16291667,26.41570667,19.758
     -80.16291833,26.41572333,20.058
     -80.16292000,26.41574000,20.258
     -80.16292167,26.41575667,20.258
     -80.16292667,26.41577000,20.358
     -80.16293000,26.41578500,20.458
     -80.16293333,26.41580000,20.458
     -80.16294167,26.41581500,20.258
     -80.16294667,26.41583000,19.858
     -80.16294833,26.41584333,19.758
     -80.16295500,26.41585667,19.558
     -80.16296333,26.41586667,19.358
     -80.16297167,26.41588000,19.458
     -80.16297833,26.41589500,19.358
     -80.16298667,26.41590833,19.558
     -80.16299000,26.41592333,19.958
     -80.16299167,26.41594167,20.358
     -80.16299833,26.41596000,20.558
     -80.16300667,26.41597833,20.758
     -80.16301333,26.41599167,21.158
     -80.16302000,26.41601000,21.558
     -80.16302833,26.41602500,21.858
     -80.16303167,26.41604167,22.258
     -80.16303500,26.41605667,21.858
     -80.16304000,26.41607167,21.858
     -80.16304333,26.41608500,21.758
     -80.16304667,26.41610000,21.558
     -80.16305000,26.41611667,21.258
     -80.16304833,26.41613500,21.158
     -80.16305167,26.41615000,21.158
     -80.16306167,26.41616500,20.858
     -80.16306500,26.41618667,20.458
     -80.16306667,26.41620667,19.958
     -80.16306333,26.41622167,19.658
     -80.16305833,26.41624000,19.658
     -80.16305500,26.41626000,19.658
     -80.16305333,26.41628000,19.558
     -80.16305167,26.41629667,19.658
     -80.16305500,26.41631500,19.658
     -80.16306167,26.41633167,19.858
     -80.16307333,26.41634667,20.158
     -80.16308667,26.41636000,20.458
     -80.16309667,26.41637167,20.758
     -80.16310500,26.41638667,21.458
     -80.16311333,26.41640000,21.858
     -80.16312500,26.41641333,22.158
     -80.16313667,26.41642833,22.458
     -80.16315000,26.41644000,22.858
     -80.16316667,26.41645167,23.058
     -80.16317833,26.41646333,22.958
     -80.16319167,26.41647000,22.858
     -80.16320167,26.41648167,23.158
     -80.16322333,26.41649167,23.657
     -80.16324333,26.41649667,23.457
     -80.16326333,26.41649833,22.957
     -80.16328833,26.41650167,21.657
     -80.16331000,26.41650333,20.157
     -80.16333333,26.41650667,19.257
     -80.16335500,26.41651000,18.557
     -80.16337667,26.41651333,18.057
     -80.16340333,26.41651833,17.557
     -80.16343000,26.41652500,17.057
     -80.16345667,26.41652667,17.156
     -80.16348667,26.41652833,16.856
     -80.16351667,26.41652500,16.456
     -80.16354167,26.41652333,15.856
     -80.16356833,26.41652667,15.756
     -80.16359500,26.41653333,15.756
     -80.16361833,26.41653833,15.656
     -80.16364000,26.41654667,15.656
     -80.16366167,26.41655167,15.556
     -80.16368667,26.41655833,15.656
     -80.16371167,26.41656500,15.455
     -80.16373667,26.41657333,15.355
     -80.16375833,26.41657833,15.355
     -80.16378333,26.41658333,15.555
     -80.16380833,26.41659000,15.855
     -80.16383667,26.41659833,16.155
     -80.16386667,26.41660333,16.255
     -80.16389833,26.41660500,16.755
     -80.16392667,26.41660167,16.955
     -80.16395333,26.41659667,16.854
     -80.16398000,26.41659167,17.054
     -80.16400833,26.41659000,17.454
     -80.16403167,26.41658667,17.454
     -80.16405500,26.41658500,17.554
     -80.16407833,26.41658167,17.354
     -80.16410667,26.41658000,17.154
     -80.16413500,26.41658000,17.254
     -80.16416667,26.41658333,17.254
     -80.16419833,26.41658500,17.353
     -80.16422833,26.41658667,17.553
     -80.16425500,26.41659000,17.053
     -80.16428167,26.41659667,16.453
     -80.16430833,26.41660500,15.953
     -80.16433167,26.41661500,16.253
     -80.16435333,26.41662833,16.653
     -80.16437167,26.41663667,17.253
     -80.16439000,26.41665167,17.853
     -80.16440500,26.41666833,18.253
     -80.16441833,26.41668667,18.853
     -80.16443000,26.41669500,19.353
     -80.16444000,26.41669500,19.553
     -80.16444167,26.41670000,20.453
     -80.16444333,26.41669833,20.853
     -80.16444500,26.41669833,21.253
     -80.16444667,26.41669167,21.552
     -80.16444500,26.41668500,22.352
     -80.16444500,26.41667833,23.052
     -80.16444667,26.41667167,23.552
     -80.16445000,26.41666333,23.752
     -80.16444833,26.41665667,24.052
     -80.16445000,26.41665167,24.352
     -80.16445167,26.41665000,24.452
     -80.16445500,26.41664833,24.752
     -80.16445500,26.41664667,25.152
     -80.16445333,26.41664500,25.152
     -80.16445167,26.41664333,25.352
     -80.16444833,26.41664333,25.652
     -80.16444500,26.41664333,25.852
     -80.16444167,26.41664167,26.052
     -80.16444167,26.41664167,26.052
     -80.16444167,26.41664167,26.052
     -80.16444167,26.41664167,26.052
     -80.16444167,26.41664167,26.052
     -80.16444167,26.41664167,26.052
     -80.16444167,26.41664167,26.052
     -80.16444167,26.41664167,26.052
     -80.16444167,26.41664167,26.052
     -80.16444167,26.41664167,26.052
     -80.16444167,26.41664167,26.052
     -80.16444167,26.41664167,26.052
     -80.16444167,26.41664167,26.052
     -80.16444167,26.41664167,26.052
     -80.16444167,26.41664167,26.052
     -80.16444167,26.41664167,26.052
     -80.16444167,26.41664167,26.052
     -80.16444167,26.41664167,26.052
     -80.16444167,26.41664167,26.052
     -80.16444167,26.41664167,26.052
     -80.16444167,26.41664167,26.052
     -80.16444167,26.41664167,26.052
     -80.16444167,26.41664167,26.052
     -80.16444167,26.41664167,26.052
     -80.16444167,26.41664167,26.052
     -80.16444167,26.41664167,26.052
     -80.16444167,26.41664167,26.052
     -80.16444167,26.41664167,26.052
     -80.16444167,26.41664167,26.052
     -80.16444167,26.41664167,26.052
     -80.16444167,26.41664167,26.052
     -80.16444167,26.41664167,26.052
     -80.16444167,26.41664167,26.052
     -80.16444167,26.41664167,26.052
     -80.16444167,26.41664167,26.052
     -80.16444167,26.41664167,26.052
     -80.16444167,26.41664167,26.052
     -80.16444167,26.41664167,26.052
     -80.16444167,26.41664167,26.052
     -80.16444167,26.41664167,26.052
     -80.16444167,26.41664167,26.052
     -80.16444167,26.41664167,26.052
     -80.16444167,26.41664167,26.052
     -80.16444167,26.41664167,26.052
     -80.16444167,26.41664167,26.052
     -80.16443833,26.41662333,28.652
     -80.16442833,26.41661500,28.453
     -80.16440500,26.41660833,28.053
     -80.16437333,26.41660333,27.153
     -80.16432833,26.41660000,26.653
     -80.16429000,26.41659333,25.553
     -80.16425167,26.41658833,24.453
     -80.16421333,26.41658167,23.353
     -80.16418333,26.41657500,22.154
     -80.16414833,26.41657500,21.154
     -80.16413167,26.41654000,19.454
     -80.16409000,26.41655333,19.454
     -80.16405500,26.41655833,18.754
     -80.16401667,26.41656167,18.454
     -80.16398000,26.41657000,18.254
     -80.16394000,26.41657333,17.855
     -80.16390000,26.41657667,17.555
     -80.16386500,26.41657333,16.955
     -80.16383000,26.41656833,16.755
     -80.16379333,26.41656000,16.755
     -80.16375667,26.41655333,16.655
     -80.16372333,26.41654333,16.655
     -80.16368833,26.41653833,16.356
     -80.16365333,26.41653167,16.356
     -80.16362000,26.41652500,16.156
     -80.16358833,26.41652167,15.756
     -80.16356000,26.41651833,16.156
     -80.16353000,26.41651833,15.756
     -80.16349667,26.41651333,16.456
     -80.16346833,26.41651000,18.056
     -80.16343500,26.41650667,17.557
     -80.16340167,26.41649667,18.057
     -80.16336667,26.41649000,18.057
     -80.16334167,26.41647500,17.757
     -80.16331667,26.41645167,17.457
     -80.16329333,26.41642833,17.257
     -80.16327667,26.41640167,17.157
     -80.16326000,26.41637667,16.457
     -80.16324333,26.41634667,15.557
     -80.16323000,26.41631833,14.757
     -80.16321833,26.41629000,14.057
     -80.16320167,26.41626500,13.457
     -80.16317500,26.41624667,13.157
     -80.16314667,26.41623167,13.558
     -80.16312333,26.41620667,13.558
     -80.16310667,26.41617833,13.258
     -80.16308833,26.41614500,14.058
     -80.16308000,26.41611167,13.658
     -80.16308167,26.41607833,13.558
     -80.16309167,26.41604667,12.958
     -80.16311167,26.41601667,13.358
     -80.16311500,26.41598333,13.658
     -80.16309833,26.41594833,13.858
     -80.16306667,26.41592500,13.858
     -80.16303500,26.41590833,14.358
     -80.16300833,26.41588833,14.658
     -80.16298667,26.41586833,14.058
     -80.16296833,26.41584333,13.358
     -80.16295333,26.41581500,13.358
     -80.16294833,26.41578833,13.458
     -80.16294833,26.41576000,13.258
     -80.16294833,26.41573333,13.558
     -80.16294833,26.41570333,14.758
     -80.16294333,26.41567333,15.958
     -80.16294000,26.41564167,16.858
     -80.16294167,26.41561167,16.658
     -80.16294000,26.41558167,16.158
     -80.16293500,26.41555333,15.758
     -80.16293167,26.41552333,15.258
     -80.16292833,26.41549167,14.758
     -80.16292167,26.41546167,14.458
     -80.16291667,26.41543000,14.058
     -80.16291500,26.41539833,13.458
     -80.16291667,26.41536833,12.758
     -80.16291167,26.41533833,12.358
     -80.16291000,26.41530333,11.858
     -80.16290667,26.41527167,11.658
     -80.16290333,26.41524167,11.758
     -80.16290333,26.41520833,11.858
     -80.16289833,26.41517667,12.058
     -80.16289000,26.41514667,12.358
     -80.16288167,26.41512167,12.658
     -80.16288333,26.41509333,12.458
     -80.16289000,26.41506833,12.958
     -80.16289333,26.41504667,13.158
     -80.16289333,26.41502000,13.358
     -80.16289500,26.41499500,14.858
     -80.16290500,26.41497833,14.358
     -80.16291500,26.41496333,14.958
     -80.16292667,26.41495500,14.858
     -80.16293500,26.41495333,15.058
     -80.16294667,26.41495333,15.358
     -80.16296167,26.41495500,14.658
     -80.16298000,26.41495833,14.458
     -80.16300000,26.41496667,14.257
     -80.16301167,26.41497333,14.357
     -80.16302167,26.41497667,14.557
     -80.16303833,26.41498000,14.657
     -80.16305500,26.41498333,14.157
     -80.16307833,26.41498500,13.657
     -80.16310167,26.41499000,13.457
     -80.16312500,26.41499333,13.957
     -80.16315167,26.41499667,14.257
     -80.16318000,26.41499667,14.257
     -80.16321000,26.41499167,14.157
     -80.16324000,26.41498833,13.757
     -80.16326500,26.41498333,13.956
     -80.16328667,26.41496167,14.256
     -80.16330333,26.41493500,14.756
     -80.16332333,26.41491500,15.656
     -80.16334000,26.41489833,15.456
     -80.16335333,26.41488833,14.856
     -80.16337167,26.41487667,14.356
     -80.16338500,26.41487000,13.656
     -80.16339833,26.41485667,13.356
     -80.16340667,26.41484667,12.856
     -80.16341667,26.41483000,12.156
     -80.16342833,26.41481333,12.556
     -80.16344000,26.41479000,12.956
     -80.16345333,26.41476667,13.456
     -80.16347333,26.41474000,13.555
     -80.16349167,26.41471333,13.555
     -80.16350833,26.41468500,13.455
     -80.16352667,26.41465500,13.655
     -80.16354333,26.41462333,13.355
     -80.16356000,26.41459500,13.055
     -80.16357333,26.41456833,13.455
     -80.16358500,26.41454667,13.055
     -80.16359167,26.41453333,13.055
     -80.16359500,26.41451833,12.755
     -80.16360000,26.41449333,12.555
     -80.16360000,26.41446167,12.855
     -80.16359667,26.41442833,12.455
     -80.16359167,26.41439333,12.255
     -80.16358000,26.41435833,12.255
     -80.16356333,26.41432667,12.055
     -80.16353833,26.41429833,11.955
     -80.16350833,26.41427500,11.655
     -80.16347333,26.41425833,11.555
     -80.16343667,26.41424000,11.655
     -80.16340167,26.41421500,11.955
     -80.16336500,26.41419333,12.056
     -80.16332833,26.41417500,12.056
     -80.16329167,26.41415500,12.156
     -80.16325333,26.41413833,12.256
     -80.16321333,26.41412167,12.356
     -80.16317500,26.41410333,12.656
     -80.16314000,26.41408500,12.556
     -80.16310500,26.41407000,12.257
     -80.16306500,26.41404833,12.457
     -80.16302333,26.41402833,12.557
     -80.16298833,26.41401000,12.457
     -80.16295333,26.41398667,12.857
     -80.16291500,26.41396833,12.357
     -80.16287500,26.41394833,11.957
     -80.16284000,26.41392500,11.858
     -80.16279667,26.41390333,11.858
     -80.16275500,26.41388167,12.158
     -80.16271333,26.41385833,12.158
     -80.16268000,26.41383500,12.958
     -80.16264000,26.41381333,12.558
     -80.16260000,26.41379167,12.558
     -80.16256833,26.41376667,12.559
     -80.16253667,26.41374333,12.959
     -80.16250500,26.41371833,13.159
     -80.16247667,26.41369333,13.359
     -80.16245167,26.41367000,13.059
     -80.16242833,26.41364500,12.659
     -80.16240167,26.41362167,12.259
     -80.16237833,26.41359500,12.159
     -80.16234667,26.41357167,11.759
     -80.16232000,26.41354833,11.160
     -80.16229333,26.41352333,10.960
     -80.16226667,26.41350000,10.660
     -80.16224167,26.41347667,10.460
     -80.16221667,26.41345500,10.160
     -80.16218833,26.41343167,9.760
     -80.16216500,26.41340667,11.160
     -80.16213667,26.41338167,11.160
     -80.16210833,26.41336000,11.360
     -80.16208167,26.41333333,11.360
     -80.16205667,26.41331000,11.360
     -80.16203667,26.41328500,11.561
     -80.16201667,26.41325833,11.661
     -80.16199000,26.41323000,10.961
     -80.16196667,26.41320167,11.161
     -80.16194500,26.41317667,11.261
     -80.16191500,26.41314667,11.061
     -80.16188333,26.41311667,10.561
     -80.16185833,26.41308667,11.661
     -80.16183000,26.41305667,12.261
     -80.16180667,26.41302833,11.961
     -80.16178333,26.41299667,11.761
     -80.16176000,26.41297000,12.261
     -80.16173500,26.41294333,12.262
     -80.16171333,26.41291333,12.462
     -80.16169333,26.41289000,12.862
     -80.16167833,26.41286667,12.762
     -80.16166833,26.41284500,11.962
     -80.16166333,26.41283000,11.262
     -80.16165500,26.41281500,11.462
     -80.16164333,26.41280167,12.162
     -80.16163500,26.41278667,12.362
     -80.16162333,26.41278000,12.062
     -80.16161667,26.41277333,12.362
     -80.16160167,26.41276000,12.062
     -80.16158333,26.41274000,12.562
     -80.16156500,26.41271500,13.462
     -80.16154833,26.41269333,12.962
     -80.16153667,26.41267333,12.662
     -80.16153000,26.41265500,12.962
     -80.16152167,26.41263333,13.062
     -80.16151500,26.41261667,13.562
     -80.16150667,26.41260333,13.862
     -80.16149500,26.41259167,13.962
     -80.16148333,26.41257667,14.262
     -80.16147000,26.41256167,14.762
     -80.16145000,26.41253500,15.563
     -80.16143333,26.41250833,16.763
     -80.16142667,26.41248000,17.063
     -80.16142333,26.41245333,17.163
     -80.16141500,26.41242833,17.363
     -80.16140333,26.41240167,18.363
     -80.16139333,26.41237833,18.463
     -80.16138500,26.41235167,18.563
     -80.16138000,26.41232333,18.763
     -80.16136500,26.41230167,18.963
     -80.16134500,26.41227667,19.063
     -80.16131833,26.41226167,19.463
     -80.16129833,26.41222167,20.063
     -80.16128833,26.41218667,19.963
     -80.16127667,26.41215500,20.263
     -80.16127000,26.41211333,20.863
     -80.16125167,26.41207667,20.863
     -80.16124000,26.41204333,21.663
     -80.16123000,26.41201500,21.963
     -80.16122000,26.41199167,22.363
     -80.16121333,26.41196000,22.163
     -80.16120333,26.41192333,21.963
     -80.16119667,26.41189333,21.863
     -80.16119333,26.41186833,21.363
     -80.16119333,26.41183833,21.263
     -80.16118833,26.41180167,20.863
     -80.16118333,26.41177000,21.063
     -80.16118000,26.41174167,21.063
     -80.16117667,26.41170667,21.163
     -80.16117500,26.41167500,19.763
     -80.16117500,26.41165000,18.663
     -80.16117833,26.41162167,17.363
     -80.16117833,26.41159333,16.263
     -80.16117667,26.41156167,15.463
     -80.16117500,26.41153333,14.963
     -80.16117333,26.41150333,14.763
     -80.16117333,26.41147333,14.363
     -80.16117333,26.41144000,13.763
     -80.16117500,26.41140500,13.563
     -80.16117500,26.41137167,13.363
     -80.16117833,26.41133833,13.463
     -80.16117667,26.41130833,13.563
     -80.16118000,26.41128000,13.863
     -80.16117667,26.41125000,13.963
     -80.16117333,26.41122000,14.363
     -80.16117000,26.41119167,14.463
     -80.16116333,26.41115833,14.663
     -80.16116333,26.41113000,14.863
     -80.16116167,26.41110167,15.063
     -80.16116167,26.41107167,15.363
     -80.16116167,26.41104167,15.763
     -80.16116500,26.41100833,15.663
     -80.16116667,26.41097667,15.663
     -80.16117000,26.41095000,15.563
     -80.16116833,26.41092000,16.163
     -80.16117000,26.41089333,16.763
     -80.16117000,26.41086500,17.363
     -80.16117333,26.41083667,16.263
     -80.16117333,26.41081000,15.463
     -80.16117833,26.41078333,15.663
     -80.16118333,26.41075833,15.963
     -80.16119500,26.41073167,16.563
     -80.16120000,26.41070500,16.163
     -80.16120667,26.41068500,16.062
     -80.16120833,26.41066833,16.062
     -80.16120667,26.41065333,15.862
     -80.16121000,26.41064000,16.762
     -80.16120667,26.41062833,16.562
     -80.16121000,26.41061667,16.762
     -80.16121167,26.41060667,16.862
     -80.16121333,26.41060167,17.762
     -80.16121333,26.41059500,17.562
     -80.16121167,26.41059167,17.562
     -80.16120667,26.41058833,17.762
     -80.16120167,26.41058667,17.862
     -80.16119000,26.41058333,18.063
     -80.16117833,26.41058333,18.063
     -80.16115500,26.41058333,17.663
     -80.16112833,26.41057500,17.763
     -80.16110500,26.41057000,18.363
     -80.16108333,26.41056667,18.463
     -80.16106833,26.41056167,18.663
     -80.16106000,26.41056167,19.163
     -80.16105667,26.41056000,20.163
     -80.16105500,26.41056167,21.063
     -80.16105500,26.41056000,21.663
     -80.16105333,26.41056333,21.863
     -80.16105000,26.41057000,22.263
     -80.16104833,26.41057167,22.463
     -80.16105000,26.41057000,22.563
     -80.16105000,26.41056500,22.863
     -80.16104833,26.41057167,23.763
     -80.16104500,26.41057500,24.563
     -80.16104333,26.41058167,25.163
     -80.16104000,26.41058500,25.763
     -80.16104000,26.41059000,25.763
     -80.16104000,26.41059000,25.763
     -80.16104000,26.41059000,25.763
     -80.16104000,26.41059000,25.763
     -80.16104000,26.41059000,25.763
     -80.16104000,26.41059000,25.763
    </coordinates>
   </LineString>
  </Placemark>

 </Document>
</kml>
 