<?xml version="1.0" encoding="UTF-8"?>
<!-- Created with BasicAirData GPS Logger for Android - ver. 3.3.0 -->
<!-- Track 7 = 1365 TrackPoints + 2 Placemarks -->
<kml xmlns="http://www.opengis.net/kml/2.2">
 <Document>
  <name>GPS Logger 20260718-133127</name>
  <description><![CDATA[ST-3-4
1365 Trackpoints + 2 Placemarks]]></description>
  <Style id="TrackStyle">
   <LineStyle>
    <color>ff0000ff</color>
    <width>3</width>
   </LineStyle>
   <PolyStyle>
    <color>7f0000ff</color>
   </PolyStyle>
   <BalloonStyle>
    <text><![CDATA[<p style="color:red;font-weight:bold">$[name]</p><p style="font-size:11px">$[description]</p><p style="font-size:7px">Track Stats based on: Total time | Time in Movement</p>]]></text>
   </BalloonStyle>
  </Style>
  <Style id="PlacemarkStyle">
   <IconStyle>
    <Icon><href>http://maps.google.com/mapfiles/kml/shapes/placemark_circle_highlight.png</href></Icon>
   </IconStyle>
  </Style>

  <Placemark id="1">
   <name>Site3</name>
   <styleUrl>#PlacemarkStyle</styleUrl>
   <Point>
    <altitudeMode>clampToGround</altitudeMode>
    <coordinates>-80.17017667,26.41656333,30.929</coordinates>
    <extrude>1</extrude>
   </Point>
  </Placemark>

  <Placemark id="2">
   <name>Site4</name>
   <styleUrl>#PlacemarkStyle</styleUrl>
   <Point>
    <altitudeMode>clampToGround</altitudeMode>
    <coordinates>-80.16273833,26.41455167,20.758</coordinates>
    <extrude>1</extrude>
   </Point>
  </Placemark>

  <Placemark id="20260718-133127">
   <name>Track 20260718-133127</name>
   <description><![CDATA[<b>ST-3-4</b><br><br>Distance = 3.17 km<br>Duration = 22:44 | 17:50<br>Altitude Gap = -11 m<br>Max Speed = 10 mph<br>Avg Speed = 5.2 | 6.6 mph<br>Direction = ESE <br><br><i>1365 Trackpoints</i>]]></description>
   <styleUrl>#TrackStyle</styleUrl>
   <LineString>
    <extrude>0</extrude>
    <tessellate>0</tessellate>
    <altitudeMode>clampToGround</altitudeMode>
    <coordinates>
     -80.17019500,26.41655667,32.129
     -80.17019167,26.41656000,31.829
     -80.17018667,26.41656000,31.529
     -80.17018333,26.41656000,31.329
     -80.17017833,26.41656167,31.129
     -80.17017667,26.41656333,30.929
     -80.17017333,26.41656500,30.829
     -80.17017167,26.41656667,30.729
     -80.17016833,26.41656833,30.729
     -80.17016667,26.41657000,30.729
     -80.17016500,26.41657167,30.729
     -80.17016333,26.41657167,30.829
     -80.17016167,26.41657167,30.829
     -80.17016167,26.41657000,30.929
     -80.17016333,26.41657000,30.929
     -80.17016333,26.41657000,30.929
     -80.17016667,26.41656833,31.029
     -80.17016667,26.41656833,31.029
     -80.17016667,26.41656833,31.129
     -80.17016833,26.41656833,31.029
     -80.17017333,26.41656667,31.029
     -80.17017500,26.41656500,30.929
     -80.17017500,26.41656500,30.829
     -80.17017667,26.41656500,30.829
     -80.17017667,26.41656500,30.729
     -80.17017500,26.41656667,30.529
     -80.17017500,26.41656667,30.429
     -80.17017333,26.41656833,30.029
     -80.17017167,26.41657000,29.629
     -80.17017167,26.41657000,29.129
     -80.17017000,26.41657167,28.629
     -80.17017000,26.41657167,28.629
     -80.17017000,26.41657167,28.629
     -80.17017000,26.41657167,28.629
     -80.17017000,26.41657167,28.629
     -80.17017000,26.41657167,28.629
     -80.17017000,26.41657167,28.629
     -80.17017000,26.41657167,28.629
     -80.17017000,26.41657167,28.629
     -80.17017000,26.41657167,28.629
     -80.17016333,26.41656333,22.429
     -80.17016167,26.41656333,21.929
     -80.17016333,26.41656500,21.229
     -80.17016500,26.41656667,20.629
     -80.17016500,26.41656667,20.629
     -80.17016500,26.41656667,20.629
     -80.17016500,26.41656667,20.629
     -80.17016500,26.41656667,20.629
     -80.17016500,26.41656667,20.629
     -80.17016500,26.41656667,20.629
     -80.17016500,26.41656667,20.629
     -80.17016500,26.41656667,20.629
     -80.17016500,26.41656667,20.629
     -80.17016500,26.41656667,20.629
     -80.17016500,26.41656667,20.629
     -80.17016500,26.41656667,20.629
     -80.17016500,26.41656667,20.629
     -80.17016500,26.41656667,20.629
     -80.17016500,26.41656667,20.629
     -80.17016500,26.41656667,20.629
     -80.17016500,26.41656667,20.629
     -80.17016500,26.41656667,20.629
     -80.17016500,26.41656667,20.629
     -80.17016500,26.41656667,20.629
     -80.17016500,26.41656667,20.629
     -80.17016500,26.41656667,20.629
     -80.17016500,26.41656667,20.629
     -80.17016500,26.41656667,20.629
     -80.17016500,26.41656667,20.629
     -80.17016500,26.41656667,20.629
     -80.17016500,26.41656667,20.629
     -80.17016500,26.41656667,20.629
     -80.17016500,26.41656667,20.629
     -80.17016500,26.41656667,20.629
     -80.17016500,26.41656667,20.629
     -80.17016500,26.41656667,20.629
     -80.17016500,26.41656667,20.629
     -80.17016500,26.41656667,20.629
     -80.17016500,26.41656667,20.629
     -80.17016500,26.41656667,20.629
     -80.17016500,26.41656667,20.629
     -80.17016500,26.41656667,20.629
     -80.17016500,26.41656667,20.629
     -80.17016500,26.41656667,20.629
     -80.17016500,26.41656667,20.629
     -80.17016500,26.41656667,20.629
     -80.17016500,26.41656667,20.629
     -80.17016500,26.41656667,20.629
     -80.17016500,26.41656667,20.629
     -80.17016500,26.41656667,20.629
     -80.17016500,26.41656667,20.629
     -80.17016500,26.41656667,20.629
     -80.17016500,26.41656667,20.629
     -80.17016500,26.41656667,20.629
     -80.17016500,26.41656667,20.629
     -80.17016500,26.41656667,20.629
     -80.17016500,26.41656667,20.629
     -80.17016500,26.41656667,20.629
     -80.17016500,26.41656667,20.629
     -80.17016500,26.41656667,20.629
     -80.17016500,26.41656667,20.629
     -80.17016500,26.41656667,20.629
     -80.17016500,26.41656667,20.629
     -80.17016500,26.41656667,20.629
     -80.17016500,26.41656667,20.629
     -80.17016500,26.41656667,20.629
     -80.17016500,26.41656667,20.629
     -80.17016500,26.41656667,20.629
     -80.17016500,26.41656667,20.629
     -80.17016500,26.41656667,20.629
     -80.17016500,26.41656667,20.629
     -80.17014167,26.41656000,7.529
     -80.17014000,26.41656000,7.829
     -80.17013833,26.41655833,8.129
     -80.17013500,26.41655833,8.029
     -80.17013333,26.41656167,8.029
     -80.17013333,26.41656167,8.029
     -80.17012667,26.41657833,8.329
     -80.17013167,26.41659000,8.429
     -80.17013167,26.41660167,8.329
     -80.17012500,26.41661000,8.229
     -80.17011833,26.41661500,8.229
     -80.17011000,26.41662000,7.729
     -80.17009833,26.41662000,7.129
     -80.17008167,26.41662167,6.929
     -80.17006667,26.41662000,6.729
     -80.17004667,26.41662000,6.929
     -80.17003167,26.41661833,7.129
     -80.17001167,26.41661167,7.130
     -80.16999667,26.41660333,7.330
     -80.16998333,26.41659167,7.330
     -80.16997000,26.41657833,7.630
     -80.16996500,26.41655833,8.130
     -80.16995667,26.41654000,8.430
     -80.16996333,26.41652167,8.430
     -80.16997333,26.41650500,8.530
     -80.16997833,26.41649167,9.030
     -80.16998833,26.41647667,9.330
     -80.16999500,26.41646333,9.530
     -80.17001000,26.41645667,9.729
     -80.17002333,26.41645167,9.729
     -80.17003833,26.41645333,9.829
     -80.17005833,26.41645667,9.829
     -80.17007333,26.41646333,9.629
     -80.17008833,26.41646833,9.629
     -80.17010833,26.41647500,10.129
     -80.17013000,26.41647833,10.529
     -80.17014333,26.41648500,10.629
     -80.17015667,26.41648833,10.729
     -80.17016833,26.41648833,11.129
     -80.17018167,26.41649500,10.829
     -80.17020000,26.41650167,10.329
     -80.17021333,26.41650833,10.029
     -80.17023167,26.41651667,9.929
     -80.17025333,26.41652167,9.828
     -80.17027667,26.41652500,9.528
     -80.17029667,26.41652333,9.428
     -80.17032000,26.41651500,9.528
     -80.17034000,26.41650667,9.528
     -80.17035833,26.41649667,10.028
     -80.17037833,26.41648667,10.328
     -80.17039833,26.41647833,10.428
     -80.17042000,26.41647000,10.628
     -80.17044333,26.41646167,10.828
     -80.17046833,26.41645833,10.828
     -80.17049500,26.41645333,11.127
     -80.17052333,26.41645667,11.327
     -80.17055333,26.41646167,11.727
     -80.17057833,26.41647000,11.927
     -80.17060333,26.41648167,12.027
     -80.17062500,26.41649333,12.127
     -80.17064333,26.41650500,12.127
     -80.17065833,26.41652667,12.227
     -80.17067500,26.41654833,12.227
     -80.17069167,26.41657167,11.927
     -80.17071000,26.41659500,12.027
     -80.17072333,26.41661833,11.927
     -80.17073333,26.41664500,11.927
     -80.17073667,26.41666667,11.827
     -80.17073667,26.41669000,11.827
     -80.17073167,26.41671333,11.627
     -80.17072667,26.41673833,12.527
     -80.17072667,26.41676833,12.627
     -80.17072833,26.41679833,12.627
     -80.17073000,26.41682833,12.627
     -80.17073000,26.41685667,12.627
     -80.17073500,26.41688000,12.527
     -80.17074167,26.41690167,12.327
     -80.17074500,26.41692500,12.227
     -80.17074500,26.41695333,11.827
     -80.17074667,26.41698000,11.427
     -80.17074667,26.41700833,11.327
     -80.17074500,26.41704000,11.227
     -80.17074333,26.41707167,11.227
     -80.17074167,26.41710500,11.327
     -80.17073833,26.41713833,11.727
     -80.17072833,26.41717167,13.127
     -80.17072667,26.41720500,13.427
     -80.17072667,26.41723833,13.327
     -80.17072667,26.41727000,13.527
     -80.17072833,26.41730167,13.327
     -80.17073167,26.41733333,13.627
     -80.17073500,26.41736667,13.527
     -80.17073667,26.41739833,13.427
     -80.17074167,26.41743000,13.027
     -80.17074333,26.41746000,13.127
     -80.17074833,26.41748667,12.827
     -80.17074667,26.41751667,13.027
     -80.17074667,26.41754833,13.127
     -80.17074667,26.41758000,13.327
     -80.17074667,26.41761000,13.527
     -80.17075000,26.41764000,13.727
     -80.17075000,26.41767333,13.827
     -80.17075000,26.41770333,14.227
     -80.17075000,26.41773500,14.227
     -80.17074833,26.41776667,14.127
     -80.17074833,26.41779833,14.027
     -80.17074833,26.41782667,13.827
     -80.17074500,26.41786000,13.827
     -80.17074500,26.41789000,13.727
     -80.17074500,26.41792000,13.627
     -80.17074333,26.41795000,13.727
     -80.17073833,26.41797833,13.727
     -80.17073667,26.41800667,13.827
     -80.17073500,26.41803333,13.827
     -80.17073167,26.41806333,13.927
     -80.17073000,26.41809167,14.027
     -80.17073000,26.41812000,14.027
     -80.17072833,26.41815000,14.027
     -80.17072500,26.41818167,14.127
     -80.17072167,26.41821000,14.127
     -80.17072167,26.41824000,14.328
     -80.17071667,26.41827000,14.528
     -80.17071500,26.41830167,13.828
     -80.17071167,26.41833500,13.628
     -80.17070833,26.41836667,13.528
     -80.17070833,26.41840000,13.228
     -80.17070833,26.41843167,13.228
     -80.17071000,26.41846667,12.728
     -80.17071333,26.41850167,12.528
     -80.17071667,26.41853333,12.628
     -80.17071667,26.41856500,12.628
     -80.17071833,26.41859500,12.728
     -80.17072000,26.41862667,12.828
     -80.17072167,26.41865833,13.028
     -80.17072500,26.41869333,13.128
     -80.17072333,26.41872500,13.128
     -80.17072500,26.41875833,13.028
     -80.17072667,26.41879000,13.128
     -80.17072667,26.41882167,13.128
     -80.17073000,26.41885167,13.128
     -80.17073167,26.41888167,12.928
     -80.17072667,26.41891333,12.828
     -80.17071500,26.41895000,13.428
     -80.17071000,26.41898333,13.328
     -80.17071167,26.41901000,13.128
     -80.17070667,26.41904500,13.328
     -80.17070000,26.41906833,13.128
     -80.17069500,26.41909833,12.128
     -80.17068833,26.41913000,11.728
     -80.17067667,26.41915833,11.328
     -80.17066833,26.41919167,10.428
     -80.17066167,26.41922167,10.128
     -80.17065833,26.41924833,9.928
     -80.17066167,26.41928167,10.328
     -80.17066667,26.41931000,10.728
     -80.17067167,26.41933667,10.328
     -80.17067667,26.41936500,10.028
     -80.17067833,26.41939333,10.128
     -80.17068000,26.41942167,9.628
     -80.17068333,26.41944667,9.628
     -80.17068833,26.41947667,9.828
     -80.17069333,26.41950833,9.628
     -80.17069667,26.41953333,9.728
     -80.17069667,26.41956833,9.928
     -80.17070667,26.41959667,10.128
     -80.17071167,26.41962333,10.328
     -80.17072500,26.41964667,9.928
     -80.17073000,26.41967000,10.128
     -80.17073500,26.41969500,10.228
     -80.17073667,26.41972167,10.428
     -80.17073667,26.41975000,10.328
     -80.17073833,26.41977833,10.928
     -80.17074167,26.41980167,10.928
     -80.17073833,26.41982333,11.728
     -80.17073833,26.41984333,11.528
     -80.17073667,26.41986667,11.228
     -80.17074000,26.41989667,11.628
     -80.17074167,26.41992167,12.328
     -80.17074667,26.41995000,13.028
     -80.17075167,26.41997500,13.128
     -80.17075500,26.42000000,13.228
     -80.17075500,26.42002833,13.328
     -80.17075833,26.42005667,13.228
     -80.17076167,26.42008333,13.528
     -80.17077000,26.42010333,13.428
     -80.17076667,26.42012667,12.228
     -80.17076667,26.42015167,12.328
     -80.17076833,26.42017667,12.528
     -80.17077167,26.42020667,13.128
     -80.17077333,26.42023500,13.328
     -80.17077833,26.42026167,13.328
     -80.17078333,26.42028667,13.428
     -80.17078333,26.42031500,13.428
     -80.17079000,26.42033500,12.828
     -80.17079167,26.42036000,12.428
     -80.17079333,26.42038833,12.028
     -80.17079500,26.42042000,12.028
     -80.17079000,26.42045500,12.528
     -80.17079000,26.42048500,12.528
     -80.17079167,26.42051000,12.528
     -80.17079167,26.42054000,12.829
     -80.17079500,26.42056667,12.929
     -80.17079500,26.42060000,12.929
     -80.17079333,26.42063167,13.129
     -80.17079000,26.42066333,13.229
     -80.17078500,26.42069167,13.429
     -80.17078500,26.42072000,13.629
     -80.17078333,26.42075000,13.829
     -80.17078333,26.42078167,13.829
     -80.17078333,26.42081167,13.929
     -80.17078500,26.42084167,13.829
     -80.17078167,26.42087500,13.629
     -80.17078000,26.42090667,13.629
     -80.17077667,26.42093667,13.729
     -80.17077000,26.42096833,13.529
     -80.17076500,26.42099833,13.529
     -80.17075500,26.42103000,13.429
     -80.17074667,26.42106167,13.429
     -80.17073833,26.42108833,13.529
     -80.17073000,26.42112167,13.629
     -80.17072000,26.42115167,14.029
     -80.17071333,26.42118000,14.329
     -80.17071333,26.42120667,14.329
     -80.17071500,26.42123667,14.429
     -80.17071333,26.42126833,14.529
     -80.17071333,26.42130000,14.629
     -80.17071333,26.42133500,14.729
     -80.17071333,26.42136667,14.929
     -80.17071167,26.42139833,15.129
     -80.17071333,26.42142667,15.029
     -80.17071500,26.42145667,15.029
     -80.17071667,26.42148333,14.929
     -80.17072000,26.42151333,14.729
     -80.17072667,26.42153833,14.229
     -80.17073833,26.42156500,13.729
     -80.17074667,26.42159333,13.429
     -80.17075333,26.42162833,13.229
     -80.17076500,26.42165667,12.729
     -80.17077167,26.42168833,12.529
     -80.17077500,26.42171833,12.429
     -80.17077667,26.42175000,12.429
     -80.17077833,26.42178167,12.329
     -80.17078167,26.42181500,12.029
     -80.17078667,26.42184500,11.729
     -80.17077167,26.42188500,13.929
     -80.17078333,26.42191500,13.429
     -80.17078667,26.42195500,12.929
     -80.17079667,26.42198833,12.629
     -80.17080000,26.42203333,12.429
     -80.17081333,26.42207000,11.529
     -80.17082333,26.42211000,11.129
     -80.17083167,26.42215000,10.229
     -80.17083667,26.42218500,10.029
     -80.17084000,26.42222167,9.829
     -80.17084333,26.42226333,10.029
     -80.17084667,26.42230000,10.129
     -80.17085333,26.42233833,9.929
     -80.17085500,26.42237500,10.029
     -80.17086000,26.42241167,10.029
     -80.17086167,26.42244500,10.729
     -80.17086667,26.42247500,11.029
     -80.17086833,26.42251833,11.529
     -80.17087167,26.42256500,11.429
     -80.17086667,26.42260500,11.829
     -80.17086333,26.42264667,12.229
     -80.17086833,26.42268500,11.629
     -80.17086833,26.42272333,11.029
     -80.17086500,26.42276167,10.629
     -80.17085667,26.42280000,10.930
     -80.17084333,26.42283667,11.430
     -80.17083833,26.42287833,11.530
     -80.17083667,26.42292500,11.530
     -80.17083333,26.42297000,11.830
     -80.17083333,26.42300667,12.130
     -80.17083167,26.42304500,12.430
     -80.17083667,26.42308333,11.930
     -80.17084000,26.42312000,12.230
     -80.17084500,26.42315333,12.430
     -80.17084667,26.42318833,12.430
     -80.17084833,26.42322167,12.130
     -80.17085667,26.42324500,11.930
     -80.17086333,26.42326167,11.830
     -80.17086000,26.42326833,11.730
     -80.17085500,26.42328833,12.130
     -80.17085667,26.42331167,11.930
     -80.17085500,26.42333333,11.830
     -80.17085167,26.42335167,11.830
     -80.17085333,26.42336167,10.930
     -80.17085500,26.42336000,11.030
     -80.17085333,26.42336167,10.930
     -80.17085500,26.42336500,10.930
     -80.17085167,26.42335500,10.930
     -80.17085000,26.42334667,11.030
     -80.17084833,26.42334333,11.330
     -80.17085000,26.42334000,11.130
     -80.17084833,26.42333667,11.030
     -80.17085333,26.42333333,10.930
     -80.17085500,26.42332667,10.530
     -80.17085333,26.42332167,10.830
     -80.17085667,26.42331833,10.730
     -80.17085667,26.42331667,10.630
     -80.17085833,26.42331000,10.230
     -80.17085667,26.42330833,10.030
     -80.17085667,26.42330167,9.730
     -80.17085667,26.42330167,9.730
     -80.17085667,26.42330167,9.730
     -80.17085667,26.42330167,9.730
     -80.17085667,26.42330167,9.730
     -80.17085667,26.42330167,9.730
     -80.17085667,26.42330167,9.730
     -80.17085667,26.42330167,9.730
     -80.17085667,26.42330167,9.730
     -80.17085667,26.42330167,9.730
     -80.17085667,26.42330167,9.730
     -80.17085667,26.42330167,9.730
     -80.17085667,26.42330167,9.730
     -80.17085667,26.42330167,9.730
     -80.17085667,26.42330167,9.730
     -80.17085667,26.42330167,9.730
     -80.17085667,26.42330167,9.730
     -80.17085667,26.42330167,9.730
     -80.17085667,26.42330167,9.730
     -80.17085667,26.42330167,9.730
     -80.17085667,26.42330167,9.730
     -80.17085667,26.42330167,9.730
     -80.17085667,26.42330167,9.730
     -80.17085667,26.42330167,9.730
     -80.17085667,26.42330167,9.730
     -80.17085667,26.42330167,9.730
     -80.17085667,26.42330167,9.730
     -80.17085667,26.42330167,9.730
     -80.17085667,26.42330167,9.730
     -80.17085667,26.42330167,9.730
     -80.17085667,26.42330167,9.730
     -80.17085667,26.42330167,9.730
     -80.17085667,26.42330167,9.730
     -80.17085667,26.42330167,9.730
     -80.17085667,26.42330167,9.730
     -80.17085667,26.42330167,9.730
     -80.17085667,26.42330167,9.730
     -80.17085667,26.42330167,9.730
     -80.17085667,26.42330167,9.730
     -80.17085667,26.42330167,9.730
     -80.17085667,26.42330167,9.730
     -80.17085667,26.42330167,9.730
     -80.17085667,26.42330167,9.730
     -80.17085667,26.42330167,9.730
     -80.17085667,26.42330167,9.730
     -80.17085667,26.42330167,9.730
     -80.17085667,26.42330167,9.730
     -80.17085667,26.42330167,9.730
     -80.17085667,26.42330167,9.730
     -80.17085667,26.42330167,9.730
     -80.17085667,26.42330167,9.730
     -80.17085667,26.42330167,9.730
     -80.17085667,26.42330167,9.730
     -80.17085667,26.42330167,9.730
     -80.17085667,26.42330167,9.730
     -80.17085667,26.42330167,9.730
     -80.17085667,26.42330167,9.730
     -80.17085667,26.42330167,9.730
     -80.17085667,26.42330167,9.730
     -80.17085667,26.42330167,9.730
     -80.17085667,26.42330167,9.730
     -80.17085667,26.42330167,9.730
     -80.17085667,26.42330167,9.730
     -80.17085667,26.42330167,9.730
     -80.17085667,26.42330167,9.730
     -80.17085667,26.42330167,9.730
     -80.17085667,26.42330167,9.730
     -80.17085667,26.42330167,9.730
     -80.17085667,26.42330167,9.730
     -80.17085667,26.42330167,9.730
     -80.17085667,26.42330167,9.730
     -80.17085667,26.42330167,9.730
     -80.17085667,26.42330167,9.730
     -80.17085667,26.42331667,10.430
     -80.17085833,26.42331667,10.430
     -80.17086167,26.42331333,10.030
     -80.17086333,26.42331000,9.830
     -80.17086333,26.42330833,9.530
     -80.17086333,26.42330833,9.530
     -80.17086333,26.42330833,9.530
     -80.17086333,26.42330833,9.530
     -80.17086333,26.42330833,9.530
     -80.17086333,26.42330833,9.530
     -80.17086333,26.42330833,9.530
     -80.17086333,26.42330833,9.530
     -80.17086333,26.42330833,9.530
     -80.17086333,26.42330833,9.530
     -80.17086333,26.42330833,9.530
     -80.17086333,26.42330833,9.530
     -80.17086333,26.42330833,9.530
     -80.17086333,26.42330833,9.530
     -80.17086333,26.42330833,9.530
     -80.17086333,26.42330833,9.530
     -80.17087333,26.42327000,6.730
     -80.17087333,26.42326167,6.630
     -80.17087500,26.42324667,6.230
     -80.17087167,26.42323667,6.030
     -80.17086667,26.42322833,5.830
     -80.17086500,26.42321833,5.730
     -80.17086167,26.42321167,5.730
     -80.17086000,26.42320167,5.830
     -80.17086167,26.42319333,6.030
     -80.17086667,26.42318833,6.030
     -80.17086333,26.42318833,6.230
     -80.17086333,26.42318833,6.830
     -80.17086167,26.42319167,7.130
     -80.17085833,26.42319500,7.530
     -80.17085667,26.42320000,7.830
     -80.17085667,26.42320500,8.130
     -80.17085667,26.42321000,8.230
     -80.17086000,26.42322833,8.330
     -80.17085833,26.42324833,8.630
     -80.17085167,26.42327000,8.630
     -80.17084500,26.42329333,9.030
     -80.17084000,26.42331500,9.530
     -80.17083667,26.42334500,9.630
     -80.17083500,26.42337167,10.330
     -80.17084333,26.42339500,11.230
     -80.17084500,26.42342000,11.830
     -80.17083667,26.42345000,11.930
     -80.17083333,26.42347167,11.930
     -80.17083333,26.42349333,11.130
     -80.17082333,26.42351833,10.930
     -80.17081000,26.42354000,10.730
     -80.17079333,26.42356167,10.630
     -80.17077000,26.42358500,10.430
     -80.17074667,26.42360500,10.530
     -80.17072833,26.42362000,10.931
     -80.17070667,26.42363000,10.831
     -80.17067500,26.42363500,11.131
     -80.17064000,26.42363500,11.031
     -80.17061000,26.42363000,11.131
     -80.17058000,26.42362833,11.031
     -80.17055500,26.42362833,10.931
     -80.17052833,26.42362667,11.631
     -80.17050167,26.42362833,11.531
     -80.17047333,26.42363333,11.432
     -80.17043833,26.42364167,10.632
     -80.17040667,26.42365167,10.032
     -80.17038167,26.42366167,9.432
     -80.17035833,26.42367500,9.532
     -80.17032833,26.42368333,9.532
     -80.17031167,26.42369333,8.932
     -80.17028333,26.42370167,9.132
     -80.17025667,26.42371000,9.632
     -80.17023167,26.42371667,9.933
     -80.17020833,26.42372500,9.833
     -80.17018333,26.42372667,9.433
     -80.17015333,26.42373167,9.333
     -80.17013000,26.42373000,9.333
     -80.17010167,26.42372167,10.333
     -80.17006833,26.42372167,10.733
     -80.17003667,26.42372167,10.933
     -80.17000167,26.42373000,10.134
     -80.16996333,26.42374333,9.334
     -80.16992667,26.42375167,9.034
     -80.16989333,26.42376333,9.034
     -80.16986000,26.42377333,9.034
     -80.16982667,26.42378167,9.134
     -80.16979333,26.42378500,9.234
     -80.16975500,26.42379000,9.435
     -80.16972167,26.42378833,9.435
     -80.16968667,26.42379000,9.535
     -80.16965000,26.42379333,9.535
     -80.16961333,26.42379500,9.335
     -80.16957500,26.42379667,9.435
     -80.16953833,26.42380000,9.536
     -80.16950167,26.42380000,9.536
     -80.16946667,26.42380000,9.636
     -80.16943167,26.42380167,9.636
     -80.16939667,26.42380167,9.836
     -80.16936167,26.42380000,10.036
     -80.16933167,26.42380167,9.836
     -80.16930000,26.42380000,9.936
     -80.16926833,26.42380333,10.137
     -80.16923500,26.42380500,10.437
     -80.16920167,26.42380500,10.537
     -80.16916667,26.42380667,10.737
     -80.16913167,26.42380667,10.937
     -80.16909500,26.42380833,11.137
     -80.16906167,26.42381000,10.537
     -80.16902667,26.42381000,10.538
     -80.16899167,26.42381000,10.638
     -80.16896000,26.42380833,10.838
     -80.16892833,26.42380833,10.938
     -80.16889667,26.42380667,11.238
     -80.16886667,26.42380667,11.238
     -80.16883333,26.42380667,11.238
     -80.16879833,26.42380333,11.039
     -80.16876500,26.42380500,11.239
     -80.16873167,26.42380500,11.339
     -80.16869833,26.42380500,11.339
     -80.16866667,26.42380833,11.739
     -80.16863333,26.42380833,11.939
     -80.16860000,26.42380667,11.939
     -80.16856500,26.42380667,11.940
     -80.16853000,26.42380833,11.940
     -80.16849667,26.42381000,11.940
     -80.16846333,26.42381167,12.140
     -80.16843167,26.42381333,12.440
     -80.16840000,26.42381667,12.540
     -80.16837000,26.42382000,12.340
     -80.16834000,26.42382500,12.140
     -80.16830667,26.42382833,12.141
     -80.16827500,26.42383667,12.041
     -80.16824333,26.42384000,11.641
     -80.16821167,26.42383833,11.941
     -80.16817833,26.42383500,12.341
     -80.16814500,26.42383167,12.441
     -80.16811167,26.42383167,12.341
     -80.16808000,26.42383333,12.542
     -80.16805000,26.42383667,12.842
     -80.16801667,26.42383833,12.742
     -80.16798333,26.42383667,12.542
     -80.16795000,26.42383500,12.342
     -80.16791833,26.42383500,12.242
     -80.16788500,26.42383333,11.842
     -80.16785000,26.42382833,12.242
     -80.16781500,26.42382500,12.243
     -80.16778167,26.42382167,12.443
     -80.16775000,26.42382000,12.643
     -80.16771833,26.42381833,12.943
     -80.16768500,26.42381833,12.943
     -80.16765167,26.42381667,12.943
     -80.16761833,26.42381500,12.843
     -80.16758333,26.42381500,12.344
     -80.16754833,26.42381667,11.744
     -80.16751500,26.42381833,11.244
     -80.16748167,26.42382000,11.144
     -80.16744667,26.42382000,10.744
     -80.16741333,26.42382333,10.444
     -80.16738000,26.42382500,10.344
     -80.16734500,26.42382500,10.045
     -80.16731000,26.42382500,9.645
     -80.16727667,26.42382500,9.545
     -80.16724333,26.42382500,9.445
     -80.16721167,26.42382667,9.445
     -80.16718000,26.42382833,9.645
     -80.16715167,26.42383167,9.445
     -80.16712500,26.42383000,9.345
     -80.16709667,26.42382667,9.546
     -80.16706667,26.42382667,9.246
     -80.16704333,26.42382667,9.246
     -80.16701667,26.42383000,9.146
     -80.16698833,26.42383333,9.246
     -80.16695833,26.42383500,9.146
     -80.16692667,26.42383667,9.246
     -80.16689667,26.42383833,9.046
     -80.16686500,26.42384500,8.947
     -80.16683333,26.42385000,8.347
     -80.16680000,26.42384833,7.747
     -80.16676667,26.42384667,7.847
     -80.16673500,26.42384333,7.747
     -80.16670500,26.42384167,7.747
     -80.16667500,26.42383833,8.247
     -80.16664500,26.42383333,9.147
     -80.16661500,26.42383167,9.048
     -80.16658500,26.42382500,9.748
     -80.16655833,26.42382500,10.248
     -80.16653167,26.42382333,11.148
     -80.16650000,26.42382167,11.548
     -80.16647333,26.42382333,11.548
     -80.16644500,26.42382333,11.248
     -80.16641500,26.42382167,10.648
     -80.16638500,26.42381833,10.248
     -80.16635000,26.42381333,9.649
     -80.16631833,26.42381000,9.649
     -80.16628667,26.42380833,9.649
     -80.16625500,26.42380833,9.449
     -80.16622333,26.42380833,9.349
     -80.16619167,26.42380833,9.249
     -80.16616000,26.42380667,9.149
     -80.16612833,26.42380667,9.250
     -80.16610000,26.42380500,10.050
     -80.16607500,26.42380167,10.650
     -80.16605000,26.42379667,10.650
     -80.16601833,26.42379333,10.350
     -80.16598667,26.42379500,10.350
     -80.16595833,26.42379500,10.450
     -80.16593167,26.42379500,10.950
     -80.16590667,26.42379833,11.050
     -80.16588167,26.42380333,10.451
     -80.16585833,26.42381000,9.951
     -80.16582833,26.42381333,9.551
     -80.16580167,26.42381500,9.251
     -80.16577333,26.42381667,9.051
     -80.16574333,26.42381500,8.851
     -80.16572000,26.42381000,8.051
     -80.16569167,26.42379833,8.151
     -80.16566500,26.42379000,8.351
     -80.16564667,26.42377833,8.452
     -80.16562500,26.42377667,8.852
     -80.16560167,26.42378167,8.352
     -80.16557667,26.42378167,8.052
     -80.16555000,26.42378833,7.752
     -80.16552167,26.42379167,7.952
     -80.16549667,26.42379667,8.352
     -80.16547167,26.42380333,8.752
     -80.16544667,26.42381000,8.952
     -80.16541833,26.42381333,9.552
     -80.16539333,26.42381667,9.753
     -80.16536667,26.42382167,10.053
     -80.16533667,26.42382333,10.053
     -80.16530500,26.42383167,10.353
     -80.16528000,26.42383833,10.353
     -80.16525000,26.42384167,10.253
     -80.16521667,26.42384500,9.853
     -80.16518667,26.42384167,9.953
     -80.16516500,26.42383333,10.354
     -80.16514333,26.42382000,9.954
     -80.16512333,26.42380667,9.854
     -80.16510667,26.42378500,9.754
     -80.16509500,26.42376000,9.854
     -80.16509500,26.42373500,10.254
     -80.16509500,26.42371000,9.954
     -80.16510167,26.42369333,9.954
     -80.16511333,26.42367667,9.954
     -80.16512000,26.42365667,10.754
     -80.16512500,26.42363667,10.554
     -80.16512667,26.42361167,10.154
     -80.16512500,26.42358667,10.154
     -80.16512333,26.42356333,10.054
     -80.16511833,26.42354333,9.954
     -80.16511333,26.42352000,9.454
     -80.16510500,26.42349500,9.154
     -80.16509833,26.42346667,9.154
     -80.16509000,26.42343833,8.854
     -80.16508333,26.42341167,8.854
     -80.16507833,26.42338167,9.054
     -80.16507333,26.42335333,9.254
     -80.16507000,26.42332333,9.454
     -80.16506833,26.42329333,9.554
     -80.16506500,26.42326333,9.754
     -80.16506500,26.42323500,9.954
     -80.16506500,26.42320833,10.154
     -80.16506500,26.42318667,10.654
     -80.16506500,26.42316000,10.654
     -80.16506000,26.42313833,10.254
     -80.16505833,26.42311500,9.854
     -80.16505500,26.42309333,9.554
     -80.16504667,26.42307000,9.954
     -80.16504167,26.42304667,10.254
     -80.16503500,26.42302500,9.954
     -80.16503333,26.42299833,10.154
     -80.16503000,26.42297667,10.054
     -80.16503333,26.42295000,9.554
     -80.16503500,26.42292167,8.954
     -80.16503000,26.42289333,9.154
     -80.16502333,26.42286833,9.754
     -80.16502000,26.42284167,9.854
     -80.16501333,26.42281500,9.454
     -80.16500833,26.42279167,9.354
     -80.16500333,26.42277000,9.254
     -80.16500167,26.42274500,9.054
     -80.16499667,26.42272000,9.654
     -80.16500500,26.42269333,9.154
     -80.16501333,26.42266333,8.753
     -80.16501333,26.42263667,8.053
     -80.16502167,26.42260833,7.853
     -80.16503333,26.42258167,7.553
     -80.16504833,26.42255500,7.553
     -80.16505833,26.42252833,7.753
     -80.16506333,26.42250333,7.653
     -80.16506833,26.42247833,7.753
     -80.16506833,26.42245833,8.053
     -80.16507000,26.42243833,8.653
     -80.16506833,26.42242333,9.653
     -80.16506500,26.42240500,10.453
     -80.16507000,26.42238833,11.153
     -80.16507833,26.42236667,11.553
     -80.16509000,26.42234333,12.053
     -80.16510333,26.42232000,11.953
     -80.16511833,26.42229500,12.153
     -80.16512833,26.42227000,12.553
     -80.16513333,26.42224333,12.353
     -80.16513500,26.42221333,12.253
     -80.16513667,26.42218167,12.253
     -80.16513000,26.42215167,12.053
     -80.16512000,26.42212833,12.053
     -80.16510500,26.42210167,11.553
     -80.16509333,26.42207500,11.053
     -80.16508000,26.42205167,10.753
     -80.16506833,26.42202500,10.653
     -80.16505833,26.42199500,10.553
     -80.16505333,26.42196667,9.953
     -80.16504333,26.42194333,9.953
     -80.16503667,26.42191833,8.453
     -80.16502333,26.42189500,7.553
     -80.16500667,26.42187000,7.153
     -80.16498833,26.42184500,7.053
     -80.16496667,26.42182167,6.953
     -80.16494833,26.42179667,6.753
     -80.16493167,26.42177667,6.053
     -80.16491000,26.42175333,5.953
     -80.16489167,26.42172833,6.053
     -80.16487667,26.42170333,5.754
     -80.16486000,26.42168000,5.754
     -80.16484833,26.42165167,5.954
     -80.16483500,26.42162500,6.254
     -80.16482333,26.42159833,6.354
     -80.16481000,26.42157167,6.254
     -80.16479333,26.42154000,6.254
     -80.16477833,26.42151167,6.154
     -80.16476000,26.42148167,6.454
     -80.16474167,26.42145000,6.554
     -80.16472000,26.42142500,6.754
     -80.16470167,26.42140333,6.854
     -80.16468333,26.42138167,7.054
     -80.16466833,26.42135833,7.054
     -80.16466000,26.42133833,8.054
     -80.16464500,26.42131667,9.254
     -80.16463167,26.42129667,9.854
     -80.16461667,26.42128000,11.154
     -80.16460167,26.42125833,11.754
     -80.16458833,26.42123500,12.054
     -80.16457833,26.42121167,11.654
     -80.16456833,26.42118500,11.055
     -80.16455667,26.42115833,10.455
     -80.16454333,26.42113167,10.155
     -80.16452667,26.42110500,9.855
     -80.16451167,26.42108000,9.555
     -80.16449833,26.42105500,9.255
     -80.16448167,26.42103000,9.255
     -80.16446833,26.42100667,9.255
     -80.16445667,26.42098333,9.455
     -80.16444500,26.42095833,9.555
     -80.16443500,26.42093167,9.555
     -80.16442333,26.42090500,9.655
     -80.16441333,26.42087833,9.355
     -80.16440333,26.42085333,9.455
     -80.16439333,26.42083167,9.555
     -80.16437833,26.42081167,10.255
     -80.16436500,26.42079167,10.355
     -80.16435333,26.42076667,10.855
     -80.16434333,26.42074000,10.755
     -80.16434000,26.42071667,10.555
     -80.16434000,26.42069167,10.355
     -80.16433833,26.42066667,10.855
     -80.16433667,26.42064500,10.955
     -80.16433833,26.42063000,10.755
     -80.16433500,26.42061667,9.955
     -80.16433667,26.42060500,9.655
     -80.16433667,26.42059167,9.955
     -80.16434167,26.42058000,9.855
     -80.16435167,26.42056833,9.755
     -80.16436500,26.42055667,9.555
     -80.16438167,26.42054667,9.255
     -80.16439333,26.42054000,9.255
     -80.16440500,26.42053667,9.255
     -80.16442167,26.42052833,9.855
     -80.16444500,26.42051833,10.355
     -80.16446667,26.42050833,10.455
     -80.16448667,26.42050000,10.754
     -80.16450833,26.42049500,10.654
     -80.16453000,26.42048333,10.854
     -80.16455000,26.42047500,10.954
     -80.16458167,26.42047000,11.254
     -80.16461167,26.42046500,10.854
     -80.16464333,26.42045833,9.954
     -80.16467667,26.42045500,9.354
     -80.16470500,26.42044833,9.154
     -80.16473333,26.42043833,9.353
     -80.16476000,26.42043000,9.553
     -80.16479000,26.42042167,10.053
     -80.16482333,26.42041167,9.953
     -80.16484833,26.42040167,9.653
     -80.16487833,26.42039000,9.753
     -80.16490833,26.42037167,10.253
     -80.16493667,26.42036167,10.053
     -80.16496333,26.42035167,9.952
     -80.16500000,26.42034500,10.252
     -80.16503000,26.42033167,9.752
     -80.16505167,26.42032167,9.652
     -80.16508000,26.42031000,9.652
     -80.16511000,26.42029667,9.752
     -80.16514167,26.42028833,9.552
     -80.16517167,26.42028000,9.052
     -80.16520500,26.42026833,8.551
     -80.16523833,26.42025667,8.451
     -80.16526167,26.42024833,8.351
     -80.16528667,26.42023833,8.151
     -80.16531833,26.42022667,7.851
     -80.16535500,26.42021667,6.951
     -80.16538500,26.42020333,6.851
     -80.16541667,26.42019000,6.650
     -80.16545000,26.42018000,6.550
     -80.16548333,26.42017333,6.450
     -80.16551500,26.42016833,6.450
     -80.16554500,26.42015500,6.550
     -80.16556833,26.42014333,6.950
     -80.16559833,26.42012333,7.250
     -80.16562167,26.42011000,7.250
     -80.16564833,26.42009167,7.149
     -80.16568500,26.42007333,7.249
     -80.16572000,26.42005667,7.049
     -80.16575000,26.42004167,6.849
     -80.16577667,26.42002500,7.049
     -80.16580500,26.42001167,7.149
     -80.16583500,26.41999667,7.249
     -80.16586167,26.41998333,7.449
     -80.16588667,26.41997333,7.848
     -80.16591500,26.41996500,8.148
     -80.16594667,26.41995167,9.248
     -80.16597167,26.41993500,9.648
     -80.16600000,26.41991667,9.948
     -80.16602667,26.41989167,9.948
     -80.16605000,26.41987500,10.248
     -80.16607333,26.41985500,10.248
     -80.16610000,26.41983167,9.947
     -80.16612500,26.41981000,9.747
     -80.16614667,26.41979333,9.947
     -80.16617333,26.41978500,10.447
     -80.16619833,26.41976667,11.047
     -80.16622167,26.41975500,11.347
     -80.16624333,26.41974167,12.247
     -80.16627000,26.41971833,12.647
     -80.16629500,26.41969500,13.147
     -80.16632000,26.41967833,13.646
     -80.16635000,26.41966500,13.946
     -80.16637000,26.41965000,14.046
     -80.16639167,26.41964500,14.146
     -80.16640500,26.41963500,13.946
     -80.16641333,26.41962167,14.146
     -80.16642167,26.41960667,14.046
     -80.16643000,26.41959667,14.146
     -80.16643833,26.41958667,13.946
     -80.16645167,26.41957333,13.646
     -80.16646500,26.41956000,14.046
     -80.16648667,26.41955000,14.446
     -80.16650667,26.41953833,14.446
     -80.16652667,26.41952667,14.946
     -80.16654667,26.41950500,15.145
     -80.16656667,26.41948333,15.745
     -80.16658833,26.41946333,16.045
     -80.16661333,26.41944333,15.745
     -80.16663833,26.41942333,15.445
     -80.16665833,26.41940167,15.145
     -80.16668333,26.41937833,15.045
     -80.16670500,26.41935500,15.145
     -80.16672500,26.41933167,15.245
     -80.16674500,26.41930667,15.344
     -80.16676500,26.41928167,15.344
     -80.16678500,26.41925833,15.144
     -80.16680333,26.41923333,15.344
     -80.16682500,26.41921167,15.244
     -80.16684000,26.41919667,15.244
     -80.16686167,26.41917500,15.544
     -80.16688000,26.41915667,15.544
     -80.16690500,26.41913333,15.444
     -80.16693000,26.41911167,15.144
     -80.16695667,26.41909167,14.843
     -80.16698167,26.41907000,14.443
     -80.16700500,26.41905000,14.143
     -80.16702833,26.41902667,13.143
     -80.16705000,26.41900333,12.343
     -80.16707167,26.41897833,11.843
     -80.16708833,26.41895667,12.243
     -80.16711167,26.41893500,12.443
     -80.16713167,26.41891333,12.743
     -80.16715500,26.41889000,13.043
     -80.16717167,26.41886667,13.242
     -80.16719000,26.41884333,13.342
     -80.16721000,26.41882000,13.542
     -80.16722833,26.41879667,12.342
     -80.16724667,26.41877000,12.342
     -80.16726333,26.41874667,12.242
     -80.16728000,26.41872167,12.542
     -80.16729833,26.41869500,12.742
     -80.16732000,26.41866833,11.942
     -80.16734000,26.41863833,11.642
     -80.16736333,26.41861167,11.642
     -80.16738167,26.41858667,11.141
     -80.16740000,26.41856167,11.141
     -80.16742000,26.41853500,11.141
     -80.16743833,26.41850833,11.241
     -80.16745500,26.41847833,11.141
     -80.16746833,26.41844833,10.841
     -80.16747667,26.41842000,10.041
     -80.16748833,26.41839000,9.641
     -80.16749833,26.41836333,9.341
     -80.16750667,26.41833333,9.841
     -80.16751500,26.41831000,9.741
     -80.16752333,26.41828500,9.241
     -80.16753500,26.41825333,7.941
     -80.16755500,26.41822500,7.541
     -80.16756333,26.41819667,7.540
     -80.16757000,26.41816833,7.340
     -80.16757833,26.41813833,7.740
     -80.16758833,26.41811000,7.740
     -80.16759667,26.41808167,7.840
     -80.16760667,26.41805167,7.740
     -80.16761500,26.41802333,8.040
     -80.16762333,26.41799333,8.140
     -80.16763000,26.41796500,8.540
     -80.16763333,26.41793500,9.140
     -80.16764000,26.41790500,9.540
     -80.16764500,26.41787500,9.240
     -80.16764833,26.41784500,8.840
     -80.16765167,26.41781500,8.640
     -80.16765000,26.41778833,8.740
     -80.16764833,26.41776167,9.340
     -80.16764667,26.41773500,9.640
     -80.16764167,26.41770500,10.040
     -80.16764167,26.41767333,9.940
     -80.16764500,26.41764333,10.040
     -80.16765167,26.41760500,10.240
     -80.16765500,26.41757000,10.040
     -80.16765500,26.41754167,9.540
     -80.16765000,26.41751500,9.240
     -80.16764500,26.41749167,9.140
     -80.16765000,26.41746667,9.640
     -80.16764333,26.41744667,9.940
     -80.16763333,26.41742333,10.040
     -80.16762333,26.41740000,9.840
     -80.16761333,26.41737500,9.840
     -80.16761000,26.41734833,10.040
     -80.16760833,26.41731667,9.640
     -80.16760500,26.41728833,9.840
     -80.16760333,26.41725667,9.540
     -80.16760333,26.41722333,9.240
     -80.16760000,26.41719500,9.140
     -80.16759833,26.41716167,9.040
     -80.16759333,26.41713000,9.040
     -80.16759000,26.41709833,8.940
     -80.16758167,26.41707167,9.640
     -80.16757333,26.41705000,9.940
     -80.16756167,26.41702500,9.740
     -80.16755000,26.41700167,9.740
     -80.16754333,26.41697333,9.540
     -80.16753500,26.41694500,9.540
     -80.16753167,26.41691333,9.140
     -80.16752333,26.41688167,8.640
     -80.16752000,26.41684833,9.240
     -80.16751167,26.41681667,9.640
     -80.16750167,26.41678500,9.540
     -80.16749333,26.41675167,9.940
     -80.16748500,26.41672167,9.840
     -80.16747500,26.41669167,9.740
     -80.16746667,26.41666167,9.640
     -80.16745000,26.41663167,9.140
     -80.16743500,26.41659833,8.940
     -80.16742167,26.41657000,8.840
     -80.16740833,26.41654167,8.540
     -80.16739667,26.41651167,7.940
     -80.16739000,26.41648333,8.040
     -80.16737833,26.41645667,7.940
     -80.16736500,26.41643167,7.440
     -80.16735167,26.41640667,7.540
     -80.16734000,26.41638167,7.740
     -80.16732500,26.41635667,8.640
     -80.16731333,26.41633000,8.940
     -80.16730000,26.41630333,9.341
     -80.16728667,26.41627500,10.641
     -80.16726833,26.41624833,11.941
     -80.16724833,26.41622000,13.141
     -80.16722833,26.41619333,13.941
     -80.16720833,26.41616833,14.041
     -80.16718667,26.41614667,13.641
     -80.16716500,26.41612667,13.241
     -80.16714167,26.41610500,12.341
     -80.16712333,26.41608333,11.641
     -80.16710500,26.41606333,11.141
     -80.16708833,26.41604333,10.941
     -80.16707833,26.41602833,10.541
     -80.16707833,26.41600833,11.841
     -80.16707833,26.41600167,12.741
     -80.16708000,26.41600500,14.041
     -80.16708000,26.41600167,14.941
     -80.16707500,26.41599667,15.441
     -80.16707167,26.41599833,15.841
     -80.16707000,26.41600000,16.241
     -80.16706167,26.41599333,16.641
     -80.16705500,26.41598167,16.741
     -80.16704167,26.41596833,16.441
     -80.16702500,26.41595667,16.341
     -80.16700833,26.41594167,16.742
     -80.16699333,26.41592667,16.942
     -80.16697667,26.41591500,17.142
     -80.16695833,26.41590000,16.842
     -80.16693833,26.41588500,16.742
     -80.16692000,26.41586667,16.542
     -80.16690000,26.41584500,16.242
     -80.16687667,26.41582833,16.042
     -80.16684833,26.41581333,16.242
     -80.16682333,26.41579500,15.742
     -80.16679833,26.41577667,15.142
     -80.16676833,26.41576000,14.742
     -80.16673833,26.41573833,14.043
     -80.16671167,26.41572167,13.243
     -80.16667833,26.41570667,12.743
     -80.16664333,26.41569167,12.443
     -80.16661167,26.41567667,11.843
     -80.16658667,26.41566167,11.443
     -80.16655500,26.41564833,10.943
     -80.16652500,26.41563667,11.143
     -80.16649833,26.41562333,11.543
     -80.16647167,26.41560500,12.544
     -80.16644167,26.41559167,12.144
     -80.16641167,26.41558000,11.944
     -80.16638167,26.41556667,11.844
     -80.16635000,26.41555833,12.644
     -80.16631833,26.41554833,12.344
     -80.16629833,26.41553833,11.344
     -80.16626667,26.41552667,10.744
     -80.16623833,26.41551667,9.844
     -80.16621000,26.41550500,9.345
     -80.16618167,26.41550000,8.745
     -80.16615333,26.41549167,8.445
     -80.16612167,26.41548000,8.245
     -80.16609000,26.41547000,8.345
     -80.16605500,26.41545833,8.045
     -80.16602667,26.41544667,7.745
     -80.16600000,26.41543500,7.345
     -80.16597667,26.41541500,7.745
     -80.16595667,26.41540000,8.146
     -80.16594000,26.41539167,8.546
     -80.16591833,26.41538000,9.646
     -80.16589500,26.41536667,10.446
     -80.16586833,26.41535833,10.646
     -80.16584167,26.41534500,10.846
     -80.16581333,26.41533333,11.446
     -80.16577833,26.41531833,12.146
     -80.16575000,26.41530667,12.446
     -80.16571833,26.41529667,12.646
     -80.16568500,26.41528667,12.747
     -80.16565667,26.41527333,12.947
     -80.16562833,26.41526167,13.247
     -80.16559667,26.41524833,13.247
     -80.16556500,26.41523500,14.047
     -80.16553833,26.41522167,14.147
     -80.16551333,26.41520833,13.947
     -80.16549000,26.41519500,14.147
     -80.16546167,26.41518167,14.347
     -80.16543500,26.41516667,14.448
     -80.16540333,26.41515167,14.448
     -80.16537167,26.41513833,14.648
     -80.16534333,26.41512333,15.148
     -80.16531333,26.41511000,14.948
     -80.16528833,26.41509500,14.748
     -80.16526333,26.41507667,14.748
     -80.16523333,26.41505833,14.848
     -80.16520833,26.41504167,14.848
     -80.16518167,26.41502833,15.449
     -80.16515500,26.41501500,15.849
     -80.16514000,26.41500167,16.049
     -80.16512000,26.41499000,16.149
     -80.16510167,26.41497500,16.649
     -80.16508000,26.41496500,16.949
     -80.16505667,26.41495500,16.849
     -80.16503500,26.41494500,17.249
     -80.16501000,26.41493833,17.749
     -80.16498000,26.41492500,17.849
     -80.16495333,26.41491000,18.049
     -80.16492333,26.41489667,18.150
     -80.16489167,26.41488333,17.950
     -80.16486000,26.41487000,17.450
     -80.16482167,26.41485667,16.850
     -80.16478333,26.41484167,16.350
     -80.16475500,26.41483167,16.050
     -80.16473167,26.41482333,16.050
     -80.16471000,26.41481667,16.650
     -80.16468833,26.41480500,17.250
     -80.16466667,26.41479500,17.251
     -80.16464167,26.41478833,17.051
     -80.16461500,26.41478167,16.651
     -80.16458333,26.41477667,16.251
     -80.16455333,26.41476667,15.851
     -80.16452333,26.41475833,15.151
     -80.16449333,26.41474667,14.651
     -80.16446500,26.41473167,13.951
     -80.16443167,26.41471667,13.551
     -80.16440167,26.41470333,13.252
     -80.16437333,26.41468833,12.652
     -80.16435000,26.41467500,12.452
     -80.16432500,26.41466000,12.052
     -80.16431500,26.41464667,11.852
     -80.16428333,26.41464000,11.652
     -80.16425667,26.41463167,12.652
     -80.16422333,26.41462833,12.652
     -80.16419167,26.41462333,12.452
     -80.16415833,26.41461500,12.753
     -80.16412167,26.41460333,13.653
     -80.16409167,26.41459167,13.353
     -80.16406333,26.41458000,13.553
     -80.16403500,26.41456833,13.453
     -80.16400833,26.41455333,14.753
     -80.16398000,26.41454000,14.653
     -80.16395333,26.41452833,14.253
     -80.16393000,26.41451167,14.353
     -80.16390000,26.41450000,14.454
     -80.16387333,26.41448667,14.254
     -80.16384500,26.41447500,13.854
     -80.16381500,26.41446500,14.054
     -80.16378667,26.41445667,14.254
     -80.16375833,26.41445167,14.454
     -80.16372833,26.41445667,15.254
     -80.16369333,26.41446333,15.654
     -80.16366500,26.41447167,16.354
     -80.16363333,26.41447667,16.255
     -80.16360000,26.41449000,16.055
     -80.16356500,26.41449833,15.355
     -80.16353500,26.41451500,15.555
     -80.16351000,26.41453333,15.555
     -80.16348667,26.41455500,15.155
     -80.16347167,26.41457833,15.455
     -80.16345500,26.41460167,14.955
     -80.16343667,26.41462833,14.656
     -80.16341667,26.41465167,14.256
     -80.16339667,26.41467333,13.856
     -80.16337833,26.41469167,13.956
     -80.16336167,26.41471167,14.256
     -80.16334667,26.41473333,14.456
     -80.16332667,26.41475500,14.056
     -80.16330667,26.41477500,13.956
     -80.16329667,26.41479333,14.556
     -80.16328167,26.41481500,15.156
     -80.16326667,26.41483667,15.656
     -80.16324667,26.41486167,16.256
     -80.16322500,26.41488167,16.457
     -80.16320833,26.41489667,17.457
     -80.16318833,26.41490667,17.757
     -80.16316500,26.41492167,17.757
     -80.16314333,26.41493833,17.657
     -80.16311833,26.41495000,18.057
     -80.16308833,26.41495833,18.257
     -80.16305667,26.41495667,18.257
     -80.16302667,26.41495000,18.357
     -80.16299833,26.41493833,18.157
     -80.16297500,26.41492667,17.858
     -80.16296000,26.41491333,18.158
     -80.16295500,26.41489833,18.758
     -80.16295500,26.41488167,18.458
     -80.16296333,26.41486000,18.058
     -80.16297500,26.41484500,17.758
     -80.16299000,26.41483000,17.257
     -80.16301000,26.41481333,16.257
     -80.16302833,26.41480000,14.957
     -80.16304833,26.41478667,14.057
     -80.16306667,26.41477167,13.657
     -80.16308667,26.41475667,13.557
     -80.16310833,26.41474333,13.857
     -80.16312667,26.41472667,13.957
     -80.16314333,26.41470667,14.157
     -80.16314667,26.41468167,13.657
     -80.16314333,26.41465500,13.257
     -80.16313333,26.41463000,13.257
     -80.16311833,26.41461000,13.957
     -80.16309500,26.41459500,14.357
     -80.16307000,26.41458333,14.757
     -80.16304167,26.41457333,15.057
     -80.16301500,26.41456833,14.857
     -80.16298333,26.41456333,14.657
     -80.16295500,26.41456167,14.657
     -80.16292833,26.41455500,14.658
     -80.16290667,26.41453833,15.458
     -80.16288333,26.41452833,15.658
     -80.16286333,26.41452167,16.458
     -80.16284500,26.41451333,16.358
     -80.16283000,26.41451500,16.358
     -80.16282333,26.41452000,16.358
     -80.16282833,26.41452000,16.958
     -80.16283000,26.41452167,17.158
     -80.16283333,26.41451833,16.958
     -80.16283667,26.41452167,16.858
     -80.16283833,26.41452167,16.758
     -80.16284000,26.41452333,16.858
     -80.16284000,26.41452500,16.758
     -80.16284000,26.41452833,16.658
     -80.16284167,26.41453167,16.658
     -80.16284333,26.41453333,16.758
     -80.16284333,26.41453333,16.758
     -80.16284333,26.41453333,16.758
     -80.16284333,26.41453333,16.758
     -80.16284333,26.41453333,16.758
     -80.16284333,26.41453333,16.758
     -80.16284333,26.41453333,16.758
     -80.16284333,26.41453333,16.758
     -80.16284333,26.41453333,16.758
     -80.16284333,26.41453333,16.758
     -80.16284333,26.41453333,16.758
     -80.16284333,26.41453333,16.758
     -80.16284333,26.41453333,16.758
     -80.16284333,26.41453333,16.758
     -80.16284333,26.41453333,16.758
     -80.16284333,26.41453333,16.758
     -80.16284333,26.41453333,16.758
     -80.16284333,26.41453333,16.758
     -80.16284333,26.41453333,16.758
     -80.16284333,26.41453333,16.758
     -80.16284333,26.41453333,16.758
     -80.16284333,26.41453333,16.758
     -80.16284333,26.41453333,16.758
     -80.16284333,26.41453333,16.758
     -80.16284333,26.41453333,16.758
     -80.16284333,26.41453333,16.758
     -80.16284333,26.41453333,16.758
     -80.16284333,26.41453333,16.758
     -80.16284333,26.41453333,16.758
     -80.16284333,26.41453333,16.758
     -80.16284333,26.41453333,16.758
     -80.16284333,26.41453333,16.758
     -80.16284333,26.41453333,16.758
     -80.16284333,26.41453333,16.758
     -80.16284333,26.41453333,16.758
     -80.16284333,26.41453333,16.758
     -80.16284333,26.41453333,16.758
     -80.16284333,26.41453333,16.758
     -80.16284333,26.41453333,16.758
     -80.16284333,26.41453333,16.758
     -80.16284333,26.41453333,16.758
     -80.16284333,26.41453333,16.758
     -80.16284333,26.41453333,16.758
     -80.16284333,26.41453333,16.758
     -80.16284333,26.41453333,16.758
     -80.16284333,26.41453333,16.758
     -80.16285000,26.41456333,18.558
     -80.16284333,26.41456000,18.358
     -80.16283167,26.41455500,18.058
     -80.16282167,26.41455167,17.958
     -80.16281167,26.41455167,17.558
     -80.16280000,26.41455667,17.558
     -80.16279000,26.41455833,17.758
     -80.16278667,26.41456000,17.858
     -80.16278000,26.41456167,17.958
     -80.16277000,26.41456167,18.058
     -80.16276000,26.41456500,18.258
     -80.16275167,26.41456500,18.558
     -80.16274833,26.41456000,18.758
     -80.16275000,26.41456000,19.058
     -80.16274333,26.41455500,19.358
     -80.16273833,26.41455167,19.558
     -80.16273333,26.41455167,19.558
     -80.16273333,26.41454333,19.558
     -80.16273500,26.41455000,20.058
     -80.16273833,26.41455000,20.158
     -80.16274000,26.41455167,20.358
     -80.16274000,26.41455333,20.458
     -80.16273833,26.41455167,20.758
     -80.16273833,26.41455167,20.758
     -80.16273833,26.41455167,20.758
     -80.16273833,26.41455167,20.758
     -80.16273833,26.41455167,20.758
     -80.16273833,26.41455167,20.758
     -80.16273833,26.41455167,20.758
     -80.16273833,26.41455167,20.758
     -80.16273833,26.41455167,20.758
     -80.16273833,26.41455167,20.758
     -80.16273833,26.41455167,20.758
     -80.16273833,26.41455167,20.758
     -80.16273833,26.41455167,20.758
     -80.16273833,26.41455167,20.758
    </coordinates>
   </LineString>
  </Placemark>

 </Document>
</kml>
 