<?xml version="1.0" encoding="UTF-8"?>
<!-- Created with BasicAirData GPS Logger for Android - ver. 3.3.0 -->
<!-- Track 20 = 286 TrackPoints + 2 Placemarks -->
<kml xmlns="http://www.opengis.net/kml/2.2">
 <Document>
  <name>GPS Logger 20260724-143912</name>
  <description><![CDATA[Station5-Maintenance
286 Trackpoints + 2 Placemarks]]></description>
  <Style id="TrackStyle">
   <LineStyle>
    <color>ff0000ff</color>
    <width>3</width>
   </LineStyle>
   <PolyStyle>
    <color>7f0000ff</color>
   </PolyStyle>
   <BalloonStyle>
    <text><![CDATA[<p style="color:red;font-weight:bold">$[name]</p><p style="font-size:11px">$[description]</p><p style="font-size:7px">Track Stats based on: Total time | Time in Movement</p>]]></text>
   </BalloonStyle>
  </Style>
  <Style id="PlacemarkStyle">
   <IconStyle>
    <Icon><href>http://maps.google.com/mapfiles/kml/shapes/placemark_circle_highlight.png</href></Icon>
   </IconStyle>
  </Style>

  <Placemark id="1">
   <name>Station5</name>
   <styleUrl>#PlacemarkStyle</styleUrl>
   <Point>
    <altitudeMode>clampToGround</altitudeMode>
    <coordinates>-80.16270000,26.41457500,17.559</coordinates>
    <extrude>1</extrude>
   </Point>
  </Placemark>

  <Placemark id="2">
   <name>Maintenance</name>
   <styleUrl>#PlacemarkStyle</styleUrl>
   <Point>
    <altitudeMode>clampToGround</altitudeMode>
    <coordinates>-80.16452333,26.41607833,17.552</coordinates>
    <extrude>1</extrude>
   </Point>
  </Placemark>

  <Placemark id="20260724-143912">
   <name>Track 20260724-143912</name>
   <description><![CDATA[<b>Station5-Maintenance</b><br><br>Distance = 359 m<br>Duration = 04:45 | 02:30<br>Altitude Gap = 0 m<br>Max Speed = 7 mph<br>Avg Speed = 2.8 | 5.4 mph<br>Direction = NW <br><br><i>286 Trackpoints</i>]]></description>
   <styleUrl>#TrackStyle</styleUrl>
   <LineString>
    <extrude>0</extrude>
    <tessellate>0</tessellate>
    <altitudeMode>clampToGround</altitudeMode>
    <coordinates>
     -80.16270000,26.41457500,17.559
     -80.16270000,26.41457500,17.559
     -80.16270000,26.41457500,17.559
     -80.16270000,26.41457500,17.559
     -80.16270000,26.41457500,17.559
     -80.16270000,26.41457500,17.559
     -80.16270000,26.41457500,17.559
     -80.16270000,26.41457500,17.559
     -80.16270000,26.41457500,17.559
     -80.16270000,26.41457500,17.559
     -80.16270000,26.41457500,17.559
     -80.16270000,26.41457500,17.559
     -80.16270000,26.41457500,17.559
     -80.16270000,26.41457500,17.559
     -80.16270000,26.41457500,17.559
     -80.16270000,26.41457500,17.559
     -80.16270000,26.41457500,17.559
     -80.16272167,26.41458000,18.058
     -80.16273500,26.41457833,17.558
     -80.16274833,26.41457333,17.058
     -80.16276167,26.41456500,16.358
     -80.16277333,26.41456000,16.158
     -80.16279000,26.41455667,16.158
     -80.16280000,26.41455167,16.058
     -80.16280833,26.41454500,15.758
     -80.16280833,26.41453667,15.258
     -80.16281000,26.41452500,15.058
     -80.16280667,26.41452167,15.358
     -80.16280333,26.41452333,15.858
     -80.16280167,26.41452333,16.058
     -80.16280000,26.41452500,16.258
     -80.16280167,26.41452667,16.358
     -80.16280167,26.41453000,16.158
     -80.16280500,26.41453000,16.158
     -80.16280000,26.41453500,16.258
     -80.16279833,26.41454333,16.558
     -80.16279833,26.41454167,16.858
     -80.16279833,26.41454167,16.958
     -80.16279833,26.41454167,16.958
     -80.16279833,26.41454167,16.958
     -80.16279833,26.41454167,16.958
     -80.16279833,26.41454167,16.958
     -80.16279833,26.41454167,16.958
     -80.16279833,26.41454167,16.958
     -80.16279833,26.41454167,16.958
     -80.16279833,26.41454167,16.958
     -80.16279833,26.41454167,16.958
     -80.16279833,26.41454167,16.958
     -80.16279833,26.41454167,16.958
     -80.16279833,26.41454167,16.958
     -80.16279833,26.41454167,16.958
     -80.16279833,26.41454167,16.958
     -80.16279833,26.41454167,16.958
     -80.16279833,26.41454167,16.958
     -80.16279833,26.41454167,16.958
     -80.16279833,26.41454167,16.958
     -80.16279833,26.41454167,16.958
     -80.16279833,26.41454167,16.958
     -80.16279833,26.41454167,16.958
     -80.16279833,26.41454167,16.958
     -80.16279833,26.41454167,16.958
     -80.16279833,26.41454167,16.958
     -80.16279833,26.41454167,16.958
     -80.16279833,26.41454167,16.958
     -80.16279833,26.41454167,16.958
     -80.16279833,26.41454167,16.958
     -80.16279833,26.41454167,16.958
     -80.16279833,26.41454167,16.958
     -80.16279833,26.41454167,16.958
     -80.16279833,26.41454167,16.958
     -80.16279833,26.41454167,16.958
     -80.16279833,26.41454167,16.958
     -80.16279833,26.41454167,16.958
     -80.16279833,26.41454167,16.958
     -80.16279833,26.41454167,16.958
     -80.16279833,26.41454167,16.958
     -80.16279833,26.41454167,16.958
     -80.16280000,26.41455000,20.458
     -80.16280667,26.41455333,20.358
     -80.16281167,26.41455333,20.258
     -80.16281833,26.41455500,20.158
     -80.16281667,26.41455667,20.158
     -80.16281167,26.41455833,20.158
     -80.16281167,26.41455833,20.158
     -80.16278667,26.41455667,20.158
     -80.16277500,26.41456000,19.758
     -80.16277000,26.41456000,18.958
     -80.16277000,26.41457333,18.058
     -80.16276500,26.41458833,18.058
     -80.16276667,26.41460333,17.858
     -80.16277000,26.41462167,17.258
     -80.16277167,26.41464167,16.358
     -80.16277333,26.41466000,15.858
     -80.16277333,26.41467667,13.958
     -80.16277500,26.41469333,12.758
     -80.16278333,26.41471500,12.158
     -80.16279333,26.41473500,11.558
     -80.16280167,26.41475333,10.758
     -80.16281167,26.41478000,9.458
     -80.16281833,26.41479833,8.758
     -80.16282167,26.41482833,8.658
     -80.16282667,26.41485500,7.858
     -80.16283167,26.41488000,7.258
     -80.16284000,26.41490500,6.658
     -80.16285500,26.41492833,6.558
     -80.16286500,26.41494500,6.758
     -80.16287333,26.41495500,7.058
     -80.16288833,26.41496333,7.258
     -80.16290667,26.41497333,7.358
     -80.16293000,26.41497667,8.458
     -80.16294833,26.41498000,8.858
     -80.16296667,26.41498500,9.158
     -80.16298167,26.41499500,9.558
     -80.16299667,26.41500333,9.658
     -80.16301500,26.41500833,9.657
     -80.16303667,26.41501500,9.357
     -80.16305833,26.41502333,9.357
     -80.16307833,26.41503167,9.457
     -80.16310167,26.41503667,9.357
     -80.16312667,26.41503833,8.957
     -80.16315500,26.41503333,8.357
     -80.16318333,26.41502667,7.857
     -80.16320833,26.41501833,7.857
     -80.16323000,26.41500833,7.757
     -80.16325500,26.41500000,7.556
     -80.16328667,26.41499333,7.656
     -80.16331333,26.41497667,7.656
     -80.16333000,26.41495833,7.756
     -80.16334333,26.41494000,8.156
     -80.16335667,26.41492833,8.556
     -80.16337167,26.41492000,8.756
     -80.16338333,26.41490833,8.856
     -80.16340500,26.41491333,9.156
     -80.16341833,26.41490667,9.256
     -80.16343167,26.41489833,9.256
     -80.16345167,26.41489500,8.556
     -80.16347167,26.41489500,7.856
     -80.16349500,26.41489833,7.755
     -80.16352333,26.41490833,7.055
     -80.16354500,26.41492333,6.555
     -80.16357167,26.41494333,6.255
     -80.16358833,26.41497000,6.155
     -80.16360167,26.41499500,5.255
     -80.16361333,26.41501500,4.955
     -80.16362333,26.41503667,5.055
     -80.16363833,26.41505500,5.655
     -80.16365500,26.41507833,5.855
     -80.16367167,26.41510333,5.755
     -80.16368667,26.41513000,5.855
     -80.16370000,26.41515333,6.155
     -80.16371500,26.41517333,6.455
     -80.16373000,26.41519000,6.455
     -80.16375000,26.41520333,6.855
     -80.16377500,26.41521333,7.354
     -80.16380167,26.41521833,7.454
     -80.16383000,26.41520667,8.654
     -80.16386000,26.41520167,9.254
     -80.16389000,26.41519667,9.354
     -80.16392333,26.41519000,8.854
     -80.16395333,26.41518000,8.454
     -80.16398333,26.41517500,8.354
     -80.16401167,26.41517000,8.353
     -80.16404333,26.41516667,7.253
     -80.16407500,26.41516333,6.453
     -80.16410833,26.41516667,6.253
     -80.16414167,26.41517000,4.453
     -80.16417167,26.41517667,3.453
     -80.16420500,26.41518667,2.553
     -80.16423833,26.41519833,1.653
     -80.16427167,26.41520833,1.252
     -80.16429667,26.41520500,0.652
     -80.16432333,26.41521167,0.452
     -80.16435833,26.41522333,0.252
     -80.16438500,26.41523500,0.352
     -80.16440333,26.41524167,0.152
     -80.16443167,26.41526167,-0.348
     -80.16446000,26.41528333,-0.948
     -80.16447833,26.41530500,-1.248
     -80.16449833,26.41532500,-1.248
     -80.16453500,26.41534167,-0.649
     -80.16455333,26.41535833,0.151
     -80.16456500,26.41537833,1.051
     -80.16457500,26.41540000,2.351
     -80.16459167,26.41542500,2.351
     -80.16460833,26.41544833,3.251
     -80.16462000,26.41547667,2.751
     -80.16463000,26.41551333,3.551
     -80.16464167,26.41554333,4.151
     -80.16465167,26.41557000,4.151
     -80.16466167,26.41559000,3.951
     -80.16466667,26.41562667,5.251
     -80.16467000,26.41566000,6.151
     -80.16466667,26.41568000,6.251
     -80.16466667,26.41570667,6.351
     -80.16466167,26.41573500,6.351
     -80.16465667,26.41576167,6.351
     -80.16465167,26.41579167,6.751
     -80.16465500,26.41581833,7.851
     -80.16465500,26.41584167,8.951
     -80.16465667,26.41585833,9.551
     -80.16465833,26.41587667,10.151
     -80.16466833,26.41589333,10.151
     -80.16467833,26.41591500,10.251
     -80.16468333,26.41593167,10.151
     -80.16469000,26.41594500,9.651
     -80.16469333,26.41596500,9.751
     -80.16469167,26.41598333,9.551
     -80.16468500,26.41599833,9.351
     -80.16467167,26.41600500,9.151
     -80.16466000,26.41600833,9.251
     -80.16465000,26.41601167,9.851
     -80.16463500,26.41601500,10.251
     -80.16462167,26.41602000,10.751
     -80.16461167,26.41602167,11.151
     -80.16459833,26.41602333,11.651
     -80.16458833,26.41603167,12.152
     -80.16458167,26.41604333,12.452
     -80.16457167,26.41605500,13.052
     -80.16455333,26.41606500,13.452
     -80.16454333,26.41607167,13.952
     -80.16453333,26.41607667,14.652
     -80.16452833,26.41607667,14.952
     -80.16452333,26.41607833,14.952
     -80.16451667,26.41608000,15.252
     -80.16450833,26.41607500,15.252
     -80.16450500,26.41607500,15.352
     -80.16450167,26.41607500,15.552
     -80.16450167,26.41607500,15.852
     -80.16449667,26.41606833,15.652
     -80.16449667,26.41606833,15.652
     -80.16449667,26.41606833,15.652
     -80.16449667,26.41606833,15.652
     -80.16449667,26.41606833,15.652
     -80.16449667,26.41606833,15.652
     -80.16449667,26.41606833,15.652
     -80.16449667,26.41606833,15.652
     -80.16449667,26.41606833,15.652
     -80.16449667,26.41606833,15.652
     -80.16449667,26.41606833,15.652
     -80.16449667,26.41606833,15.652
     -80.16449667,26.41606833,15.652
     -80.16450333,26.41607500,16.752
     -80.16450667,26.41607667,16.852
     -80.16451333,26.41607667,17.352
     -80.16452333,26.41607833,17.552
     -80.16452333,26.41607833,17.552
     -80.16452333,26.41607833,17.552
     -80.16452333,26.41607833,17.552
     -80.16452333,26.41607833,17.552
     -80.16452333,26.41607833,17.552
     -80.16452333,26.41607833,17.552
     -80.16452333,26.41607833,17.552
     -80.16452333,26.41607833,17.552
     -80.16452333,26.41607833,17.552
     -80.16452333,26.41607833,17.552
     -80.16452333,26.41607833,17.552
     -80.16452333,26.41607833,17.552
     -80.16452333,26.41607833,17.552
     -80.16452333,26.41607833,17.552
     -80.16452333,26.41607833,17.552
     -80.16452333,26.41607833,17.552
     -80.16452333,26.41607833,17.552
     -80.16452333,26.41607833,17.552
     -80.16452333,26.41607833,17.552
     -80.16452333,26.41607833,17.552
     -80.16452333,26.41607833,17.552
     -80.16452333,26.41607833,17.552
     -80.16452333,26.41607833,17.552
     -80.16452333,26.41607833,17.552
     -80.16452333,26.41607833,17.552
     -80.16452333,26.41607833,17.552
     -80.16452333,26.41607833,17.552
     -80.16452333,26.41607833,17.552
     -80.16452333,26.41607833,17.552
     -80.16452333,26.41607833,17.552
     -80.16452333,26.41607833,17.552
     -80.16452333,26.41607833,17.552
     -80.16452333,26.41607833,17.552
     -80.16452333,26.41607833,17.552
     -80.16452333,26.41607833,17.552
     -80.16452333,26.41607833,17.552
     -80.16452333,26.41607833,17.552
     -80.16452333,26.41607833,17.552
     -80.16452333,26.41607833,17.552
     -80.16452333,26.41607833,17.552
     -80.16452333,26.41607833,17.552
    </coordinates>
   </LineString>
  </Placemark>

 </Document>
</kml>
 