<?xml version="1.0" encoding="UTF-8"?>
<!-- Created with BasicAirData GPS Logger for Android - ver. 3.3.0 -->
<!-- Track 14 = 736 TrackPoints + 5 Placemarks -->
<kml xmlns="http://www.opengis.net/kml/2.2">
 <Document>
  <name>GPS Logger 20260724-112247</name>
  <description><![CDATA[ST2-3
736 Trackpoints + 5 Placemarks]]></description>
  <Style id="TrackStyle">
   <LineStyle>
    <color>ff0000ff</color>
    <width>3</width>
   </LineStyle>
   <PolyStyle>
    <color>7f0000ff</color>
   </PolyStyle>
   <BalloonStyle>
    <text><![CDATA[<p style="color:red;font-weight:bold">$[name]</p><p style="font-size:11px">$[description]</p><p style="font-size:7px">Track Stats based on: Total time | Time in Movement</p>]]></text>
   </BalloonStyle>
  </Style>
  <Style id="PlacemarkStyle">
   <IconStyle>
    <Icon><href>http://maps.google.com/mapfiles/kml/shapes/placemark_circle_highlight.png</href></Icon>
   </IconStyle>
  </Style>

  <Placemark id="1">
   <name>Station2</name>
   <styleUrl>#PlacemarkStyle</styleUrl>
   <Point>
    <altitudeMode>clampToGround</altitudeMode>
    <coordinates>-80.15282500,26.42368833,7.004</coordinates>
    <extrude>1</extrude>
   </Point>
  </Placemark>

  <Placemark id="2">
   <name>Int13</name>
   <styleUrl>#PlacemarkStyle</styleUrl>
   <Point>
    <altitudeMode>clampToGround</altitudeMode>
    <coordinates>-80.16329000,26.42080000,1.560</coordinates>
    <extrude>1</extrude>
   </Point>
  </Placemark>

  <Placemark id="3">
   <name>Int14</name>
   <styleUrl>#PlacemarkStyle</styleUrl>
   <Point>
    <altitudeMode>clampToGround</altitudeMode>
    <coordinates>-80.16474833,26.42040333,0.153</coordinates>
    <extrude>1</extrude>
   </Point>
  </Placemark>

  <Placemark id="4">
   <name>Int15</name>
   <styleUrl>#PlacemarkStyle</styleUrl>
   <Point>
    <altitudeMode>clampToGround</altitudeMode>
    <coordinates>-80.16767167,26.41736667,12.840</coordinates>
    <extrude>1</extrude>
   </Point>
  </Placemark>

  <Placemark id="5">
   <name>Station3</name>
   <styleUrl>#PlacemarkStyle</styleUrl>
   <Point>
    <altitudeMode>clampToGround</altitudeMode>
    <coordinates>-80.17014000,26.41654667,9.829</coordinates>
    <extrude>1</extrude>
   </Point>
  </Placemark>

  <Placemark id="20260724-112247">
   <name>Track 20260724-112247</name>
   <description><![CDATA[<b>ST2-3</b><br><br>Distance = 3.45 km<br>Duration = 12:15 | 09:44<br>Altitude Gap = 3 m<br>Max Speed = 20 mph<br>Avg Speed = 10.5 | 13.2 mph<br>Direction = WSW <br><br><i>736 Trackpoints</i>]]></description>
   <styleUrl>#TrackStyle</styleUrl>
   <LineString>
    <extrude>0</extrude>
    <tessellate>0</tessellate>
    <altitudeMode>clampToGround</altitudeMode>
    <coordinates>
     -80.15282500,26.42368833,7.004
     -80.15282500,26.42368833,7.004
     -80.15282500,26.42368833,7.004
     -80.15282500,26.42368833,7.004
     -80.15282500,26.42368833,7.004
     -80.15282500,26.42368833,7.004
     -80.15282500,26.42368833,7.004
     -80.15282500,26.42368833,7.004
     -80.15282500,26.42368833,7.004
     -80.15282500,26.42368833,7.004
     -80.15282500,26.42368833,7.004
     -80.15282500,26.42368833,7.004
     -80.15282500,26.42368833,7.004
     -80.15282500,26.42368833,7.004
     -80.15282500,26.42368833,7.004
     -80.15282500,26.42368833,7.004
     -80.15282333,26.42367833,8.204
     -80.15281833,26.42366833,8.304
     -80.15282000,26.42366333,8.304
     -80.15281500,26.42366167,8.204
     -80.15281500,26.42366500,8.004
     -80.15282000,26.42366667,7.604
     -80.15282667,26.42367000,7.304
     -80.15283333,26.42367333,7.104
     -80.15283833,26.42367333,7.104
     -80.15283667,26.42367333,6.904
     -80.15283667,26.42367333,6.904
     -80.15283333,26.42367333,6.804
     -80.15283167,26.42367333,6.804
     -80.15283167,26.42367333,6.804
     -80.15283167,26.42367333,6.804
     -80.15283167,26.42367333,6.804
     -80.15283167,26.42367333,6.804
     -80.15283167,26.42367333,6.804
     -80.15283167,26.42367333,6.804
     -80.15283167,26.42367333,6.804
     -80.15283167,26.42367333,6.804
     -80.15283167,26.42367333,6.804
     -80.15283167,26.42367333,6.804
     -80.15283167,26.42367333,6.804
     -80.15283167,26.42367333,6.804
     -80.15283167,26.42367333,6.804
     -80.15283167,26.42367333,6.804
     -80.15283167,26.42367333,6.804
     -80.15283167,26.42367333,6.804
     -80.15283167,26.42367333,6.804
     -80.15283167,26.42367333,6.804
     -80.15283167,26.42367333,6.804
     -80.15283167,26.42367333,6.804
     -80.15283167,26.42367333,6.804
     -80.15283167,26.42367333,6.804
     -80.15283167,26.42367333,6.804
     -80.15283167,26.42367333,6.804
     -80.15280833,26.42364500,7.304
     -80.15280833,26.42363333,7.404
     -80.15281167,26.42362500,7.604
     -80.15281833,26.42361833,7.704
     -80.15281833,26.42361167,7.704
     -80.15281833,26.42360167,8.204
     -80.15282000,26.42359167,8.904
     -80.15282000,26.42356667,9.004
     -80.15281333,26.42354500,9.204
     -80.15280833,26.42353333,9.404
     -80.15280000,26.42352833,9.604
     -80.15278667,26.42352333,9.604
     -80.15276833,26.42352000,9.404
     -80.15276500,26.42351833,9.104
     -80.15276000,26.42351667,9.004
     -80.15276500,26.42351167,8.904
     -80.15277667,26.42350500,8.904
     -80.15278833,26.42349167,9.104
     -80.15279833,26.42347667,9.104
     -80.15281167,26.42345667,8.604
     -80.15282333,26.42344000,8.604
     -80.15283500,26.42343167,8.204
     -80.15284833,26.42341833,7.504
     -80.15286500,26.42340000,7.404
     -80.15288333,26.42338667,7.004
     -80.15289833,26.42337667,6.504
     -80.15291667,26.42336667,6.004
     -80.15293667,26.42335667,6.104
     -80.15295333,26.42334167,6.304
     -80.15297333,26.42332833,6.503
     -80.15300000,26.42332000,6.203
     -80.15302500,26.42331167,6.103
     -80.15304667,26.42330167,6.003
     -80.15307500,26.42329167,5.703
     -80.15310000,26.42328167,5.503
     -80.15313000,26.42327167,5.703
     -80.15315333,26.42326000,5.403
     -80.15316833,26.42324667,5.403
     -80.15318333,26.42322833,5.403
     -80.15319833,26.42320833,4.902
     -80.15320500,26.42319167,4.302
     -80.15321500,26.42316833,3.302
     -80.15321167,26.42315000,3.102
     -80.15320833,26.42313500,2.802
     -80.15320167,26.42312500,2.602
     -80.15319667,26.42311667,2.702
     -80.15319667,26.42310500,2.702
     -80.15319833,26.42309167,3.602
     -80.15320000,26.42307167,3.602
     -80.15320167,26.42305500,4.002
     -80.15320833,26.42303833,4.102
     -80.15320667,26.42301667,4.202
     -80.15321000,26.42299833,4.402
     -80.15322167,26.42297667,4.302
     -80.15322667,26.42295667,4.602
     -80.15322833,26.42293333,4.702
     -80.15322500,26.42290833,5.302
     -80.15321833,26.42288500,5.602
     -80.15321333,26.42286167,6.402
     -80.15320500,26.42285000,7.002
     -80.15320833,26.42283667,6.602
     -80.15320833,26.42282000,6.302
     -80.15321333,26.42280667,6.602
     -80.15321500,26.42279333,7.802
     -80.15321500,26.42278000,7.802
     -80.15320833,26.42277000,7.702
     -80.15320833,26.42276167,8.002
     -80.15321000,26.42275667,8.202
     -80.15321000,26.42275333,8.602
     -80.15320833,26.42274833,8.902
     -80.15320500,26.42274167,9.302
     -80.15320500,26.42273833,9.402
     -80.15320500,26.42273667,9.502
     -80.15320833,26.42273333,9.702
     -80.15320833,26.42273167,9.702
     -80.15320667,26.42272833,9.702
     -80.15320667,26.42272833,9.702
     -80.15320667,26.42272833,9.702
     -80.15320667,26.42272833,9.702
     -80.15320667,26.42272833,9.702
     -80.15320667,26.42272833,9.702
     -80.15320500,26.42271500,8.002
     -80.15321333,26.42270000,7.602
     -80.15323667,26.42269167,7.102
     -80.15327000,26.42269000,7.002
     -80.15330833,26.42269667,6.702
     -80.15334667,26.42270667,6.502
     -80.15339000,26.42270833,6.301
     -80.15344167,26.42271000,5.801
     -80.15349333,26.42270833,5.501
     -80.15355000,26.42271167,5.301
     -80.15360833,26.42271333,4.700
     -80.15367333,26.42271667,4.400
     -80.15374167,26.42272167,4.400
     -80.15380333,26.42272000,4.100
     -80.15387333,26.42271833,3.799
     -80.15394000,26.42272000,3.099
     -80.15401500,26.42271000,3.099
     -80.15409333,26.42272167,3.198
     -80.15416167,26.42272167,2.698
     -80.15423667,26.42272167,3.098
     -80.15431500,26.42271833,3.798
     -80.15438667,26.42273000,3.697
     -80.15446167,26.42273000,3.697
     -80.15453667,26.42273667,4.097
     -80.15460833,26.42274833,4.396
     -80.15468167,26.42276000,4.396
     -80.15475333,26.42277500,4.096
     -80.15482333,26.42278500,3.696
     -80.15490000,26.42279167,3.495
     -80.15497833,26.42280000,3.895
     -80.15505500,26.42280667,3.795
     -80.15513500,26.42281833,3.694
     -80.15521333,26.42283500,3.594
     -80.15529833,26.42286333,3.494
     -80.15538167,26.42288500,3.793
     -80.15546333,26.42290000,4.393
     -80.15553667,26.42291667,4.593
     -80.15560500,26.42293500,5.092
     -80.15568500,26.42294667,5.192
     -80.15576167,26.42294833,4.792
     -80.15584167,26.42295500,4.991
     -80.15592000,26.42296000,5.391
     -80.15599667,26.42296333,5.691
     -80.15607333,26.42297000,6.190
     -80.15615167,26.42297167,6.290
     -80.15622500,26.42297667,5.990
     -80.15630333,26.42297500,6.290
     -80.15638333,26.42296833,6.089
     -80.15646167,26.42296833,5.589
     -80.15653833,26.42296000,5.489
     -80.15661500,26.42294167,5.088
     -80.15669333,26.42293167,4.788
     -80.15677333,26.42292500,5.188
     -80.15684500,26.42292500,5.787
     -80.15692167,26.42291500,6.287
     -80.15700167,26.42289833,6.687
     -80.15707667,26.42288000,6.986
     -80.15715333,26.42286167,7.286
     -80.15723000,26.42284667,7.586
     -80.15730833,26.42283333,7.685
     -80.15738167,26.42281667,7.385
     -80.15745833,26.42280500,7.385
     -80.15753500,26.42279167,7.484
     -80.15761000,26.42278000,7.484
     -80.15768333,26.42277167,6.984
     -80.15775833,26.42276167,6.583
     -80.15783500,26.42275667,5.883
     -80.15791167,26.42274500,5.483
     -80.15799333,26.42273333,4.982
     -80.15806833,26.42272833,4.582
     -80.15814500,26.42271667,4.082
     -80.15822333,26.42271000,3.781
     -80.15830167,26.42270833,3.981
     -80.15838000,26.42271000,4.681
     -80.15845333,26.42272000,4.581
     -80.15853167,26.42272833,4.580
     -80.15861333,26.42273167,5.080
     -80.15869333,26.42273000,4.880
     -80.15876833,26.42273500,4.579
     -80.15884167,26.42273833,4.379
     -80.15891667,26.42273833,4.179
     -80.15899167,26.42273333,3.878
     -80.15906333,26.42272667,3.078
     -80.15914000,26.42272167,3.178
     -80.15921667,26.42271333,3.577
     -80.15929000,26.42270000,3.177
     -80.15936167,26.42267833,2.877
     -80.15943000,26.42265833,2.276
     -80.15950167,26.42262333,2.376
     -80.15956667,26.42258000,2.376
     -80.15963333,26.42253333,2.276
     -80.15968667,26.42248000,3.375
     -80.15972667,26.42242167,3.975
     -80.15977333,26.42236167,4.375
     -80.15981000,26.42230333,4.275
     -80.15984667,26.42224167,3.975
     -80.15987500,26.42217333,3.874
     -80.15987833,26.42210167,3.974
     -80.15988000,26.42203167,4.174
     -80.15987333,26.42196167,4.574
     -80.15986500,26.42189167,5.174
     -80.15985167,26.42182000,5.474
     -80.15983167,26.42175333,5.374
     -80.15981000,26.42169000,5.374
     -80.15978167,26.42162167,5.374
     -80.15975167,26.42155333,4.975
     -80.15972167,26.42149000,4.875
     -80.15968500,26.42142667,4.875
     -80.15964833,26.42136667,5.175
     -80.15960667,26.42131000,5.475
     -80.15956167,26.42125500,5.475
     -80.15952167,26.42120000,5.375
     -80.15947500,26.42114333,5.775
     -80.15942833,26.42109000,5.876
     -80.15938833,26.42103833,5.276
     -80.15933500,26.42098833,5.076
     -80.15928000,26.42094667,5.076
     -80.15922833,26.42090333,5.076
     -80.15917333,26.42085333,5.077
     -80.15910833,26.42080000,5.177
     -80.15905333,26.42074333,5.377
     -80.15900333,26.42069167,4.777
     -80.15895833,26.42063667,3.877
     -80.15891500,26.42058167,3.877
     -80.15887000,26.42052667,4.278
     -80.15882333,26.42047333,3.978
     -80.15878167,26.42042000,3.878
     -80.15874333,26.42036500,3.478
     -80.15870833,26.42031000,3.178
     -80.15867667,26.42026500,3.178
     -80.15865000,26.42022000,3.378
     -80.15862500,26.42018000,3.378
     -80.15862167,26.42014500,3.578
     -80.15862500,26.42011500,3.678
     -80.15865667,26.42008500,4.278
     -80.15869500,26.42004667,4.978
     -80.15874167,26.41999833,5.578
     -80.15879000,26.41994167,6.278
     -80.15884667,26.41988500,6.977
     -80.15890833,26.41983333,7.477
     -80.15897000,26.41977833,7.677
     -80.15903500,26.41973333,7.376
     -80.15909333,26.41969333,6.976
     -80.15913500,26.41966167,6.076
     -80.15917167,26.41963667,5.476
     -80.15921667,26.41962833,4.676
     -80.15925000,26.41963833,3.876
     -80.15928667,26.41966333,3.975
     -80.15932333,26.41969000,4.175
     -80.15936000,26.41971833,4.575
     -80.15940167,26.41975500,4.875
     -80.15944167,26.41979667,4.975
     -80.15948667,26.41983167,4.375
     -80.15953000,26.41987167,3.575
     -80.15958167,26.41991167,2.674
     -80.15963333,26.41994667,2.774
     -80.15968500,26.41998500,2.774
     -80.15973000,26.42002000,2.874
     -80.15978000,26.42006000,2.474
     -80.15983667,26.42010167,2.273
     -80.15989833,26.42014333,1.773
     -80.15995667,26.42017333,2.173
     -80.16002667,26.42021000,2.373
     -80.16009500,26.42024167,1.972
     -80.16016000,26.42027667,3.072
     -80.16022667,26.42031333,3.872
     -80.16030000,26.42035333,4.172
     -80.16037000,26.42038833,3.771
     -80.16043500,26.42042167,3.771
     -80.16050500,26.42045833,3.371
     -80.16056667,26.42048833,3.971
     -80.16062833,26.42051500,4.070
     -80.16069667,26.42054000,2.970
     -80.16076500,26.42056000,2.270
     -80.16083333,26.42058333,2.070
     -80.16090333,26.42060667,2.369
     -80.16097167,26.42062167,2.469
     -80.16104167,26.42063500,2.669
     -80.16111500,26.42065000,3.668
     -80.16119000,26.42066333,4.268
     -80.16125667,26.42068500,5.068
     -80.16132667,26.42071000,5.568
     -80.16139333,26.42073833,5.967
     -80.16146333,26.42075833,5.667
     -80.16153500,26.42077833,4.467
     -80.16160500,26.42079000,4.266
     -80.16167500,26.42080667,3.266
     -80.16174833,26.42082167,2.866
     -80.16182500,26.42083833,2.466
     -80.16190333,26.42085167,2.465
     -80.16197833,26.42086333,2.165
     -80.16205500,26.42086833,1.865
     -80.16213333,26.42087000,2.264
     -80.16220833,26.42087000,2.064
     -80.16228500,26.42087333,2.164
     -80.16236000,26.42087500,2.463
     -80.16244000,26.42087500,2.563
     -80.16251833,26.42086833,2.963
     -80.16259500,26.42086000,2.662
     -80.16267000,26.42085333,2.162
     -80.16275000,26.42084667,2.062
     -80.16282833,26.42084000,2.161
     -80.16291000,26.42083500,2.861
     -80.16298667,26.42083667,3.161
     -80.16305833,26.42082833,3.761
     -80.16312500,26.42081833,3.360
     -80.16318333,26.42081333,2.860
     -80.16323000,26.42080833,2.860
     -80.16326667,26.42080500,2.260
     -80.16329000,26.42080000,1.560
     -80.16331333,26.42080000,1.359
     -80.16334000,26.42079667,1.759
     -80.16336167,26.42079000,2.259
     -80.16337333,26.42078500,2.359
     -80.16337667,26.42078167,2.559
     -80.16337667,26.42078167,2.559
     -80.16337667,26.42078167,2.659
     -80.16337667,26.42078167,2.659
     -80.16337667,26.42078167,2.659
     -80.16337667,26.42078167,2.659
     -80.16337667,26.42078167,2.659
     -80.16338667,26.42078000,2.459
     -80.16342667,26.42076667,2.459
     -80.16347667,26.42075333,2.659
     -80.16353167,26.42073833,2.759
     -80.16359000,26.42072500,2.858
     -80.16366167,26.42071167,2.858
     -80.16374000,26.42069000,2.758
     -80.16381000,26.42067500,3.257
     -80.16388167,26.42065500,3.857
     -80.16395167,26.42063500,3.857
     -80.16402167,26.42061667,3.756
     -80.16409333,26.42059500,3.956
     -80.16416667,26.42057333,3.656
     -80.16424000,26.42055333,3.256
     -80.16431333,26.42053333,2.855
     -80.16439167,26.42050833,3.055
     -80.16445500,26.42048667,2.455
     -80.16451333,26.42046833,1.354
     -80.16457667,26.42044500,1.354
     -80.16463500,26.42042833,0.954
     -80.16468167,26.42041500,0.654
     -80.16470667,26.42040500,0.453
     -80.16471500,26.42040833,0.153
     -80.16472167,26.42040500,0.253
     -80.16473000,26.42040667,0.153
     -80.16474000,26.42040333,0.153
     -80.16474833,26.42040333,0.153
     -80.16475667,26.42040333,0.353
     -80.16476500,26.42040333,0.853
     -80.16476500,26.42040333,0.853
     -80.16476500,26.42040333,0.853
     -80.16476500,26.42040333,0.853
     -80.16476500,26.42040333,0.853
     -80.16476500,26.42040333,0.853
     -80.16476500,26.42040333,0.853
     -80.16481000,26.42040333,1.653
     -80.16483667,26.42040833,2.353
     -80.16487000,26.42042167,3.353
     -80.16489333,26.42044500,4.053
     -80.16491667,26.42047500,4.553
     -80.16493333,26.42051167,4.753
     -80.16494667,26.42054833,5.153
     -80.16496667,26.42058833,5.353
     -80.16498667,26.42063500,5.852
     -80.16500167,26.42067833,5.752
     -80.16501333,26.42072500,5.252
     -80.16502500,26.42077000,5.352
     -80.16504667,26.42080667,5.452
     -80.16506667,26.42085000,5.952
     -80.16508833,26.42088667,6.252
     -80.16510333,26.42092833,6.052
     -80.16512333,26.42096667,6.152
     -80.16514333,26.42100833,5.952
     -80.16516667,26.42104667,5.952
     -80.16518667,26.42108333,5.952
     -80.16520833,26.42112000,6.152
     -80.16522333,26.42115333,6.952
     -80.16524167,26.42118667,7.352
     -80.16526333,26.42122000,7.552
     -80.16529333,26.42125167,7.152
     -80.16532167,26.42128833,7.051
     -80.16534833,26.42133167,6.051
     -80.16537500,26.42137667,5.151
     -80.16540000,26.42141833,4.751
     -80.16542333,26.42146167,4.651
     -80.16544667,26.42150500,4.251
     -80.16547500,26.42154500,4.151
     -80.16550500,26.42158500,4.351
     -80.16553167,26.42162333,4.451
     -80.16555500,26.42166000,3.851
     -80.16558000,26.42169667,3.951
     -80.16560667,26.42173500,3.751
     -80.16563667,26.42177167,3.550
     -80.16567000,26.42181000,3.650
     -80.16570333,26.42185167,3.550
     -80.16573667,26.42189333,3.550
     -80.16576833,26.42193500,3.150
     -80.16580333,26.42197833,2.950
     -80.16583667,26.42202667,3.150
     -80.16586833,26.42207500,3.550
     -80.16590167,26.42212333,3.150
     -80.16593500,26.42217000,3.049
     -80.16597167,26.42221667,3.049
     -80.16601167,26.42226167,3.349
     -80.16605833,26.42230667,3.849
     -80.16610167,26.42235000,5.049
     -80.16614500,26.42238167,6.249
     -80.16619833,26.42241667,7.048
     -80.16624667,26.42244833,7.548
     -80.16630000,26.42247333,7.548
     -80.16635167,26.42249667,7.448
     -80.16640833,26.42251833,6.948
     -80.16647667,26.42253333,6.647
     -80.16654333,26.42254500,5.847
     -80.16660333,26.42255333,5.247
     -80.16666833,26.42256167,4.247
     -80.16673833,26.42256167,3.946
     -80.16681167,26.42256000,3.846
     -80.16688500,26.42255667,3.646
     -80.16695833,26.42255667,3.645
     -80.16703000,26.42255500,3.645
     -80.16710000,26.42255500,3.945
     -80.16716500,26.42255833,4.045
     -80.16723167,26.42256000,3.944
     -80.16730500,26.42256667,4.344
     -80.16737667,26.42257000,4.244
     -80.16745500,26.42257000,3.543
     -80.16751667,26.42256833,2.843
     -80.16757833,26.42256167,1.843
     -80.16764000,26.42256000,1.743
     -80.16770500,26.42256500,2.142
     -80.16777333,26.42257667,2.342
     -80.16783833,26.42258333,1.942
     -80.16790667,26.42258833,1.442
     -80.16797333,26.42258833,1.641
     -80.16804167,26.42259333,2.141
     -80.16811000,26.42259833,2.641
     -80.16817833,26.42260000,3.340
     -80.16824667,26.42260167,3.740
     -80.16831333,26.42260833,3.840
     -80.16837500,26.42261167,2.940
     -80.16843333,26.42261000,2.239
     -80.16848833,26.42260500,1.839
     -80.16855500,26.42260000,1.939
     -80.16861667,26.42259000,2.839
     -80.16867667,26.42257833,3.338
     -80.16873833,26.42256167,4.038
     -80.16880000,26.42254167,4.438
     -80.16885667,26.42252500,4.738
     -80.16892333,26.42250333,4.837
     -80.16898833,26.42246833,5.237
     -80.16904333,26.42243500,4.937
     -80.16910500,26.42239500,5.137
     -80.16916333,26.42234500,5.836
     -80.16921667,26.42230333,6.736
     -80.16926167,26.42226333,7.636
     -80.16930667,26.42223000,8.136
     -80.16934167,26.42219667,8.235
     -80.16935833,26.42216333,9.135
     -80.16938000,26.42212167,9.335
     -80.16940500,26.42208833,10.035
     -80.16942167,26.42205333,10.835
     -80.16944333,26.42201667,11.435
     -80.16946000,26.42198833,11.735
     -80.16946500,26.42194667,12.435
     -80.16948000,26.42189333,13.035
     -80.16948667,26.42184833,13.635
     -80.16949667,26.42180167,14.835
     -80.16950667,26.42175000,15.434
     -80.16951833,26.42170167,15.834
     -80.16953500,26.42165500,15.534
     -80.16955167,26.42160500,15.134
     -80.16956333,26.42155000,15.034
     -80.16957833,26.42149500,14.534
     -80.16958833,26.42144000,14.334
     -80.16960167,26.42138500,15.134
     -80.16961333,26.42133167,15.134
     -80.16962333,26.42128333,13.634
     -80.16964833,26.42124167,12.334
     -80.16965500,26.42120667,12.334
     -80.16966000,26.42119000,12.034
     -80.16965833,26.42118667,12.834
     -80.16965833,26.42119000,12.834
     -80.16966000,26.42119167,13.034
     -80.16966000,26.42119167,13.034
     -80.16966000,26.42119167,13.034
     -80.16966000,26.42119167,13.034
     -80.16966000,26.42119167,13.034
     -80.16966000,26.42119167,13.034
     -80.16966000,26.42119167,13.034
     -80.16966000,26.42119167,13.034
     -80.16966000,26.42119167,13.034
     -80.16966000,26.42119167,13.034
     -80.16966000,26.42119167,13.034
     -80.16966000,26.42119167,13.034
     -80.16966000,26.42119167,13.034
     -80.16966000,26.42119167,13.034
     -80.16966000,26.42119167,13.034
     -80.16966000,26.42119167,13.034
     -80.16966000,26.42119167,13.034
     -80.16966000,26.42119167,13.034
     -80.16966000,26.42119167,13.034
     -80.16966000,26.42119167,13.034
     -80.16966000,26.42119167,13.034
     -80.16966000,26.42119167,13.034
     -80.16966000,26.42119167,13.034
     -80.16966000,26.42119167,13.034
     -80.16966000,26.42119167,13.034
     -80.16966000,26.42119167,13.034
     -80.16966000,26.42119167,13.034
     -80.16966000,26.42119167,13.034
     -80.16966000,26.42119167,13.034
     -80.16966000,26.42119167,13.034
     -80.16966000,26.42119167,13.034
     -80.16966667,26.42119667,13.034
     -80.16967000,26.42116333,12.833
     -80.16967500,26.42112333,12.733
     -80.16968667,26.42107833,13.133
     -80.16970333,26.42103500,13.233
     -80.16972333,26.42097667,13.433
     -80.16974167,26.42092000,13.433
     -80.16976000,26.42086000,13.533
     -80.16976833,26.42079833,13.233
     -80.16978000,26.42073500,13.433
     -80.16979500,26.42067167,13.433
     -80.16981500,26.42060833,13.633
     -80.16983667,26.42054500,13.432
     -80.16985500,26.42048667,13.732
     -80.16987167,26.42043667,13.832
     -80.16989000,26.42037833,14.032
     -80.16990333,26.42031667,14.332
     -80.16991500,26.42025667,14.332
     -80.16992833,26.42021500,14.432
     -80.16993000,26.42018833,13.832
     -80.16993500,26.42016000,13.932
     -80.16993667,26.42012167,13.932
     -80.16994000,26.42007333,14.132
     -80.16994000,26.42002000,14.432
     -80.16994167,26.41996500,13.732
     -80.16993500,26.41990667,14.032
     -80.16992333,26.41984833,13.932
     -80.16990500,26.41978833,13.832
     -80.16988500,26.41972667,13.632
     -80.16986667,26.41966000,13.532
     -80.16985000,26.41959333,13.332
     -80.16983167,26.41952500,13.632
     -80.16981167,26.41946167,14.332
     -80.16979500,26.41939333,14.132
     -80.16978000,26.41932333,13.732
     -80.16976500,26.41925500,13.832
     -80.16975000,26.41918333,14.332
     -80.16973500,26.41911333,14.132
     -80.16971333,26.41904167,13.632
     -80.16969667,26.41896833,13.632
     -80.16967500,26.41890333,13.332
     -80.16965333,26.41883500,13.132
     -80.16963500,26.41876167,13.732
     -80.16962333,26.41869833,13.732
     -80.16960833,26.41863167,13.332
     -80.16959000,26.41856500,12.932
     -80.16957167,26.41849500,12.732
     -80.16955667,26.41842833,12.832
     -80.16954000,26.41836000,12.832
     -80.16952833,26.41829000,13.232
     -80.16951000,26.41822000,13.532
     -80.16950000,26.41815000,13.632
     -80.16948667,26.41808000,13.333
     -80.16945667,26.41801333,12.933
     -80.16943000,26.41795500,12.533
     -80.16939667,26.41789000,11.233
     -80.16935500,26.41782667,10.433
     -80.16930500,26.41777667,9.633
     -80.16925333,26.41772833,9.833
     -80.16918833,26.41769000,9.934
     -80.16912333,26.41765333,10.234
     -80.16905333,26.41761833,9.934
     -80.16897667,26.41758333,9.334
     -80.16890333,26.41755000,9.435
     -80.16882833,26.41752333,10.035
     -80.16875333,26.41750000,11.135
     -80.16868333,26.41747833,11.835
     -80.16861167,26.41746333,12.236
     -80.16853667,26.41745167,11.836
     -80.16846167,26.41744833,11.236
     -80.16838000,26.41744000,10.437
     -80.16830333,26.41743667,10.237
     -80.16822500,26.41742833,10.237
     -80.16815000,26.41743167,10.938
     -80.16807500,26.41743500,11.838
     -80.16800333,26.41743833,12.038
     -80.16794333,26.41744000,12.239
     -80.16789000,26.41744167,12.439
     -80.16785333,26.41744500,13.139
     -80.16782667,26.41744500,12.939
     -80.16780333,26.41744500,12.739
     -80.16778333,26.41744167,12.339
     -80.16775667,26.41744167,11.739
     -80.16772500,26.41743833,11.439
     -80.16769667,26.41743333,11.640
     -80.16767333,26.41741833,11.540
     -80.16766500,26.41739667,11.640
     -80.16766000,26.41737500,12.040
     -80.16766167,26.41736500,12.340
     -80.16766833,26.41736500,12.740
     -80.16767167,26.41736667,12.840
     -80.16767167,26.41736667,12.840
     -80.16767167,26.41736667,12.840
     -80.16767167,26.41736667,12.840
     -80.16767167,26.41736667,12.840
     -80.16767167,26.41736667,12.840
     -80.16767167,26.41736667,12.840
     -80.16767167,26.41736667,12.840
     -80.16767167,26.41736667,12.840
     -80.16767167,26.41736667,12.840
     -80.16767167,26.41736667,12.840
     -80.16767167,26.41736667,12.840
     -80.16767333,26.41733667,13.140
     -80.16767667,26.41729667,13.240
     -80.16767833,26.41725333,13.039
     -80.16767333,26.41720500,11.739
     -80.16767000,26.41715667,11.239
     -80.16765833,26.41710667,10.939
     -80.16764833,26.41705500,10.840
     -80.16763833,26.41702500,9.940
     -80.16763000,26.41700667,9.840
     -80.16762333,26.41699500,10.340
     -80.16762333,26.41699667,10.140
     -80.16762167,26.41699500,10.340
     -80.16762167,26.41699500,10.340
     -80.16762167,26.41699500,10.340
     -80.16762167,26.41699500,10.340
     -80.16761333,26.41699167,10.940
     -80.16760500,26.41698167,10.940
     -80.16760167,26.41693500,10.440
     -80.16760000,26.41687833,10.540
     -80.16760833,26.41682000,10.740
     -80.16762500,26.41676500,10.439
     -80.16763500,26.41671000,9.739
     -80.16764500,26.41665667,9.539
     -80.16765000,26.41660000,10.139
     -80.16768000,26.41654833,10.139
     -80.16772833,26.41650500,9.739
     -80.16778500,26.41646667,9.239
     -80.16784667,26.41643833,9.738
     -80.16790667,26.41640167,10.538
     -80.16795833,26.41636833,11.238
     -80.16801667,26.41632833,11.538
     -80.16807833,26.41629167,10.537
     -80.16814500,26.41625000,9.637
     -80.16821833,26.41622833,8.337
     -80.16828667,26.41622833,7.636
     -80.16836500,26.41623667,8.336
     -80.16843833,26.41623500,8.436
     -80.16851167,26.41624167,8.535
     -80.16858333,26.41624333,8.935
     -80.16864833,26.41624833,9.035
     -80.16872000,26.41626167,8.635
     -80.16878500,26.41627167,8.834
     -80.16885667,26.41628333,8.934
     -80.16892500,26.41627833,9.434
     -80.16899000,26.41627833,9.034
     -80.16906000,26.41628000,9.233
     -80.16913167,26.41628000,8.833
     -80.16920333,26.41628000,9.033
     -80.16927667,26.41628667,9.632
     -80.16934500,26.41629667,10.332
     -80.16941833,26.41631500,10.632
     -80.16949500,26.41631833,11.231
     -80.16956667,26.41632333,11.731
     -80.16963667,26.41632000,12.131
     -80.16970500,26.41632167,12.831
     -80.16977500,26.41631167,12.930
     -80.16984167,26.41629500,12.530
     -80.16990333,26.41628333,11.930
     -80.16996833,26.41628000,11.230
     -80.17002500,26.41627500,10.829
     -80.17007500,26.41628833,11.329
     -80.17011333,26.41631000,11.029
     -80.17013500,26.41635167,10.929
     -80.17015667,26.41639500,10.729
     -80.17017000,26.41643667,10.129
     -80.17017333,26.41647833,9.529
     -80.17016000,26.41651167,9.029
     -80.17014833,26.41653500,9.329
     -80.17014000,26.41654500,9.629
     -80.17013833,26.41654833,9.729
     -80.17014000,26.41654667,9.829
     -80.17014000,26.41654667,9.829
     -80.17014000,26.41654667,9.829
     -80.17014000,26.41654667,9.829
     -80.17014000,26.41654667,9.829
     -80.17014000,26.41654667,9.829
     -80.17014000,26.41654667,9.829
     -80.17014000,26.41654667,9.829
     -80.17014000,26.41654667,9.829
     -80.17014000,26.41654667,9.829
     -80.17014000,26.41654667,9.829
     -80.17014000,26.41654667,9.829
     -80.17014000,26.41654667,9.829
     -80.17014000,26.41654667,9.829
     -80.17014000,26.41654667,9.829
    </coordinates>
   </LineString>
  </Placemark>

 </Document>
</kml>
 