<?xml version="1.0" encoding="UTF-8"?>
<!-- Created with BasicAirData GPS Logger for Android - ver. 3.3.0 -->
<!-- Track 6 = 975 TrackPoints + 2 Placemarks -->
<kml xmlns="http://www.opengis.net/kml/2.2">
 <Document>
  <name>GPS Logger 20260718-125025</name>
  <description><![CDATA[Garbage-ST-3
975 Trackpoints + 2 Placemarks]]></description>
  <Style id="TrackStyle">
   <LineStyle>
    <color>ff0000ff</color>
    <width>3</width>
   </LineStyle>
   <PolyStyle>
    <color>7f0000ff</color>
   </PolyStyle>
   <BalloonStyle>
    <text><![CDATA[<p style="color:red;font-weight:bold">$[name]</p><p style="font-size:11px">$[description]</p><p style="font-size:7px">Track Stats based on: Total time | Time in Movement</p>]]></text>
   </BalloonStyle>
  </Style>
  <Style id="PlacemarkStyle">
   <IconStyle>
    <Icon><href>http://maps.google.com/mapfiles/kml/shapes/placemark_circle_highlight.png</href></Icon>
   </IconStyle>
  </Style>

  <Placemark id="1">
   <name>Garbage</name>
   <styleUrl>#PlacemarkStyle</styleUrl>
   <Point>
    <altitudeMode>clampToGround</altitudeMode>
    <coordinates>-80.16456500,26.41607333,28.052</coordinates>
    <extrude>1</extrude>
   </Point>
  </Placemark>

  <Placemark id="2">
   <name>Site3</name>
   <styleUrl>#PlacemarkStyle</styleUrl>
   <Point>
    <altitudeMode>clampToGround</altitudeMode>
    <coordinates>-80.17012167,26.41656833,16.629</coordinates>
    <extrude>1</extrude>
   </Point>
  </Placemark>

  <Placemark id="20260718-125025">
   <name>Track 20260718-125025</name>
   <description><![CDATA[<b>Garbage-ST-3</b><br><br>Distance = 1.20 km<br>Duration = 16:14 | 07:28<br>Altitude Gap = -11 m<br>Max Speed = 8 mph<br>Avg Speed = 2.8 | 6.0 mph<br>Direction = W <br><br><i>975 Trackpoints</i>]]></description>
   <styleUrl>#TrackStyle</styleUrl>
   <LineString>
    <extrude>0</extrude>
    <tessellate>0</tessellate>
    <altitudeMode>clampToGround</altitudeMode>
    <coordinates>
     -80.16456500,26.41607333,28.052
     -80.16456500,26.41607333,28.052
     -80.16456500,26.41607333,28.052
     -80.16456500,26.41607333,28.052
     -80.16456500,26.41607333,28.052
     -80.16456500,26.41607333,28.052
     -80.16456500,26.41607333,28.052
     -80.16456500,26.41607333,28.052
     -80.16456500,26.41607333,28.052
     -80.16456500,26.41607333,28.052
     -80.16456500,26.41607333,28.052
     -80.16456500,26.41607333,28.052
     -80.16456500,26.41607333,28.052
     -80.16456500,26.41607333,28.052
     -80.16454167,26.41607000,26.752
     -80.16454000,26.41606833,26.052
     -80.16454167,26.41606667,25.352
     -80.16454333,26.41606333,24.752
     -80.16454333,26.41606333,24.752
     -80.16454333,26.41605500,23.652
     -80.16454667,26.41605667,23.152
     -80.16455000,26.41604833,22.852
     -80.16455833,26.41605167,22.652
     -80.16456667,26.41605167,22.552
     -80.16457333,26.41605000,22.552
     -80.16458167,26.41605000,22.452
     -80.16458833,26.41604833,22.252
     -80.16459500,26.41604833,22.052
     -80.16460167,26.41604833,21.851
     -80.16460500,26.41604833,21.751
     -80.16460500,26.41604833,21.651
     -80.16460667,26.41604667,21.551
     -80.16460667,26.41604333,21.851
     -80.16460667,26.41604333,21.851
     -80.16460667,26.41604333,21.851
     -80.16460667,26.41604333,21.851
     -80.16460667,26.41604333,21.851
     -80.16460667,26.41604333,21.851
     -80.16460667,26.41604333,21.851
     -80.16460667,26.41604333,21.851
     -80.16460667,26.41604333,21.851
     -80.16460667,26.41604333,21.851
     -80.16460667,26.41604333,21.851
     -80.16460667,26.41604333,21.851
     -80.16460667,26.41604333,21.851
     -80.16460667,26.41604333,21.851
     -80.16460667,26.41604333,21.851
     -80.16460667,26.41604333,21.851
     -80.16460667,26.41604333,21.851
     -80.16460667,26.41604333,21.851
     -80.16460667,26.41604333,21.851
     -80.16456667,26.41607333,20.152
     -80.16456667,26.41606833,20.352
     -80.16456667,26.41606667,20.452
     -80.16456667,26.41606500,20.052
     -80.16456500,26.41605667,20.352
     -80.16456500,26.41605667,20.352
     -80.16456500,26.41605667,20.352
     -80.16456500,26.41605667,20.352
     -80.16456500,26.41605667,20.352
     -80.16456500,26.41605667,20.352
     -80.16456500,26.41605667,20.352
     -80.16456500,26.41605667,20.352
     -80.16456500,26.41605667,20.352
     -80.16456500,26.41605667,20.352
     -80.16454000,26.41606333,17.852
     -80.16453333,26.41606667,17.652
     -80.16452833,26.41606833,17.452
     -80.16452667,26.41607500,17.552
     -80.16453167,26.41608333,17.352
     -80.16453667,26.41608833,17.652
     -80.16454333,26.41609000,17.652
     -80.16454333,26.41609000,17.652
     -80.16455500,26.41609500,17.152
     -80.16455667,26.41609833,16.952
     -80.16456333,26.41609667,16.452
     -80.16457000,26.41609667,16.252
     -80.16457667,26.41609000,16.052
     -80.16458667,26.41608333,15.552
     -80.16459667,26.41608000,15.352
     -80.16459833,26.41607167,15.052
     -80.16460000,26.41607500,14.452
     -80.16459500,26.41607500,14.152
     -80.16459167,26.41607500,14.152
     -80.16458833,26.41607500,14.152
     -80.16458167,26.41607667,14.152
     -80.16458167,26.41608333,13.952
     -80.16458000,26.41608333,13.952
     -80.16458000,26.41608667,13.952
     -80.16458000,26.41608667,13.952
     -80.16458000,26.41608667,13.952
     -80.16458000,26.41608667,13.952
     -80.16458000,26.41608667,13.952
     -80.16458000,26.41608667,13.952
     -80.16458000,26.41608667,13.952
     -80.16458000,26.41608667,13.952
     -80.16458000,26.41608667,13.952
     -80.16458000,26.41608667,13.952
     -80.16458000,26.41608667,13.952
     -80.16458000,26.41608667,13.952
     -80.16458000,26.41608667,13.952
     -80.16458000,26.41608667,13.952
     -80.16458000,26.41608667,13.952
     -80.16458000,26.41608667,13.952
     -80.16458000,26.41608667,13.952
     -80.16458000,26.41608667,13.952
     -80.16458000,26.41608667,13.952
     -80.16458000,26.41608667,13.952
     -80.16458000,26.41608667,13.952
     -80.16458000,26.41608667,13.952
     -80.16458000,26.41608667,13.952
     -80.16458000,26.41608667,13.952
     -80.16458000,26.41608667,13.952
     -80.16458000,26.41608667,13.952
     -80.16458000,26.41608667,13.952
     -80.16458000,26.41608667,13.952
     -80.16458000,26.41608667,13.952
     -80.16458000,26.41608667,13.952
     -80.16458000,26.41608667,13.952
     -80.16458000,26.41608667,13.952
     -80.16458000,26.41608667,13.952
     -80.16458000,26.41608667,13.952
     -80.16458000,26.41608667,13.952
     -80.16458000,26.41608667,13.952
     -80.16458000,26.41608667,13.952
     -80.16458000,26.41608667,13.952
     -80.16458000,26.41608667,13.952
     -80.16458000,26.41608667,13.952
     -80.16458000,26.41608667,13.952
     -80.16458000,26.41608667,13.952
     -80.16458000,26.41608667,13.952
     -80.16458000,26.41608667,13.952
     -80.16458000,26.41608667,13.952
     -80.16458000,26.41608667,13.952
     -80.16458000,26.41608667,13.952
     -80.16458000,26.41608667,13.952
     -80.16458000,26.41608667,13.952
     -80.16458000,26.41608667,13.952
     -80.16458000,26.41608667,13.952
     -80.16458000,26.41608667,13.952
     -80.16458000,26.41608667,13.952
     -80.16458000,26.41608667,13.952
     -80.16458000,26.41608667,13.952
     -80.16458000,26.41608667,13.952
     -80.16458000,26.41608667,13.952
     -80.16458000,26.41608667,13.952
     -80.16458000,26.41608667,13.952
     -80.16458000,26.41608667,13.952
     -80.16458000,26.41608667,13.952
     -80.16458000,26.41608667,13.952
     -80.16458000,26.41608667,13.952
     -80.16458000,26.41608667,13.952
     -80.16458000,26.41608667,13.952
     -80.16458000,26.41608667,13.952
     -80.16458000,26.41608667,13.952
     -80.16458000,26.41608667,13.952
     -80.16458000,26.41608667,13.952
     -80.16458000,26.41608667,13.952
     -80.16458000,26.41608667,13.952
     -80.16458000,26.41608667,13.952
     -80.16458000,26.41608667,13.952
     -80.16458000,26.41608667,13.952
     -80.16458000,26.41608667,13.952
     -80.16458000,26.41608667,13.952
     -80.16458000,26.41608667,13.952
     -80.16458000,26.41608667,13.952
     -80.16458000,26.41608667,13.952
     -80.16458000,26.41608667,13.952
     -80.16458000,26.41608667,13.952
     -80.16463333,26.41606667,13.151
     -80.16464167,26.41606000,13.151
     -80.16465333,26.41605667,13.051
     -80.16465667,26.41605167,12.751
     -80.16466167,26.41604333,13.051
     -80.16466667,26.41603000,12.851
     -80.16467167,26.41601833,13.151
     -80.16467667,26.41600333,13.151
     -80.16468833,26.41599167,13.151
     -80.16470333,26.41598333,13.251
     -80.16470667,26.41598167,13.051
     -80.16471333,26.41597833,13.351
     -80.16471500,26.41596333,13.251
     -80.16471167,26.41595333,13.151
     -80.16471000,26.41593667,13.151
     -80.16470333,26.41592500,12.751
     -80.16470000,26.41591333,12.651
     -80.16470167,26.41589833,13.351
     -80.16470000,26.41588167,13.751
     -80.16469833,26.41586333,14.751
     -80.16469833,26.41584667,14.651
     -80.16469833,26.41583167,14.951
     -80.16469500,26.41581500,15.351
     -80.16469833,26.41579833,15.451
     -80.16469833,26.41577833,15.851
     -80.16469833,26.41575833,15.651
     -80.16470167,26.41573333,15.151
     -80.16470167,26.41571000,14.851
     -80.16470333,26.41568667,14.451
     -80.16470167,26.41566333,14.051
     -80.16469833,26.41564167,13.251
     -80.16469333,26.41562500,13.151
     -80.16468833,26.41560000,13.451
     -80.16468333,26.41558000,13.551
     -80.16467833,26.41556000,13.451
     -80.16467167,26.41554000,12.851
     -80.16466167,26.41552000,12.251
     -80.16465000,26.41549167,11.651
     -80.16464000,26.41546500,10.951
     -80.16462667,26.41544000,10.351
     -80.16460667,26.41541500,9.551
     -80.16459000,26.41539167,8.451
     -80.16457167,26.41537000,7.551
     -80.16454833,26.41535000,6.651
     -80.16452333,26.41532500,6.451
     -80.16449833,26.41530333,6.452
     -80.16447500,26.41528333,6.252
     -80.16445333,26.41526333,6.452
     -80.16443000,26.41524667,6.852
     -80.16440333,26.41523333,7.152
     -80.16437167,26.41522167,7.952
     -80.16434167,26.41521333,8.552
     -80.16431167,26.41520333,8.752
     -80.16428333,26.41519833,9.052
     -80.16425333,26.41519333,9.352
     -80.16422333,26.41518667,9.553
     -80.16419167,26.41518167,10.053
     -80.16416333,26.41517833,10.153
     -80.16414000,26.41517833,9.753
     -80.16410833,26.41517167,9.053
     -80.16407667,26.41517333,9.153
     -80.16404667,26.41517333,9.453
     -80.16401833,26.41517500,9.353
     -80.16399000,26.41518000,8.954
     -80.16396667,26.41518500,8.854
     -80.16394333,26.41519500,9.154
     -80.16392333,26.41520333,9.054
     -80.16390000,26.41521000,9.154
     -80.16388333,26.41521500,9.254
     -80.16386667,26.41522000,8.954
     -80.16385333,26.41522500,8.854
     -80.16384333,26.41523000,8.954
     -80.16383167,26.41523333,8.854
     -80.16381833,26.41523000,9.154
     -80.16381000,26.41522667,9.154
     -80.16379333,26.41521167,9.254
     -80.16377667,26.41519000,8.954
     -80.16376500,26.41517167,8.754
     -80.16375000,26.41515000,8.655
     -80.16374167,26.41513500,8.455
     -80.16373167,26.41513333,8.555
     -80.16372500,26.41513333,8.755
     -80.16372000,26.41513333,8.555
     -80.16371500,26.41513333,8.355
     -80.16371167,26.41513333,8.055
     -80.16371000,26.41513500,7.855
     -80.16371000,26.41513500,7.655
     -80.16370833,26.41513333,7.355
     -80.16370833,26.41513333,7.355
     -80.16370833,26.41512833,7.255
     -80.16370833,26.41512167,7.355
     -80.16370500,26.41511167,7.355
     -80.16369667,26.41509167,7.355
     -80.16368833,26.41506500,7.455
     -80.16367833,26.41504333,7.655
     -80.16366167,26.41502000,7.555
     -80.16364167,26.41499667,7.555
     -80.16362667,26.41497167,7.855
     -80.16361000,26.41494667,7.755
     -80.16359333,26.41492167,7.755
     -80.16357833,26.41489833,7.755
     -80.16356167,26.41487667,7.755
     -80.16354500,26.41485667,7.855
     -80.16353333,26.41484000,7.355
     -80.16352833,26.41483333,6.755
     -80.16352333,26.41482667,6.855
     -80.16352000,26.41482500,6.655
     -80.16352000,26.41482667,6.455
     -80.16352000,26.41482500,6.455
     -80.16352000,26.41482333,6.455
     -80.16352167,26.41482000,6.555
     -80.16352000,26.41481167,6.555
     -80.16351667,26.41479833,6.755
     -80.16351833,26.41478333,6.755
     -80.16351667,26.41476500,6.655
     -80.16351833,26.41474833,6.555
     -80.16352000,26.41473500,6.455
     -80.16352500,26.41471833,6.155
     -80.16353333,26.41470167,5.855
     -80.16354333,26.41468500,5.955
     -80.16355500,26.41466667,6.155
     -80.16356333,26.41465000,6.455
     -80.16357500,26.41463167,6.455
     -80.16358667,26.41461333,6.955
     -80.16359500,26.41459667,7.155
     -80.16360500,26.41458000,7.555
     -80.16361667,26.41457000,7.855
     -80.16362500,26.41456167,7.855
     -80.16363667,26.41455333,7.755
     -80.16365000,26.41454667,7.455
     -80.16366667,26.41454167,7.355
     -80.16368500,26.41453833,7.154
     -80.16370167,26.41453833,7.054
     -80.16371667,26.41454000,6.554
     -80.16373333,26.41454333,6.454
     -80.16375333,26.41455000,6.354
     -80.16377000,26.41455500,6.554
     -80.16378833,26.41456000,6.454
     -80.16381000,26.41456667,6.554
     -80.16382833,26.41457333,6.254
     -80.16384667,26.41458000,6.154
     -80.16386500,26.41458667,6.154
     -80.16388667,26.41459167,6.254
     -80.16390500,26.41459667,6.154
     -80.16392333,26.41460333,6.053
     -80.16394333,26.41461000,5.753
     -80.16396500,26.41461167,5.453
     -80.16398500,26.41461667,5.553
     -80.16400000,26.41462167,5.553
     -80.16401667,26.41463000,5.553
     -80.16403500,26.41463667,5.353
     -80.16405500,26.41464333,5.453
     -80.16407167,26.41465000,5.353
     -80.16408833,26.41465333,5.353
     -80.16410333,26.41466167,4.953
     -80.16411833,26.41467000,5.353
     -80.16414167,26.41467833,4.553
     -80.16416667,26.41468833,3.953
     -80.16418667,26.41469833,4.252
     -80.16420167,26.41470833,4.552
     -80.16421833,26.41471667,4.552
     -80.16423667,26.41472500,4.852
     -80.16426333,26.41473000,4.752
     -80.16428667,26.41474000,5.252
     -80.16431167,26.41475167,5.152
     -80.16434000,26.41476167,5.152
     -80.16436833,26.41477500,5.152
     -80.16439667,26.41478667,5.152
     -80.16442667,26.41480333,5.252
     -80.16445833,26.41482000,5.351
     -80.16448833,26.41483500,5.251
     -80.16451500,26.41485167,5.251
     -80.16454333,26.41486667,5.251
     -80.16457000,26.41488500,5.451
     -80.16459833,26.41490500,5.951
     -80.16462833,26.41492333,6.351
     -80.16465833,26.41493667,7.451
     -80.16468667,26.41494667,8.251
     -80.16471000,26.41495500,9.250
     -80.16473833,26.41496833,10.250
     -80.16476333,26.41497833,11.250
     -80.16478833,26.41499167,12.250
     -80.16481167,26.41500500,13.250
     -80.16483333,26.41501667,14.050
     -80.16485667,26.41503000,14.550
     -80.16487500,26.41504167,14.350
     -80.16490000,26.41505333,13.450
     -80.16492833,26.41506833,12.450
     -80.16496000,26.41508667,11.949
     -80.16499333,26.41509833,11.949
     -80.16502500,26.41510833,11.749
     -80.16505000,26.41511500,11.149
     -80.16507167,26.41512000,10.849
     -80.16509667,26.41512667,9.649
     -80.16512000,26.41513333,8.849
     -80.16514333,26.41514167,8.049
     -80.16517167,26.41515500,7.649
     -80.16519833,26.41516667,6.549
     -80.16523167,26.41518000,6.248
     -80.16526667,26.41519167,5.848
     -80.16529833,26.41520500,5.748
     -80.16533000,26.41521833,5.948
     -80.16536167,26.41523167,6.248
     -80.16539167,26.41524500,6.448
     -80.16542000,26.41525667,6.448
     -80.16545167,26.41527000,6.948
     -80.16548167,26.41528500,7.247
     -80.16551167,26.41530000,7.647
     -80.16553667,26.41531167,7.647
     -80.16556333,26.41532333,7.547
     -80.16559000,26.41533667,8.547
     -80.16561333,26.41534333,8.647
     -80.16563167,26.41535333,8.447
     -80.16565000,26.41536500,8.747
     -80.16567000,26.41537000,9.447
     -80.16568333,26.41537667,9.547
     -80.16570000,26.41538667,10.147
     -80.16572333,26.41539500,11.447
     -80.16574500,26.41540667,11.846
     -80.16576667,26.41541667,11.946
     -80.16579167,26.41542500,12.046
     -80.16581167,26.41543667,11.446
     -80.16584000,26.41544833,11.146
     -80.16587000,26.41546167,10.846
     -80.16590500,26.41547833,10.946
     -80.16593667,26.41549167,10.646
     -80.16596500,26.41550500,10.246
     -80.16599333,26.41552000,9.845
     -80.16602333,26.41553667,9.745
     -80.16605833,26.41555167,9.745
     -80.16609333,26.41556333,9.745
     -80.16612667,26.41557333,10.045
     -80.16615667,26.41558667,9.845
     -80.16618833,26.41560000,10.145
     -80.16621667,26.41561500,9.945
     -80.16624833,26.41563167,9.944
     -80.16627833,26.41565000,9.544
     -80.16630333,26.41566500,9.544
     -80.16632833,26.41568333,9.144
     -80.16635667,26.41570333,8.444
     -80.16638833,26.41572167,8.244
     -80.16641667,26.41573500,8.144
     -80.16644667,26.41575000,8.144
     -80.16647833,26.41576833,8.644
     -80.16651000,26.41578500,8.643
     -80.16653833,26.41580000,8.743
     -80.16656833,26.41581667,9.643
     -80.16659667,26.41583000,9.443
     -80.16662333,26.41584667,9.343
     -80.16665000,26.41586333,9.443
     -80.16667333,26.41587667,9.443
     -80.16669167,26.41588833,9.443
     -80.16671833,26.41590500,9.743
     -80.16674500,26.41591667,9.643
     -80.16677500,26.41593500,9.342
     -80.16680333,26.41595167,9.742
     -80.16683167,26.41596667,9.942
     -80.16685833,26.41598167,10.142
     -80.16687500,26.41600500,10.242
     -80.16690333,26.41603333,10.542
     -80.16693167,26.41605667,10.742
     -80.16695000,26.41607333,10.442
     -80.16697333,26.41609000,10.342
     -80.16700167,26.41610667,9.942
     -80.16702833,26.41612667,9.742
     -80.16705167,26.41614833,9.641
     -80.16707000,26.41617000,9.541
     -80.16708833,26.41619333,9.141
     -80.16710667,26.41622333,8.841
     -80.16712500,26.41625167,8.841
     -80.16714333,26.41628000,9.341
     -80.16715667,26.41630667,9.941
     -80.16717167,26.41633500,9.941
     -80.16719167,26.41636333,10.141
     -80.16721000,26.41638333,10.741
     -80.16723167,26.41641000,11.041
     -80.16725500,26.41643333,11.941
     -80.16727667,26.41645667,12.141
     -80.16730167,26.41648500,12.241
     -80.16731667,26.41651000,12.441
     -80.16732833,26.41653500,12.041
     -80.16733333,26.41655667,12.041
     -80.16733833,26.41658833,12.041
     -80.16735833,26.41661833,12.040
     -80.16737000,26.41664500,12.040
     -80.16738333,26.41667333,11.940
     -80.16739667,26.41670333,11.240
     -80.16741000,26.41673000,11.040
     -80.16742167,26.41676167,10.540
     -80.16743167,26.41679667,10.340
     -80.16744000,26.41682667,10.240
     -80.16745167,26.41686167,10.340
     -80.16745833,26.41689500,10.440
     -80.16746833,26.41692500,10.040
     -80.16747333,26.41695500,9.840
     -80.16747833,26.41698333,9.840
     -80.16748333,26.41701000,9.540
     -80.16748833,26.41703667,9.440
     -80.16749333,26.41706667,9.140
     -80.16749000,26.41708667,8.140
     -80.16748833,26.41711167,7.740
     -80.16749333,26.41713833,7.440
     -80.16749833,26.41716000,7.440
     -80.16750167,26.41718500,7.840
     -80.16750167,26.41721333,7.440
     -80.16750333,26.41723833,7.340
     -80.16749833,26.41726167,7.040
     -80.16750333,26.41728833,7.040
     -80.16750500,26.41731000,7.040
     -80.16752000,26.41733333,7.140
     -80.16753667,26.41735833,7.540
     -80.16755333,26.41737500,8.140
     -80.16756333,26.41737500,7.340
     -80.16758000,26.41737167,7.140
     -80.16759500,26.41735667,7.240
     -80.16760500,26.41733000,6.940
     -80.16760500,26.41730667,6.540
     -80.16760667,26.41728000,6.040
     -80.16760833,26.41725167,5.840
     -80.16760667,26.41722500,5.940
     -80.16761167,26.41719833,6.340
     -80.16760500,26.41717500,7.440
     -80.16760833,26.41714667,8.640
     -80.16760833,26.41711667,9.440
     -80.16760500,26.41709000,9.340
     -80.16760000,26.41706333,9.340
     -80.16759667,26.41703333,9.040
     -80.16759333,26.41700833,9.140
     -80.16759000,26.41698333,9.140
     -80.16758500,26.41696167,9.140
     -80.16758167,26.41694000,9.140
     -80.16758167,26.41692000,8.640
     -80.16758833,26.41690500,8.440
     -80.16759667,26.41689167,8.940
     -80.16760167,26.41688667,9.740
     -80.16761000,26.41687167,10.740
     -80.16761667,26.41685000,11.240
     -80.16762500,26.41682833,11.339
     -80.16763500,26.41680833,11.439
     -80.16764833,26.41678667,11.339
     -80.16766000,26.41676000,11.039
     -80.16766500,26.41673333,10.739
     -80.16767000,26.41670833,10.239
     -80.16767000,26.41668333,10.439
     -80.16767000,26.41666000,10.639
     -80.16766833,26.41663667,10.439
     -80.16766667,26.41661167,10.439
     -80.16766833,26.41658667,10.339
     -80.16767667,26.41656167,10.539
     -80.16769000,26.41654333,9.939
     -80.16770333,26.41652333,9.239
     -80.16772667,26.41650667,8.339
     -80.16774833,26.41649167,7.539
     -80.16777500,26.41647333,7.039
     -80.16780167,26.41645833,6.839
     -80.16782500,26.41644333,6.838
     -80.16785000,26.41642833,6.738
     -80.16787500,26.41641500,6.538
     -80.16790167,26.41640500,6.538
     -80.16793000,26.41639167,6.838
     -80.16795167,26.41637500,5.938
     -80.16797167,26.41635833,6.038
     -80.16798667,26.41633833,5.938
     -80.16800833,26.41631667,6.138
     -80.16803500,26.41629500,6.037
     -80.16806333,26.41627833,5.737
     -80.16809667,26.41626333,5.237
     -80.16812833,26.41625333,4.837
     -80.16817000,26.41625167,3.837
     -80.16820500,26.41624667,3.337
     -80.16823667,26.41624333,3.437
     -80.16827000,26.41623833,3.236
     -80.16830000,26.41623833,3.136
     -80.16833000,26.41624167,3.036
     -80.16835833,26.41624500,3.136
     -80.16838833,26.41625000,3.436
     -80.16841833,26.41625000,3.536
     -80.16844833,26.41625167,3.536
     -80.16848167,26.41625167,3.536
     -80.16851333,26.41625000,3.735
     -80.16854500,26.41625167,3.535
     -80.16857500,26.41625500,3.735
     -80.16860667,26.41625333,3.935
     -80.16863500,26.41624500,4.035
     -80.16866667,26.41625333,4.435
     -80.16870000,26.41626000,4.335
     -80.16873333,26.41626833,4.635
     -80.16876833,26.41627833,4.534
     -80.16880667,26.41628333,4.534
     -80.16884333,26.41628667,4.734
     -80.16888167,26.41628667,4.734
     -80.16891500,26.41628833,4.534
     -80.16894667,26.41628500,4.934
     -80.16898667,26.41629500,6.334
     -80.16901667,26.41629000,7.033
     -80.16904667,26.41629000,6.933
     -80.16907833,26.41628833,7.033
     -80.16910833,26.41628833,7.233
     -80.16914000,26.41629000,7.233
     -80.16917333,26.41629000,7.433
     -80.16920833,26.41629167,7.633
     -80.16923667,26.41629667,7.533
     -80.16926667,26.41630167,7.332
     -80.16929833,26.41630500,7.432
     -80.16933333,26.41631167,7.432
     -80.16936667,26.41631833,7.532
     -80.16939833,26.41632333,7.532
     -80.16943167,26.41633167,7.732
     -80.16946500,26.41633500,7.732
     -80.16949500,26.41633500,7.731
     -80.16952000,26.41633000,5.431
     -80.16954833,26.41632667,4.931
     -80.16957667,26.41632333,4.531
     -80.16960500,26.41632500,4.031
     -80.16963500,26.41632000,4.131
     -80.16966500,26.41631833,4.031
     -80.16969667,26.41631667,3.831
     -80.16972833,26.41631500,3.731
     -80.16976167,26.41631167,3.530
     -80.16979333,26.41630667,3.430
     -80.16982500,26.41630167,3.230
     -80.16985833,26.41629500,3.230
     -80.16988833,26.41628667,3.130
     -80.16992000,26.41628000,3.330
     -80.16995167,26.41627333,3.430
     -80.16998167,26.41627000,3.929
     -80.17001000,26.41627000,4.029
     -80.17003333,26.41627167,5.729
     -80.17005000,26.41627833,7.029
     -80.17006667,26.41629000,7.729
     -80.17008833,26.41630500,8.229
     -80.17010167,26.41631667,8.529
     -80.17011500,26.41633500,8.629
     -80.17012833,26.41635667,9.029
     -80.17013833,26.41637833,9.429
     -80.17015000,26.41640000,8.729
     -80.17015500,26.41642333,8.629
     -80.17015500,26.41644000,8.629
     -80.17015500,26.41645833,8.929
     -80.17015167,26.41647833,9.229
     -80.17015000,26.41650000,9.629
     -80.17015000,26.41652000,9.829
     -80.17015000,26.41653667,10.029
     -80.17014833,26.41655500,10.129
     -80.17014833,26.41656833,10.229
     -80.17014833,26.41657333,9.729
     -80.17014667,26.41657167,9.529
     -80.17014667,26.41657000,9.129
     -80.17014667,26.41656833,8.929
     -80.17014500,26.41656667,8.729
     -80.17014333,26.41656667,8.629
     -80.17014333,26.41656500,8.429
     -80.17014333,26.41656500,8.329
     -80.17014500,26.41656667,8.529
     -80.17014833,26.41656667,8.929
     -80.17014833,26.41656667,8.929
     -80.17014833,26.41656667,8.929
     -80.17014833,26.41656667,8.929
     -80.17014833,26.41656667,8.929
     -80.17014833,26.41656667,8.929
     -80.17014833,26.41656667,8.929
     -80.17014833,26.41656667,8.929
     -80.17014833,26.41656667,8.929
     -80.17014833,26.41656667,8.929
     -80.17014833,26.41656667,8.929
     -80.17014833,26.41656667,8.929
     -80.17014833,26.41656667,8.929
     -80.17014833,26.41656667,8.929
     -80.17014833,26.41656667,8.929
     -80.17014833,26.41656667,8.929
     -80.17014833,26.41656667,8.929
     -80.17014833,26.41656667,8.929
     -80.17014833,26.41656667,8.929
     -80.17014833,26.41656667,8.929
     -80.17014833,26.41656667,8.929
     -80.17014833,26.41656667,8.929
     -80.17014833,26.41656667,8.929
     -80.17014833,26.41656667,8.929
     -80.17014833,26.41656667,8.929
     -80.17014833,26.41656667,8.929
     -80.17014833,26.41656667,8.929
     -80.17014833,26.41656667,8.929
     -80.17014833,26.41656667,8.929
     -80.17014833,26.41656667,8.929
     -80.17014833,26.41656667,8.929
     -80.17014833,26.41656667,8.929
     -80.17014833,26.41656667,8.929
     -80.17014833,26.41656667,8.929
     -80.17014833,26.41656667,8.929
     -80.17014833,26.41656667,8.929
     -80.17014833,26.41656667,8.929
     -80.17014833,26.41656667,8.929
     -80.17014833,26.41656667,8.929
     -80.17014833,26.41656667,8.929
     -80.17014833,26.41656667,8.929
     -80.17014833,26.41656667,8.929
     -80.17014833,26.41656667,8.929
     -80.17014833,26.41656667,8.929
     -80.17014833,26.41656667,8.929
     -80.17014833,26.41656667,8.929
     -80.17014833,26.41656667,8.929
     -80.17014833,26.41656667,8.929
     -80.17014833,26.41656667,8.929
     -80.17014833,26.41656667,8.929
     -80.17014833,26.41656667,8.929
     -80.17014833,26.41656667,8.929
     -80.17014833,26.41656667,8.929
     -80.17014833,26.41656667,8.929
     -80.17014833,26.41656667,8.929
     -80.17014833,26.41656667,8.929
     -80.17014833,26.41656667,8.929
     -80.17014833,26.41656667,8.929
     -80.17014833,26.41656667,8.929
     -80.17014833,26.41656667,8.929
     -80.17014833,26.41656667,8.929
     -80.17014833,26.41656667,8.929
     -80.17014833,26.41656667,8.929
     -80.17014833,26.41656667,8.929
     -80.17014833,26.41656667,8.929
     -80.17014833,26.41656667,8.929
     -80.17014833,26.41656667,8.929
     -80.17014833,26.41656667,8.929
     -80.17014833,26.41656667,8.929
     -80.17014833,26.41656667,8.929
     -80.17014833,26.41656667,8.929
     -80.17014833,26.41656667,8.929
     -80.17014833,26.41656667,8.929
     -80.17014833,26.41656667,8.929
     -80.17014833,26.41656667,8.929
     -80.17014833,26.41656667,8.929
     -80.17014833,26.41656667,8.929
     -80.17014833,26.41656667,8.929
     -80.17014833,26.41656667,8.929
     -80.17014833,26.41656667,8.929
     -80.17014833,26.41656667,8.929
     -80.17014833,26.41656667,8.929
     -80.17014833,26.41656667,8.929
     -80.17014833,26.41656667,8.929
     -80.17014833,26.41656667,8.929
     -80.17014833,26.41656667,8.929
     -80.17014833,26.41656667,8.929
     -80.17014833,26.41656667,8.929
     -80.17014833,26.41656667,8.929
     -80.17014833,26.41656667,8.929
     -80.17014833,26.41656667,8.929
     -80.17014833,26.41656667,8.929
     -80.17014833,26.41656667,8.929
     -80.17014833,26.41656667,8.929
     -80.17014833,26.41656667,8.929
     -80.17014833,26.41656667,8.929
     -80.17014833,26.41656667,8.929
     -80.17014833,26.41656667,8.929
     -80.17014833,26.41656667,8.929
     -80.17014833,26.41656667,8.929
     -80.17014833,26.41656667,8.929
     -80.17014833,26.41656667,8.929
     -80.17014833,26.41656667,8.929
     -80.17014833,26.41656667,8.929
     -80.17014833,26.41656667,8.929
     -80.17014833,26.41656667,8.929
     -80.17014833,26.41656667,8.929
     -80.17014833,26.41656667,8.929
     -80.17014833,26.41656667,8.929
     -80.17014833,26.41656667,8.929
     -80.17014833,26.41656667,8.929
     -80.17014833,26.41656667,8.929
     -80.17014833,26.41656667,8.929
     -80.17014833,26.41656667,8.929
     -80.17014833,26.41656667,8.929
     -80.17014833,26.41656667,8.929
     -80.17014833,26.41656667,8.929
     -80.17014833,26.41656667,8.929
     -80.17014833,26.41656667,8.929
     -80.17014833,26.41656667,8.929
     -80.17014833,26.41656667,8.929
     -80.17014833,26.41656667,8.929
     -80.17014833,26.41656667,8.929
     -80.17014833,26.41656667,8.929
     -80.17014833,26.41656667,8.929
     -80.17014833,26.41656667,8.929
     -80.17014833,26.41656667,8.929
     -80.17014833,26.41656667,8.929
     -80.17014833,26.41656667,8.929
     -80.17014833,26.41656667,8.929
     -80.17014833,26.41656667,8.929
     -80.17014833,26.41656667,8.929
     -80.17014833,26.41656667,8.929
     -80.17014833,26.41656667,8.929
     -80.17014833,26.41656667,8.929
     -80.17014833,26.41656667,8.929
     -80.17014833,26.41656667,8.929
     -80.17014833,26.41656667,8.929
     -80.17014833,26.41656667,8.929
     -80.17014833,26.41656667,8.929
     -80.17014833,26.41656667,8.929
     -80.17014833,26.41656667,8.929
     -80.17014833,26.41656667,8.929
     -80.17014833,26.41656667,8.929
     -80.17014833,26.41656667,8.929
     -80.17014833,26.41656667,8.929
     -80.17014833,26.41656667,8.929
     -80.17014833,26.41656667,8.929
     -80.17014833,26.41656667,8.929
     -80.17014833,26.41656667,8.929
     -80.17014833,26.41656667,8.929
     -80.17014833,26.41656667,8.929
     -80.17014833,26.41656667,8.929
     -80.17014833,26.41656667,8.929
     -80.17014833,26.41656667,8.929
     -80.17014833,26.41656667,8.929
     -80.17014833,26.41656667,8.929
     -80.17014833,26.41656667,8.929
     -80.17014833,26.41656667,8.929
     -80.17014833,26.41656667,8.929
     -80.17014833,26.41656667,8.929
     -80.17014833,26.41656667,8.929
     -80.17014833,26.41656667,8.929
     -80.17014833,26.41656667,8.929
     -80.17014833,26.41656667,8.929
     -80.17014833,26.41656667,8.929
     -80.17014833,26.41656667,8.929
     -80.17014833,26.41656667,8.929
     -80.17014833,26.41656667,8.929
     -80.17014833,26.41656667,8.929
     -80.17014833,26.41656667,8.929
     -80.17014833,26.41656667,8.929
     -80.17014833,26.41656667,8.929
     -80.17014833,26.41656667,8.929
     -80.17014833,26.41656667,8.929
     -80.17014833,26.41656667,8.929
     -80.17014833,26.41656667,8.929
     -80.17014833,26.41656667,8.929
     -80.17014833,26.41656667,8.929
     -80.17014833,26.41656667,8.929
     -80.17014833,26.41656667,8.929
     -80.17014833,26.41656667,8.929
     -80.17014833,26.41656667,8.929
     -80.17014833,26.41656667,8.929
     -80.17014833,26.41656667,8.929
     -80.17014833,26.41656667,8.929
     -80.17014833,26.41656667,8.929
     -80.17014833,26.41656667,8.929
     -80.17014833,26.41656667,8.929
     -80.17014833,26.41656667,8.929
     -80.17014833,26.41656667,8.929
     -80.17014833,26.41656667,8.929
     -80.17014833,26.41656667,8.929
     -80.17014833,26.41656667,8.929
     -80.17014833,26.41656667,8.929
     -80.17014833,26.41656667,8.929
     -80.17014833,26.41656667,8.929
     -80.17014833,26.41656667,8.929
     -80.17014833,26.41656667,8.929
     -80.17014833,26.41656667,8.929
     -80.17014833,26.41656667,8.929
     -80.17014833,26.41656667,8.929
     -80.17014833,26.41656667,8.929
     -80.17014833,26.41656667,8.929
     -80.17014833,26.41656667,8.929
     -80.17014833,26.41656667,8.929
     -80.17014833,26.41656667,8.929
     -80.17014833,26.41656667,8.929
     -80.17014833,26.41656667,8.929
     -80.17014833,26.41656667,8.929
     -80.17014833,26.41656667,8.929
     -80.17014833,26.41656667,8.929
     -80.17014833,26.41656667,8.929
     -80.17014833,26.41656667,8.929
     -80.17014833,26.41656667,8.929
     -80.17014833,26.41656667,8.929
     -80.17014833,26.41656667,8.929
     -80.17014833,26.41656667,8.929
     -80.17014833,26.41656667,8.929
     -80.17012500,26.41657000,16.429
     -80.17012333,26.41657167,16.429
     -80.17012333,26.41657000,16.529
     -80.17012167,26.41656833,16.629
     -80.17012167,26.41656833,16.629
     -80.17012167,26.41656833,16.629
     -80.17012167,26.41656833,16.629
     -80.17012167,26.41656833,16.629
     -80.17012167,26.41656833,16.629
     -80.17012167,26.41656833,16.629
     -80.17012167,26.41656833,16.629
     -80.17012167,26.41656833,16.629
     -80.17012167,26.41656833,16.629
     -80.17012167,26.41656833,16.629
     -80.17012167,26.41656833,16.629
     -80.17012167,26.41656833,16.629
     -80.17012167,26.41656833,16.629
     -80.17012167,26.41656833,16.629
     -80.17012167,26.41656833,16.629
     -80.17012167,26.41656833,16.629
     -80.17012167,26.41656833,16.629
     -80.17012167,26.41656833,16.629
     -80.17012167,26.41656833,16.629
     -80.17012167,26.41656833,16.629
     -80.17012167,26.41656833,16.629
     -80.17012167,26.41656833,16.629
     -80.17012167,26.41656833,16.629
     -80.17012167,26.41656833,16.629
     -80.17012167,26.41656833,16.629
     -80.17012167,26.41656833,16.629
     -80.17012167,26.41656833,16.629
     -80.17012167,26.41656833,16.629
     -80.17012167,26.41656833,16.629
     -80.17012167,26.41656833,16.629
     -80.17012167,26.41656833,16.629
     -80.17012167,26.41656833,16.629
     -80.17012167,26.41656833,16.629
     -80.17012167,26.41656833,16.629
     -80.17012167,26.41656833,16.629
     -80.17012167,26.41656833,16.629
     -80.17012167,26.41656833,16.629
     -80.17012167,26.41656833,16.629
     -80.17012167,26.41656833,16.629
     -80.17012167,26.41656833,16.629
     -80.17012167,26.41656833,16.629
     -80.17012167,26.41656833,16.629
     -80.17012167,26.41656833,16.629
     -80.17012167,26.41656833,16.629
     -80.17012167,26.41656833,16.629
     -80.17012167,26.41656833,16.629
     -80.17012167,26.41656833,16.629
     -80.17012167,26.41656833,16.629
     -80.17012167,26.41656833,16.629
     -80.17012167,26.41656833,16.629
     -80.17012167,26.41656833,16.629
     -80.17012167,26.41656833,16.629
     -80.17012167,26.41656833,16.629
     -80.17012167,26.41656833,16.629
     -80.17012167,26.41656833,16.629
     -80.17012167,26.41656833,16.629
     -80.17012167,26.41656833,16.629
     -80.17012167,26.41656833,16.629
     -80.17012167,26.41656833,16.629
     -80.17012167,26.41656833,16.629
     -80.17012167,26.41656833,16.629
     -80.17012167,26.41656833,16.629
     -80.17012167,26.41656833,16.629
     -80.17012167,26.41656833,16.629
     -80.17012167,26.41656833,16.629
     -80.17012167,26.41656833,16.629
     -80.17012167,26.41656833,16.629
     -80.17012167,26.41656833,16.629
     -80.17012167,26.41656833,16.629
     -80.17012167,26.41656833,16.629
     -80.17012167,26.41656833,16.629
     -80.17012167,26.41656833,16.629
     -80.17012167,26.41656833,16.629
     -80.17012167,26.41656833,16.629
     -80.17012167,26.41656833,16.629
     -80.17012167,26.41656833,16.629
     -80.17012167,26.41656833,16.629
     -80.17012167,26.41656833,16.629
     -80.17012167,26.41656833,16.629
     -80.17012167,26.41656833,16.629
     -80.17012167,26.41656833,16.629
     -80.17012167,26.41656833,16.629
     -80.17012167,26.41656833,16.629
     -80.17012167,26.41656833,16.629
     -80.17012167,26.41656833,16.629
     -80.17012167,26.41656833,16.629
     -80.17012167,26.41656833,16.629
     -80.17012167,26.41656833,16.629
     -80.17012167,26.41656833,16.629
     -80.17012167,26.41656833,16.629
     -80.17012167,26.41656833,16.629
     -80.17012167,26.41656833,16.629
     -80.17012167,26.41656833,16.629
     -80.17012167,26.41656833,16.629
     -80.17012167,26.41656833,16.629
     -80.17012167,26.41656833,16.629
     -80.17012167,26.41656833,16.629
     -80.17012167,26.41656833,16.629
     -80.17012167,26.41656833,16.629
     -80.17012167,26.41656833,16.629
     -80.17012167,26.41656833,16.629
     -80.17012167,26.41656833,16.629
     -80.17012167,26.41656833,16.629
     -80.17012167,26.41656833,16.629
     -80.17012167,26.41656833,16.629
     -80.17012167,26.41656833,16.629
     -80.17012167,26.41656833,16.629
     -80.17012167,26.41656833,16.629
     -80.17012167,26.41656833,16.629
     -80.17012167,26.41656833,16.629
     -80.17012167,26.41656833,16.629
     -80.17012167,26.41656833,16.629
     -80.17012167,26.41656833,16.629
     -80.17012167,26.41656833,16.629
     -80.17012167,26.41656833,16.629
     -80.17012167,26.41656833,16.629
     -80.17012167,26.41656833,16.629
     -80.17012167,26.41656833,16.629
     -80.17012167,26.41656833,16.629
     -80.17012167,26.41656833,16.629
     -80.17012167,26.41656833,16.629
     -80.17012167,26.41656833,16.629
     -80.17012167,26.41656833,16.629
     -80.17012167,26.41656833,16.629
     -80.17012167,26.41656833,16.629
     -80.17012167,26.41656833,16.629
     -80.17012167,26.41656833,16.629
     -80.17012167,26.41656833,16.629
     -80.17012167,26.41656833,16.629
    </coordinates>
   </LineString>
  </Placemark>

 </Document>
</kml>
 