<?xml version="1.0" encoding="UTF-8"?>
<!-- Created with BasicAirData GPS Logger for Android - ver. 3.3.0 -->
<!-- Track 8 = 691 TrackPoints + 2 Placemarks -->

<!-- Track Statistics (based on Total Time | Time in Movement): -->
<!--  Distance = 1.31 km -->
<!--  Duration = 11:30 | 08:18 -->
<!--  Altitude Gap = 3 m -->
<!--  Max Speed = 10 mph -->
<!--  Avg Speed = 4.3 | 5.9 mph -->
<!--  Direction = SSE -->
<!--  Activity = running -->
<!--  Altitudes = Corrected using EGM96 grid (bilinear interpolation) -->

<gpx version="1.0"
     creator="BasicAirData GPS Logger 3.3.0"
     xmlns="http://www.topografix.com/GPX/1/0"
     xmlns:xsi="http://www.w3.org/2001/XMLSchema-instance"
     xsi:schemaLocation="http://www.topografix.com/GPX/1/0 http://www.topografix.com/GPX/1/0/gpx.xsd">
<name>GPS Logger 20260718-135758</name>
<desc>ST-4-Gate</desc>
<time>2026-07-21T17:17:04Z</time>
<keywords>running</keywords>
<bounds minlat="26.41056000" minlon="-80.16445500" maxlat="26.41670000" maxlon="-80.16104000" />

<wpt lat="26.41454833" lon="-80.16283833"><ele>23.158</ele><time>2026-07-18T17:58:00Z</time><name>Site4</name><sat>15</sat></wpt>

<wpt lat="26.41059000" lon="-80.16104000"><ele>25.763</ele><time>2026-07-18T18:09:23Z</time><name>Gate</name><sat>16</sat></wpt>

<trk>
 <name>Track 20260718-135758</name>
 <trkseg>
  <trkpt lat="26.41454833" lon="-80.16283833"><ele>23.158</ele><time>2026-07-18T17:57:58Z</time><speed>0.000</speed><sat>15</sat></trkpt>
  <trkpt lat="26.41454833" lon="-80.16283833"><ele>23.158</ele><time>2026-07-18T17:57:59Z</time><speed>0.000</speed><sat>15</sat></trkpt>
  <trkpt lat="26.41454833" lon="-80.16283833"><ele>23.158</ele><time>2026-07-18T17:58:00Z</time><speed>0.000</speed><sat>15</sat></trkpt>
  <trkpt lat="26.41454833" lon="-80.16283833"><ele>23.158</ele><time>2026-07-18T17:58:01Z</time><speed>0.000</speed><sat>15</sat></trkpt>
  <trkpt lat="26.41454833" lon="-80.16283833"><ele>23.158</ele><time>2026-07-18T17:58:02Z</time><speed>0.000</speed><sat>15</sat></trkpt>
  <trkpt lat="26.41454833" lon="-80.16283833"><ele>23.158</ele><time>2026-07-18T17:58:03Z</time><speed>0.000</speed><sat>15</sat></trkpt>
  <trkpt lat="26.41454833" lon="-80.16283833"><ele>23.158</ele><time>2026-07-18T17:58:04Z</time><speed>0.000</speed><sat>15</sat></trkpt>
  <trkpt lat="26.41454833" lon="-80.16283833"><ele>23.158</ele><time>2026-07-18T17:58:05Z</time><speed>0.000</speed><sat>15</sat></trkpt>
  <trkpt lat="26.41454833" lon="-80.16283833"><ele>23.158</ele><time>2026-07-18T17:58:06Z</time><speed>0.000</speed><sat>15</sat></trkpt>
  <trkpt lat="26.41454833" lon="-80.16283833"><ele>23.158</ele><time>2026-07-18T17:58:07Z</time><speed>0.000</speed><sat>15</sat></trkpt>
  <trkpt lat="26.41454833" lon="-80.16283833"><ele>23.158</ele><time>2026-07-18T17:58:08Z</time><speed>0.000</speed><sat>15</sat></trkpt>
  <trkpt lat="26.41454833" lon="-80.16283833"><ele>23.158</ele><time>2026-07-18T17:58:09Z</time><speed>0.000</speed><sat>15</sat></trkpt>
  <trkpt lat="26.41454833" lon="-80.16283833"><ele>23.158</ele><time>2026-07-18T17:58:10Z</time><speed>0.000</speed><sat>15</sat></trkpt>
  <trkpt lat="26.41454833" lon="-80.16283833"><ele>23.158</ele><time>2026-07-18T17:58:11Z</time><speed>0.000</speed><sat>15</sat></trkpt>
  <trkpt lat="26.41454833" lon="-80.16283833"><ele>23.158</ele><time>2026-07-18T17:58:12Z</time><speed>0.000</speed><sat>15</sat></trkpt>
  <trkpt lat="26.41452333" lon="-80.16284500"><ele>22.058</ele><time>2026-07-18T17:58:13Z</time><speed>0.117</speed><sat>15</sat></trkpt>
  <trkpt lat="26.41452833" lon="-80.16284667"><ele>22.258</ele><time>2026-07-18T17:58:14Z</time><speed>0.154</speed><sat>15</sat></trkpt>
  <trkpt lat="26.41453167" lon="-80.16284833"><ele>22.158</ele><time>2026-07-18T17:58:15Z</time><speed>0.195</speed><sat>15</sat></trkpt>
  <trkpt lat="26.41453500" lon="-80.16284500"><ele>22.358</ele><time>2026-07-18T17:58:16Z</time><speed>0.000</speed><sat>15</sat></trkpt>
  <trkpt lat="26.41453667" lon="-80.16284333"><ele>22.458</ele><time>2026-07-18T17:58:17Z</time><speed>0.000</speed><sat>15</sat></trkpt>
  <trkpt lat="26.41453667" lon="-80.16284167"><ele>22.258</ele><time>2026-07-18T17:58:18Z</time><speed>0.000</speed><sat>15</sat></trkpt>
  <trkpt lat="26.41453667" lon="-80.16284167"><ele>22.258</ele><time>2026-07-18T17:58:19Z</time><speed>0.000</speed><sat>15</sat></trkpt>
  <trkpt lat="26.41453667" lon="-80.16284167"><ele>22.258</ele><time>2026-07-18T17:58:20Z</time><speed>0.000</speed><sat>15</sat></trkpt>
  <trkpt lat="26.41453667" lon="-80.16284167"><ele>22.258</ele><time>2026-07-18T17:58:21Z</time><speed>0.000</speed><sat>15</sat></trkpt>
  <trkpt lat="26.41453667" lon="-80.16284167"><ele>22.258</ele><time>2026-07-18T17:58:22Z</time><speed>0.000</speed><sat>15</sat></trkpt>
  <trkpt lat="26.41454500" lon="-80.16283833"><ele>21.158</ele><time>2026-07-18T17:58:23Z</time><speed>0.283</speed><sat>15</sat></trkpt>
  <trkpt lat="26.41454500" lon="-80.16283833"><ele>20.758</ele><time>2026-07-18T17:58:24Z</time><speed>0.283</speed><sat>15</sat></trkpt>
  <trkpt lat="26.41454333" lon="-80.16283500"><ele>20.358</ele><time>2026-07-18T17:58:25Z</time><speed>0.289</speed><sat>15</sat></trkpt>
  <trkpt lat="26.41453833" lon="-80.16283500"><ele>20.058</ele><time>2026-07-18T17:58:26Z</time><speed>0.000</speed><sat>15</sat></trkpt>
  <trkpt lat="26.41453500" lon="-80.16283500"><ele>19.758</ele><time>2026-07-18T17:58:27Z</time><speed>0.000</speed><sat>15</sat></trkpt>
  <trkpt lat="26.41453167" lon="-80.16283667"><ele>19.458</ele><time>2026-07-18T17:58:28Z</time><speed>0.000</speed><sat>15</sat></trkpt>
  <trkpt lat="26.41453167" lon="-80.16283667"><ele>19.458</ele><time>2026-07-18T17:58:29Z</time><speed>0.000</speed><sat>15</sat></trkpt>
  <trkpt lat="26.41453167" lon="-80.16283667"><ele>19.458</ele><time>2026-07-18T17:58:30Z</time><speed>0.000</speed><sat>15</sat></trkpt>
  <trkpt lat="26.41453167" lon="-80.16283667"><ele>19.458</ele><time>2026-07-18T17:58:31Z</time><speed>0.000</speed><sat>15</sat></trkpt>
  <trkpt lat="26.41453167" lon="-80.16283667"><ele>19.458</ele><time>2026-07-18T17:58:32Z</time><speed>0.000</speed><sat>15</sat></trkpt>
  <trkpt lat="26.41453167" lon="-80.16283667"><ele>19.458</ele><time>2026-07-18T17:58:33Z</time><speed>0.000</speed><sat>15</sat></trkpt>
  <trkpt lat="26.41453167" lon="-80.16283667"><ele>19.458</ele><time>2026-07-18T17:58:34Z</time><speed>0.000</speed><sat>15</sat></trkpt>
  <trkpt lat="26.41453167" lon="-80.16283667"><ele>19.458</ele><time>2026-07-18T17:58:35Z</time><speed>0.000</speed><sat>15</sat></trkpt>
  <trkpt lat="26.41453167" lon="-80.16283667"><ele>19.458</ele><time>2026-07-18T17:58:36Z</time><speed>0.000</speed><sat>15</sat></trkpt>
  <trkpt lat="26.41453167" lon="-80.16283667"><ele>19.458</ele><time>2026-07-18T17:58:37Z</time><speed>0.000</speed><sat>15</sat></trkpt>
  <trkpt lat="26.41453167" lon="-80.16283667"><ele>19.458</ele><time>2026-07-18T17:58:38Z</time><speed>0.000</speed><sat>15</sat></trkpt>
  <trkpt lat="26.41453167" lon="-80.16283667"><ele>19.458</ele><time>2026-07-18T17:58:39Z</time><speed>0.000</speed><sat>15</sat></trkpt>
  <trkpt lat="26.41453167" lon="-80.16283667"><ele>19.458</ele><time>2026-07-18T17:58:40Z</time><speed>0.000</speed><sat>16</sat></trkpt>
  <trkpt lat="26.41453167" lon="-80.16283667"><ele>19.458</ele><time>2026-07-18T17:58:41Z</time><speed>0.000</speed><sat>16</sat></trkpt>
  <trkpt lat="26.41453167" lon="-80.16283667"><ele>19.458</ele><time>2026-07-18T17:58:42Z</time><speed>0.000</speed><sat>16</sat></trkpt>
  <trkpt lat="26.41453167" lon="-80.16283667"><ele>19.458</ele><time>2026-07-18T17:58:43Z</time><speed>0.000</speed><sat>16</sat></trkpt>
  <trkpt lat="26.41453167" lon="-80.16283667"><ele>19.458</ele><time>2026-07-18T17:58:44Z</time><speed>0.000</speed><sat>16</sat></trkpt>
  <trkpt lat="26.41453167" lon="-80.16283667"><ele>19.458</ele><time>2026-07-18T17:58:45Z</time><speed>0.000</speed><sat>16</sat></trkpt>
  <trkpt lat="26.41453167" lon="-80.16283667"><ele>19.458</ele><time>2026-07-18T17:58:46Z</time><speed>0.000</speed><sat>16</sat></trkpt>
  <trkpt lat="26.41453167" lon="-80.16283667"><ele>19.458</ele><time>2026-07-18T17:58:47Z</time><speed>0.000</speed><sat>16</sat></trkpt>
  <trkpt lat="26.41453167" lon="-80.16283667"><ele>19.458</ele><time>2026-07-18T17:58:48Z</time><speed>0.000</speed><sat>15</sat></trkpt>
  <trkpt lat="26.41453167" lon="-80.16283667"><ele>19.458</ele><time>2026-07-18T17:58:49Z</time><speed>0.000</speed><sat>15</sat></trkpt>
  <trkpt lat="26.41453167" lon="-80.16283667"><ele>19.458</ele><time>2026-07-18T17:58:50Z</time><speed>0.000</speed><sat>15</sat></trkpt>
  <trkpt lat="26.41453167" lon="-80.16283667"><ele>19.458</ele><time>2026-07-18T17:58:51Z</time><speed>0.000</speed><sat>15</sat></trkpt>
  <trkpt lat="26.41453167" lon="-80.16283667"><ele>19.458</ele><time>2026-07-18T17:58:52Z</time><speed>0.000</speed><sat>15</sat></trkpt>
  <trkpt lat="26.41453167" lon="-80.16283667"><ele>19.458</ele><time>2026-07-18T17:58:53Z</time><speed>0.000</speed><sat>15</sat></trkpt>
  <trkpt lat="26.41453167" lon="-80.16283667"><ele>19.458</ele><time>2026-07-18T17:58:54Z</time><speed>0.000</speed><sat>15</sat></trkpt>
  <trkpt lat="26.41453167" lon="-80.16283667"><ele>19.458</ele><time>2026-07-18T17:58:55Z</time><speed>0.000</speed><sat>15</sat></trkpt>
  <trkpt lat="26.41453167" lon="-80.16283667"><ele>19.458</ele><time>2026-07-18T17:58:56Z</time><speed>0.000</speed><sat>15</sat></trkpt>
  <trkpt lat="26.41453167" lon="-80.16283667"><ele>19.458</ele><time>2026-07-18T17:58:57Z</time><speed>0.000</speed><sat>16</sat></trkpt>
  <trkpt lat="26.41453167" lon="-80.16283667"><ele>19.458</ele><time>2026-07-18T17:58:58Z</time><speed>0.000</speed><sat>16</sat></trkpt>
  <trkpt lat="26.41453167" lon="-80.16283667"><ele>19.458</ele><time>2026-07-18T17:58:59Z</time><speed>0.000</speed><sat>16</sat></trkpt>
  <trkpt lat="26.41453167" lon="-80.16283667"><ele>19.458</ele><time>2026-07-18T17:59:00Z</time><speed>0.000</speed><sat>15</sat></trkpt>
  <trkpt lat="26.41453167" lon="-80.16283667"><ele>19.458</ele><time>2026-07-18T17:59:01Z</time><speed>0.000</speed><sat>15</sat></trkpt>
  <trkpt lat="26.41453167" lon="-80.16283667"><ele>19.458</ele><time>2026-07-18T17:59:02Z</time><speed>0.000</speed><sat>15</sat></trkpt>
  <trkpt lat="26.41453167" lon="-80.16283667"><ele>19.458</ele><time>2026-07-18T17:59:03Z</time><speed>0.000</speed><sat>15</sat></trkpt>
  <trkpt lat="26.41453167" lon="-80.16283667"><ele>19.458</ele><time>2026-07-18T17:59:04Z</time><speed>0.000</speed><sat>15</sat></trkpt>
  <trkpt lat="26.41453167" lon="-80.16283667"><ele>19.458</ele><time>2026-07-18T17:59:05Z</time><speed>0.000</speed><sat>15</sat></trkpt>
  <trkpt lat="26.41453167" lon="-80.16283667"><ele>19.458</ele><time>2026-07-18T17:59:06Z</time><speed>0.000</speed><sat>15</sat></trkpt>
  <trkpt lat="26.41453167" lon="-80.16283667"><ele>19.458</ele><time>2026-07-18T17:59:07Z</time><speed>0.000</speed><sat>15</sat></trkpt>
  <trkpt lat="26.41453167" lon="-80.16283667"><ele>19.458</ele><time>2026-07-18T17:59:08Z</time><speed>0.000</speed><sat>15</sat></trkpt>
  <trkpt lat="26.41453167" lon="-80.16283667"><ele>19.458</ele><time>2026-07-18T17:59:09Z</time><speed>0.000</speed><sat>15</sat></trkpt>
  <trkpt lat="26.41453167" lon="-80.16283667"><ele>19.458</ele><time>2026-07-18T17:59:10Z</time><speed>0.000</speed><sat>14</sat></trkpt>
  <trkpt lat="26.41453167" lon="-80.16283667"><ele>19.458</ele><time>2026-07-18T17:59:11Z</time><speed>0.000</speed><sat>15</sat></trkpt>
  <trkpt lat="26.41453167" lon="-80.16283667"><ele>19.458</ele><time>2026-07-18T17:59:12Z</time><speed>0.000</speed><sat>15</sat></trkpt>
  <trkpt lat="26.41453167" lon="-80.16283667"><ele>19.458</ele><time>2026-07-18T17:59:13Z</time><speed>0.000</speed><sat>15</sat></trkpt>
  <trkpt lat="26.41453167" lon="-80.16283667"><ele>19.458</ele><time>2026-07-18T17:59:14Z</time><speed>0.000</speed><sat>15</sat></trkpt>
  <trkpt lat="26.41453167" lon="-80.16283667"><ele>19.458</ele><time>2026-07-18T17:59:15Z</time><speed>0.000</speed><sat>15</sat></trkpt>
  <trkpt lat="26.41453167" lon="-80.16283667"><ele>19.458</ele><time>2026-07-18T17:59:16Z</time><speed>0.000</speed><sat>15</sat></trkpt>
  <trkpt lat="26.41453167" lon="-80.16283667"><ele>19.458</ele><time>2026-07-18T17:59:17Z</time><speed>0.000</speed><sat>15</sat></trkpt>
  <trkpt lat="26.41453167" lon="-80.16283667"><ele>19.458</ele><time>2026-07-18T17:59:18Z</time><speed>0.000</speed><sat>15</sat></trkpt>
  <trkpt lat="26.41453167" lon="-80.16283667"><ele>19.458</ele><time>2026-07-18T17:59:19Z</time><speed>0.000</speed><sat>15</sat></trkpt>
  <trkpt lat="26.41453167" lon="-80.16283667"><ele>19.458</ele><time>2026-07-18T17:59:20Z</time><speed>0.000</speed><sat>15</sat></trkpt>
  <trkpt lat="26.41453167" lon="-80.16283667"><ele>19.458</ele><time>2026-07-18T17:59:21Z</time><speed>0.000</speed><sat>15</sat></trkpt>
  <trkpt lat="26.41453167" lon="-80.16283667"><ele>19.458</ele><time>2026-07-18T17:59:22Z</time><speed>0.000</speed><sat>15</sat></trkpt>
  <trkpt lat="26.41453167" lon="-80.16283667"><ele>19.458</ele><time>2026-07-18T17:59:23Z</time><speed>0.000</speed><sat>15</sat></trkpt>
  <trkpt lat="26.41453167" lon="-80.16283667"><ele>19.458</ele><time>2026-07-18T17:59:24Z</time><speed>0.000</speed><sat>16</sat></trkpt>
  <trkpt lat="26.41453167" lon="-80.16283667"><ele>19.458</ele><time>2026-07-18T17:59:25Z</time><speed>0.000</speed><sat>16</sat></trkpt>
  <trkpt lat="26.41453167" lon="-80.16283667"><ele>19.458</ele><time>2026-07-18T17:59:26Z</time><speed>0.000</speed><sat>16</sat></trkpt>
  <trkpt lat="26.41453167" lon="-80.16283667"><ele>19.458</ele><time>2026-07-18T17:59:27Z</time><speed>0.000</speed><sat>16</sat></trkpt>
  <trkpt lat="26.41453167" lon="-80.16283667"><ele>19.458</ele><time>2026-07-18T17:59:28Z</time><speed>0.000</speed><sat>16</sat></trkpt>
  <trkpt lat="26.41453167" lon="-80.16283667"><ele>19.458</ele><time>2026-07-18T17:59:29Z</time><speed>0.000</speed><sat>16</sat></trkpt>
  <trkpt lat="26.41453167" lon="-80.16283667"><ele>19.458</ele><time>2026-07-18T17:59:30Z</time><speed>0.000</speed><sat>16</sat></trkpt>
  <trkpt lat="26.41453167" lon="-80.16283667"><ele>19.458</ele><time>2026-07-18T17:59:31Z</time><speed>0.000</speed><sat>16</sat></trkpt>
  <trkpt lat="26.41453167" lon="-80.16283667"><ele>19.458</ele><time>2026-07-18T17:59:32Z</time><speed>0.000</speed><sat>16</sat></trkpt>
  <trkpt lat="26.41453167" lon="-80.16283667"><ele>19.458</ele><time>2026-07-18T17:59:33Z</time><speed>0.000</speed><sat>16</sat></trkpt>
  <trkpt lat="26.41453167" lon="-80.16283667"><ele>19.458</ele><time>2026-07-18T17:59:34Z</time><speed>0.000</speed><sat>16</sat></trkpt>
  <trkpt lat="26.41453167" lon="-80.16283667"><ele>19.458</ele><time>2026-07-18T17:59:35Z</time><speed>0.000</speed><sat>16</sat></trkpt>
  <trkpt lat="26.41453167" lon="-80.16283667"><ele>19.458</ele><time>2026-07-18T17:59:36Z</time><speed>0.000</speed><sat>15</sat></trkpt>
  <trkpt lat="26.41453167" lon="-80.16283667"><ele>19.458</ele><time>2026-07-18T17:59:37Z</time><speed>0.000</speed><sat>16</sat></trkpt>
  <trkpt lat="26.41453167" lon="-80.16283667"><ele>19.458</ele><time>2026-07-18T17:59:38Z</time><speed>0.000</speed><sat>16</sat></trkpt>
  <trkpt lat="26.41453167" lon="-80.16283667"><ele>19.458</ele><time>2026-07-18T17:59:39Z</time><speed>0.000</speed><sat>16</sat></trkpt>
  <trkpt lat="26.41453167" lon="-80.16283667"><ele>19.458</ele><time>2026-07-18T17:59:40Z</time><speed>0.000</speed><sat>16</sat></trkpt>
  <trkpt lat="26.41453167" lon="-80.16283667"><ele>19.458</ele><time>2026-07-18T17:59:41Z</time><speed>0.000</speed><sat>16</sat></trkpt>
  <trkpt lat="26.41453167" lon="-80.16283667"><ele>19.458</ele><time>2026-07-18T17:59:42Z</time><speed>0.000</speed><sat>16</sat></trkpt>
  <trkpt lat="26.41453167" lon="-80.16283667"><ele>19.458</ele><time>2026-07-18T17:59:43Z</time><speed>0.000</speed><sat>16</sat></trkpt>
  <trkpt lat="26.41453167" lon="-80.16283667"><ele>19.458</ele><time>2026-07-18T17:59:44Z</time><speed>0.000</speed><sat>16</sat></trkpt>
  <trkpt lat="26.41453167" lon="-80.16283667"><ele>19.458</ele><time>2026-07-18T17:59:45Z</time><speed>0.000</speed><sat>16</sat></trkpt>
  <trkpt lat="26.41453167" lon="-80.16283667"><ele>19.458</ele><time>2026-07-18T17:59:46Z</time><speed>0.000</speed><sat>16</sat></trkpt>
  <trkpt lat="26.41453167" lon="-80.16283667"><ele>19.458</ele><time>2026-07-18T17:59:47Z</time><speed>0.000</speed><sat>15</sat></trkpt>
  <trkpt lat="26.41453167" lon="-80.16283667"><ele>19.458</ele><time>2026-07-18T17:59:48Z</time><speed>0.000</speed><sat>15</sat></trkpt>
  <trkpt lat="26.41453167" lon="-80.16283667"><ele>19.458</ele><time>2026-07-18T17:59:49Z</time><speed>0.000</speed><sat>15</sat></trkpt>
  <trkpt lat="26.41453167" lon="-80.16283667"><ele>19.458</ele><time>2026-07-18T17:59:50Z</time><speed>0.000</speed><sat>15</sat></trkpt>
  <trkpt lat="26.41453167" lon="-80.16283667"><ele>19.458</ele><time>2026-07-18T17:59:51Z</time><speed>0.000</speed><sat>15</sat></trkpt>
  <trkpt lat="26.41453167" lon="-80.16283667"><ele>19.458</ele><time>2026-07-18T17:59:52Z</time><speed>0.000</speed><sat>16</sat></trkpt>
  <trkpt lat="26.41453167" lon="-80.16283667"><ele>19.458</ele><time>2026-07-18T17:59:53Z</time><speed>0.000</speed><sat>16</sat></trkpt>
  <trkpt lat="26.41453167" lon="-80.16283667"><ele>19.458</ele><time>2026-07-18T17:59:54Z</time><speed>0.000</speed><sat>16</sat></trkpt>
  <trkpt lat="26.41453167" lon="-80.16283667"><ele>19.458</ele><time>2026-07-18T17:59:55Z</time><speed>0.000</speed><sat>16</sat></trkpt>
  <trkpt lat="26.41453167" lon="-80.16283667"><ele>19.458</ele><time>2026-07-18T17:59:56Z</time><speed>0.000</speed><sat>16</sat></trkpt>
  <trkpt lat="26.41453167" lon="-80.16283667"><ele>19.458</ele><time>2026-07-18T17:59:57Z</time><speed>0.000</speed><sat>16</sat></trkpt>
  <trkpt lat="26.41453167" lon="-80.16283667"><ele>19.458</ele><time>2026-07-18T17:59:58Z</time><speed>0.000</speed><sat>16</sat></trkpt>
  <trkpt lat="26.41453167" lon="-80.16283667"><ele>19.458</ele><time>2026-07-18T17:59:59Z</time><speed>0.000</speed><sat>16</sat></trkpt>
  <trkpt lat="26.41453167" lon="-80.16283667"><ele>19.458</ele><time>2026-07-18T18:00:00Z</time><speed>0.000</speed><sat>16</sat></trkpt>
  <trkpt lat="26.41453167" lon="-80.16283667"><ele>19.458</ele><time>2026-07-18T18:00:01Z</time><speed>0.000</speed><sat>16</sat></trkpt>
  <trkpt lat="26.41453167" lon="-80.16283667"><ele>19.458</ele><time>2026-07-18T18:00:02Z</time><speed>0.000</speed><sat>16</sat></trkpt>
  <trkpt lat="26.41453167" lon="-80.16283667"><ele>19.458</ele><time>2026-07-18T18:00:03Z</time><speed>0.000</speed><sat>16</sat></trkpt>
  <trkpt lat="26.41452667" lon="-80.16282833"><ele>20.558</ele><time>2026-07-18T18:00:04Z</time><speed>0.264</speed><sat>16</sat></trkpt>
  <trkpt lat="26.41453333" lon="-80.16282333"><ele>20.558</ele><time>2026-07-18T18:00:05Z</time><speed>0.329</speed><sat>16</sat></trkpt>
  <trkpt lat="26.41453667" lon="-80.16282000"><ele>20.558</ele><time>2026-07-18T18:00:06Z</time><speed>0.371</speed><sat>16</sat></trkpt>
  <trkpt lat="26.41454167" lon="-80.16281667"><ele>20.458</ele><time>2026-07-18T18:00:07Z</time><speed>0.406</speed><sat>16</sat></trkpt>
  <trkpt lat="26.41455167" lon="-80.16281500"><ele>20.358</ele><time>2026-07-18T18:00:08Z</time><speed>0.481</speed><sat>16</sat></trkpt>
  <trkpt lat="26.41456333" lon="-80.16281333"><ele>20.158</ele><time>2026-07-18T18:00:09Z</time><speed>0.558</speed><sat>16</sat></trkpt>
  <trkpt lat="26.41457333" lon="-80.16281333"><ele>20.058</ele><time>2026-07-18T18:00:10Z</time><speed>0.651</speed><sat>16</sat></trkpt>
  <trkpt lat="26.41458500" lon="-80.16281500"><ele>20.458</ele><time>2026-07-18T18:00:11Z</time><speed>0.671</speed><sat>16</sat></trkpt>
  <trkpt lat="26.41459333" lon="-80.16281500"><ele>20.858</ele><time>2026-07-18T18:00:12Z</time><speed>0.698</speed><sat>16</sat></trkpt>
  <trkpt lat="26.41460500" lon="-80.16281667"><ele>20.958</ele><time>2026-07-18T18:00:13Z</time><speed>0.791</speed><sat>16</sat></trkpt>
  <trkpt lat="26.41461833" lon="-80.16281667"><ele>20.858</ele><time>2026-07-18T18:00:14Z</time><speed>0.844</speed><sat>16</sat></trkpt>
  <trkpt lat="26.41463500" lon="-80.16281833"><ele>21.058</ele><time>2026-07-18T18:00:15Z</time><speed>0.898</speed><sat>16</sat></trkpt>
  <trkpt lat="26.41464500" lon="-80.16281833"><ele>20.758</ele><time>2026-07-18T18:00:16Z</time><speed>0.969</speed><sat>16</sat></trkpt>
  <trkpt lat="26.41465500" lon="-80.16281833"><ele>20.958</ele><time>2026-07-18T18:00:17Z</time><speed>1.041</speed><sat>16</sat></trkpt>
  <trkpt lat="26.41466500" lon="-80.16282167"><ele>20.858</ele><time>2026-07-18T18:00:18Z</time><speed>1.075</speed><sat>16</sat></trkpt>
  <trkpt lat="26.41467167" lon="-80.16282167"><ele>20.558</ele><time>2026-07-18T18:00:19Z</time><speed>1.101</speed><sat>16</sat></trkpt>
  <trkpt lat="26.41468167" lon="-80.16282333"><ele>20.258</ele><time>2026-07-18T18:00:20Z</time><speed>1.134</speed><sat>16</sat></trkpt>
  <trkpt lat="26.41469500" lon="-80.16282333"><ele>20.058</ele><time>2026-07-18T18:00:21Z</time><speed>1.220</speed><sat>16</sat></trkpt>
  <trkpt lat="26.41470833" lon="-80.16282500"><ele>19.758</ele><time>2026-07-18T18:00:22Z</time><speed>1.297</speed><sat>16</sat></trkpt>
  <trkpt lat="26.41472000" lon="-80.16282500"><ele>19.258</ele><time>2026-07-18T18:00:23Z</time><speed>1.285</speed><sat>16</sat></trkpt>
  <trkpt lat="26.41473167" lon="-80.16282500"><ele>18.958</ele><time>2026-07-18T18:00:24Z</time><speed>1.329</speed><sat>16</sat></trkpt>
  <trkpt lat="26.41474667" lon="-80.16282000"><ele>18.958</ele><time>2026-07-18T18:00:25Z</time><speed>1.355</speed><sat>16</sat></trkpt>
  <trkpt lat="26.41476333" lon="-80.16281500"><ele>19.558</ele><time>2026-07-18T18:00:26Z</time><speed>1.350</speed><sat>16</sat></trkpt>
  <trkpt lat="26.41478000" lon="-80.16281000"><ele>19.558</ele><time>2026-07-18T18:00:27Z</time><speed>1.391</speed><sat>16</sat></trkpt>
  <trkpt lat="26.41479667" lon="-80.16281333"><ele>19.558</ele><time>2026-07-18T18:00:28Z</time><speed>1.431</speed><sat>16</sat></trkpt>
  <trkpt lat="26.41481167" lon="-80.16281833"><ele>19.358</ele><time>2026-07-18T18:00:29Z</time><speed>1.467</speed><sat>16</sat></trkpt>
  <trkpt lat="26.41482167" lon="-80.16282000"><ele>18.958</ele><time>2026-07-18T18:00:30Z</time><speed>1.471</speed><sat>16</sat></trkpt>
  <trkpt lat="26.41483500" lon="-80.16282167"><ele>18.758</ele><time>2026-07-18T18:00:31Z</time><speed>1.472</speed><sat>16</sat></trkpt>
  <trkpt lat="26.41484833" lon="-80.16282333"><ele>18.458</ele><time>2026-07-18T18:00:32Z</time><speed>1.500</speed><sat>16</sat></trkpt>
  <trkpt lat="26.41486167" lon="-80.16283000"><ele>17.858</ele><time>2026-07-18T18:00:33Z</time><speed>1.547</speed><sat>16</sat></trkpt>
  <trkpt lat="26.41487500" lon="-80.16283333"><ele>17.358</ele><time>2026-07-18T18:00:34Z</time><speed>1.545</speed><sat>16</sat></trkpt>
  <trkpt lat="26.41489167" lon="-80.16283833"><ele>16.558</ele><time>2026-07-18T18:00:35Z</time><speed>1.570</speed><sat>16</sat></trkpt>
  <trkpt lat="26.41490833" lon="-80.16284667"><ele>16.358</ele><time>2026-07-18T18:00:36Z</time><speed>1.660</speed><sat>16</sat></trkpt>
  <trkpt lat="26.41493000" lon="-80.16285000"><ele>16.158</ele><time>2026-07-18T18:00:37Z</time><speed>1.651</speed><sat>16</sat></trkpt>
  <trkpt lat="26.41495167" lon="-80.16285000"><ele>15.958</ele><time>2026-07-18T18:00:38Z</time><speed>1.695</speed><sat>16</sat></trkpt>
  <trkpt lat="26.41497167" lon="-80.16285000"><ele>16.158</ele><time>2026-07-18T18:00:39Z</time><speed>1.743</speed><sat>16</sat></trkpt>
  <trkpt lat="26.41498833" lon="-80.16285000"><ele>16.658</ele><time>2026-07-18T18:00:40Z</time><speed>1.769</speed><sat>16</sat></trkpt>
  <trkpt lat="26.41500167" lon="-80.16285000"><ele>17.158</ele><time>2026-07-18T18:00:41Z</time><speed>1.818</speed><sat>16</sat></trkpt>
  <trkpt lat="26.41501667" lon="-80.16285000"><ele>17.658</ele><time>2026-07-18T18:00:42Z</time><speed>1.830</speed><sat>16</sat></trkpt>
  <trkpt lat="26.41502500" lon="-80.16284833"><ele>18.158</ele><time>2026-07-18T18:00:43Z</time><speed>1.826</speed><sat>16</sat></trkpt>
  <trkpt lat="26.41503667" lon="-80.16285167"><ele>18.058</ele><time>2026-07-18T18:00:44Z</time><speed>1.840</speed><sat>16</sat></trkpt>
  <trkpt lat="26.41505167" lon="-80.16285333"><ele>17.958</ele><time>2026-07-18T18:00:45Z</time><speed>1.837</speed><sat>16</sat></trkpt>
  <trkpt lat="26.41506833" lon="-80.16285833"><ele>17.658</ele><time>2026-07-18T18:00:46Z</time><speed>1.770</speed><sat>16</sat></trkpt>
  <trkpt lat="26.41508500" lon="-80.16285833"><ele>17.058</ele><time>2026-07-18T18:00:47Z</time><speed>1.756</speed><sat>16</sat></trkpt>
  <trkpt lat="26.41510167" lon="-80.16285833"><ele>16.758</ele><time>2026-07-18T18:00:48Z</time><speed>1.689</speed><sat>16</sat></trkpt>
  <trkpt lat="26.41511500" lon="-80.16286000"><ele>16.658</ele><time>2026-07-18T18:00:49Z</time><speed>1.652</speed><sat>16</sat></trkpt>
  <trkpt lat="26.41512833" lon="-80.16286167"><ele>16.458</ele><time>2026-07-18T18:00:50Z</time><speed>1.645</speed><sat>16</sat></trkpt>
  <trkpt lat="26.41514167" lon="-80.16286500"><ele>16.558</ele><time>2026-07-18T18:00:51Z</time><speed>1.616</speed><sat>16</sat></trkpt>
  <trkpt lat="26.41515500" lon="-80.16286833"><ele>16.758</ele><time>2026-07-18T18:00:52Z</time><speed>1.595</speed><sat>16</sat></trkpt>
  <trkpt lat="26.41516833" lon="-80.16287333"><ele>16.758</ele><time>2026-07-18T18:00:53Z</time><speed>1.582</speed><sat>16</sat></trkpt>
  <trkpt lat="26.41518333" lon="-80.16287500"><ele>16.258</ele><time>2026-07-18T18:00:54Z</time><speed>1.560</speed><sat>16</sat></trkpt>
  <trkpt lat="26.41519667" lon="-80.16288000"><ele>15.958</ele><time>2026-07-18T18:00:55Z</time><speed>1.544</speed><sat>16</sat></trkpt>
  <trkpt lat="26.41521167" lon="-80.16288333"><ele>15.958</ele><time>2026-07-18T18:00:56Z</time><speed>1.561</speed><sat>16</sat></trkpt>
  <trkpt lat="26.41522667" lon="-80.16288500"><ele>15.958</ele><time>2026-07-18T18:00:57Z</time><speed>1.572</speed><sat>16</sat></trkpt>
  <trkpt lat="26.41524333" lon="-80.16288500"><ele>15.958</ele><time>2026-07-18T18:00:58Z</time><speed>1.613</speed><sat>16</sat></trkpt>
  <trkpt lat="26.41526167" lon="-80.16289167"><ele>16.058</ele><time>2026-07-18T18:00:59Z</time><speed>1.615</speed><sat>16</sat></trkpt>
  <trkpt lat="26.41527833" lon="-80.16289167"><ele>16.158</ele><time>2026-07-18T18:01:00Z</time><speed>1.637</speed><sat>16</sat></trkpt>
  <trkpt lat="26.41530000" lon="-80.16289500"><ele>16.158</ele><time>2026-07-18T18:01:01Z</time><speed>1.657</speed><sat>16</sat></trkpt>
  <trkpt lat="26.41532000" lon="-80.16289833"><ele>16.658</ele><time>2026-07-18T18:01:02Z</time><speed>1.654</speed><sat>16</sat></trkpt>
  <trkpt lat="26.41533667" lon="-80.16289833"><ele>16.758</ele><time>2026-07-18T18:01:03Z</time><speed>1.650</speed><sat>16</sat></trkpt>
  <trkpt lat="26.41535000" lon="-80.16289833"><ele>16.858</ele><time>2026-07-18T18:01:04Z</time><speed>1.656</speed><sat>16</sat></trkpt>
  <trkpt lat="26.41536333" lon="-80.16289333"><ele>16.658</ele><time>2026-07-18T18:01:05Z</time><speed>1.641</speed><sat>16</sat></trkpt>
  <trkpt lat="26.41537833" lon="-80.16289500"><ele>16.058</ele><time>2026-07-18T18:01:06Z</time><speed>1.649</speed><sat>16</sat></trkpt>
  <trkpt lat="26.41539167" lon="-80.16289333"><ele>15.658</ele><time>2026-07-18T18:01:07Z</time><speed>1.665</speed><sat>16</sat></trkpt>
  <trkpt lat="26.41540500" lon="-80.16289333"><ele>15.258</ele><time>2026-07-18T18:01:08Z</time><speed>1.665</speed><sat>16</sat></trkpt>
  <trkpt lat="26.41541833" lon="-80.16289500"><ele>15.658</ele><time>2026-07-18T18:01:09Z</time><speed>1.664</speed><sat>16</sat></trkpt>
  <trkpt lat="26.41543333" lon="-80.16289333"><ele>15.958</ele><time>2026-07-18T18:01:10Z</time><speed>1.667</speed><sat>16</sat></trkpt>
  <trkpt lat="26.41545167" lon="-80.16288833"><ele>16.458</ele><time>2026-07-18T18:01:11Z</time><speed>1.660</speed><sat>16</sat></trkpt>
  <trkpt lat="26.41546500" lon="-80.16289167"><ele>16.858</ele><time>2026-07-18T18:01:12Z</time><speed>1.679</speed><sat>16</sat></trkpt>
  <trkpt lat="26.41548167" lon="-80.16289167"><ele>16.958</ele><time>2026-07-18T18:01:13Z</time><speed>1.689</speed><sat>16</sat></trkpt>
  <trkpt lat="26.41550000" lon="-80.16289333"><ele>17.158</ele><time>2026-07-18T18:01:14Z</time><speed>1.702</speed><sat>16</sat></trkpt>
  <trkpt lat="26.41552000" lon="-80.16289667"><ele>17.558</ele><time>2026-07-18T18:01:15Z</time><speed>1.752</speed><sat>16</sat></trkpt>
  <trkpt lat="26.41553667" lon="-80.16290333"><ele>17.458</ele><time>2026-07-18T18:01:16Z</time><speed>1.757</speed><sat>16</sat></trkpt>
  <trkpt lat="26.41555333" lon="-80.16290333"><ele>17.558</ele><time>2026-07-18T18:01:17Z</time><speed>1.747</speed><sat>16</sat></trkpt>
  <trkpt lat="26.41557000" lon="-80.16290500"><ele>17.758</ele><time>2026-07-18T18:01:18Z</time><speed>1.749</speed><sat>16</sat></trkpt>
  <trkpt lat="26.41558500" lon="-80.16290500"><ele>18.058</ele><time>2026-07-18T18:01:19Z</time><speed>1.746</speed><sat>16</sat></trkpt>
  <trkpt lat="26.41560000" lon="-80.16290667"><ele>18.258</ele><time>2026-07-18T18:01:20Z</time><speed>1.726</speed><sat>16</sat></trkpt>
  <trkpt lat="26.41561500" lon="-80.16291167"><ele>18.558</ele><time>2026-07-18T18:01:21Z</time><speed>1.729</speed><sat>16</sat></trkpt>
  <trkpt lat="26.41563167" lon="-80.16291167"><ele>18.558</ele><time>2026-07-18T18:01:22Z</time><speed>1.729</speed><sat>16</sat></trkpt>
  <trkpt lat="26.41564833" lon="-80.16291333"><ele>18.558</ele><time>2026-07-18T18:01:23Z</time><speed>1.733</speed><sat>16</sat></trkpt>
  <trkpt lat="26.41566500" lon="-80.16291500"><ele>18.858</ele><time>2026-07-18T18:01:24Z</time><speed>1.756</speed><sat>16</sat></trkpt>
  <trkpt lat="26.41568667" lon="-80.16291667"><ele>19.158</ele><time>2026-07-18T18:01:25Z</time><speed>1.777</speed><sat>16</sat></trkpt>
  <trkpt lat="26.41570667" lon="-80.16291667"><ele>19.758</ele><time>2026-07-18T18:01:26Z</time><speed>1.778</speed><sat>16</sat></trkpt>
  <trkpt lat="26.41572333" lon="-80.16291833"><ele>20.058</ele><time>2026-07-18T18:01:27Z</time><speed>1.779</speed><sat>16</sat></trkpt>
  <trkpt lat="26.41574000" lon="-80.16292000"><ele>20.258</ele><time>2026-07-18T18:01:28Z</time><speed>1.784</speed><sat>16</sat></trkpt>
  <trkpt lat="26.41575667" lon="-80.16292167"><ele>20.258</ele><time>2026-07-18T18:01:29Z</time><speed>1.786</speed><sat>16</sat></trkpt>
  <trkpt lat="26.41577000" lon="-80.16292667"><ele>20.358</ele><time>2026-07-18T18:01:30Z</time><speed>1.791</speed><sat>16</sat></trkpt>
  <trkpt lat="26.41578500" lon="-80.16293000"><ele>20.458</ele><time>2026-07-18T18:01:31Z</time><speed>1.791</speed><sat>15</sat></trkpt>
  <trkpt lat="26.41580000" lon="-80.16293333"><ele>20.458</ele><time>2026-07-18T18:01:32Z</time><speed>1.787</speed><sat>15</sat></trkpt>
  <trkpt lat="26.41581500" lon="-80.16294167"><ele>20.258</ele><time>2026-07-18T18:01:33Z</time><speed>1.783</speed><sat>15</sat></trkpt>
  <trkpt lat="26.41583000" lon="-80.16294667"><ele>19.858</ele><time>2026-07-18T18:01:34Z</time><speed>1.791</speed><sat>16</sat></trkpt>
  <trkpt lat="26.41584333" lon="-80.16294833"><ele>19.758</ele><time>2026-07-18T18:01:35Z</time><speed>1.772</speed><sat>16</sat></trkpt>
  <trkpt lat="26.41585667" lon="-80.16295500"><ele>19.558</ele><time>2026-07-18T18:01:36Z</time><speed>1.776</speed><sat>15</sat></trkpt>
  <trkpt lat="26.41586667" lon="-80.16296333"><ele>19.358</ele><time>2026-07-18T18:01:37Z</time><speed>1.789</speed><sat>15</sat></trkpt>
  <trkpt lat="26.41588000" lon="-80.16297167"><ele>19.458</ele><time>2026-07-18T18:01:38Z</time><speed>1.802</speed><sat>15</sat></trkpt>
  <trkpt lat="26.41589500" lon="-80.16297833"><ele>19.358</ele><time>2026-07-18T18:01:39Z</time><speed>1.836</speed><sat>16</sat></trkpt>
  <trkpt lat="26.41590833" lon="-80.16298667"><ele>19.558</ele><time>2026-07-18T18:01:40Z</time><speed>1.851</speed><sat>16</sat></trkpt>
  <trkpt lat="26.41592333" lon="-80.16299000"><ele>19.958</ele><time>2026-07-18T18:01:41Z</time><speed>1.867</speed><sat>15</sat></trkpt>
  <trkpt lat="26.41594167" lon="-80.16299167"><ele>20.358</ele><time>2026-07-18T18:01:42Z</time><speed>1.879</speed><sat>15</sat></trkpt>
  <trkpt lat="26.41596000" lon="-80.16299833"><ele>20.558</ele><time>2026-07-18T18:01:43Z</time><speed>1.914</speed><sat>16</sat></trkpt>
  <trkpt lat="26.41597833" lon="-80.16300667"><ele>20.758</ele><time>2026-07-18T18:01:44Z</time><speed>1.896</speed><sat>16</sat></trkpt>
  <trkpt lat="26.41599167" lon="-80.16301333"><ele>21.158</ele><time>2026-07-18T18:01:45Z</time><speed>1.874</speed><sat>16</sat></trkpt>
  <trkpt lat="26.41601000" lon="-80.16302000"><ele>21.558</ele><time>2026-07-18T18:01:46Z</time><speed>1.866</speed><sat>16</sat></trkpt>
  <trkpt lat="26.41602500" lon="-80.16302833"><ele>21.858</ele><time>2026-07-18T18:01:47Z</time><speed>1.872</speed><sat>16</sat></trkpt>
  <trkpt lat="26.41604167" lon="-80.16303167"><ele>22.258</ele><time>2026-07-18T18:01:48Z</time><speed>1.852</speed><sat>16</sat></trkpt>
  <trkpt lat="26.41605667" lon="-80.16303500"><ele>21.858</ele><time>2026-07-18T18:01:49Z</time><speed>1.827</speed><sat>15</sat></trkpt>
  <trkpt lat="26.41607167" lon="-80.16304000"><ele>21.858</ele><time>2026-07-18T18:01:50Z</time><speed>1.795</speed><sat>15</sat></trkpt>
  <trkpt lat="26.41608500" lon="-80.16304333"><ele>21.758</ele><time>2026-07-18T18:01:51Z</time><speed>1.781</speed><sat>15</sat></trkpt>
  <trkpt lat="26.41610000" lon="-80.16304667"><ele>21.558</ele><time>2026-07-18T18:01:52Z</time><speed>1.786</speed><sat>16</sat></trkpt>
  <trkpt lat="26.41611667" lon="-80.16305000"><ele>21.258</ele><time>2026-07-18T18:01:53Z</time><speed>1.772</speed><sat>15</sat></trkpt>
  <trkpt lat="26.41613500" lon="-80.16304833"><ele>21.158</ele><time>2026-07-18T18:01:54Z</time><speed>1.757</speed><sat>16</sat></trkpt>
  <trkpt lat="26.41615000" lon="-80.16305167"><ele>21.158</ele><time>2026-07-18T18:01:55Z</time><speed>1.757</speed><sat>16</sat></trkpt>
  <trkpt lat="26.41616500" lon="-80.16306167"><ele>20.858</ele><time>2026-07-18T18:01:56Z</time><speed>1.770</speed><sat>16</sat></trkpt>
  <trkpt lat="26.41618667" lon="-80.16306500"><ele>20.458</ele><time>2026-07-18T18:01:57Z</time><speed>1.760</speed><sat>16</sat></trkpt>
  <trkpt lat="26.41620667" lon="-80.16306667"><ele>19.958</ele><time>2026-07-18T18:01:58Z</time><speed>1.792</speed><sat>16</sat></trkpt>
  <trkpt lat="26.41622167" lon="-80.16306333"><ele>19.658</ele><time>2026-07-18T18:01:59Z</time><speed>1.804</speed><sat>16</sat></trkpt>
  <trkpt lat="26.41624000" lon="-80.16305833"><ele>19.658</ele><time>2026-07-18T18:02:00Z</time><speed>1.841</speed><sat>16</sat></trkpt>
  <trkpt lat="26.41626000" lon="-80.16305500"><ele>19.658</ele><time>2026-07-18T18:02:01Z</time><speed>1.887</speed><sat>16</sat></trkpt>
  <trkpt lat="26.41628000" lon="-80.16305333"><ele>19.558</ele><time>2026-07-18T18:02:02Z</time><speed>1.889</speed><sat>16</sat></trkpt>
  <trkpt lat="26.41629667" lon="-80.16305167"><ele>19.658</ele><time>2026-07-18T18:02:03Z</time><speed>1.886</speed><sat>16</sat></trkpt>
  <trkpt lat="26.41631500" lon="-80.16305500"><ele>19.658</ele><time>2026-07-18T18:02:04Z</time><speed>1.910</speed><sat>16</sat></trkpt>
  <trkpt lat="26.41633167" lon="-80.16306167"><ele>19.858</ele><time>2026-07-18T18:02:05Z</time><speed>1.951</speed><sat>16</sat></trkpt>
  <trkpt lat="26.41634667" lon="-80.16307333"><ele>20.158</ele><time>2026-07-18T18:02:06Z</time><speed>1.949</speed><sat>16</sat></trkpt>
  <trkpt lat="26.41636000" lon="-80.16308667"><ele>20.458</ele><time>2026-07-18T18:02:07Z</time><speed>1.982</speed><sat>16</sat></trkpt>
  <trkpt lat="26.41637167" lon="-80.16309667"><ele>20.758</ele><time>2026-07-18T18:02:08Z</time><speed>1.970</speed><sat>16</sat></trkpt>
  <trkpt lat="26.41638667" lon="-80.16310500"><ele>21.458</ele><time>2026-07-18T18:02:09Z</time><speed>1.988</speed><sat>16</sat></trkpt>
  <trkpt lat="26.41640000" lon="-80.16311333"><ele>21.858</ele><time>2026-07-18T18:02:10Z</time><speed>1.995</speed><sat>16</sat></trkpt>
  <trkpt lat="26.41641333" lon="-80.16312500"><ele>22.158</ele><time>2026-07-18T18:02:11Z</time><speed>1.961</speed><sat>16</sat></trkpt>
  <trkpt lat="26.41642833" lon="-80.16313667"><ele>22.458</ele><time>2026-07-18T18:02:12Z</time><speed>1.998</speed><sat>16</sat></trkpt>
  <trkpt lat="26.41644000" lon="-80.16315000"><ele>22.858</ele><time>2026-07-18T18:02:13Z</time><speed>2.018</speed><sat>16</sat></trkpt>
  <trkpt lat="26.41645167" lon="-80.16316667"><ele>23.058</ele><time>2026-07-18T18:02:14Z</time><speed>2.027</speed><sat>16</sat></trkpt>
  <trkpt lat="26.41646333" lon="-80.16317833"><ele>22.958</ele><time>2026-07-18T18:02:15Z</time><speed>2.037</speed><sat>16</sat></trkpt>
  <trkpt lat="26.41647000" lon="-80.16319167"><ele>22.858</ele><time>2026-07-18T18:02:16Z</time><speed>2.062</speed><sat>16</sat></trkpt>
  <trkpt lat="26.41648167" lon="-80.16320167"><ele>23.158</ele><time>2026-07-18T18:02:17Z</time><speed>2.086</speed><sat>16</sat></trkpt>
  <trkpt lat="26.41649167" lon="-80.16322333"><ele>23.657</ele><time>2026-07-18T18:02:18Z</time><speed>2.117</speed><sat>16</sat></trkpt>
  <trkpt lat="26.41649667" lon="-80.16324333"><ele>23.457</ele><time>2026-07-18T18:02:19Z</time><speed>2.151</speed><sat>16</sat></trkpt>
  <trkpt lat="26.41649833" lon="-80.16326333"><ele>22.957</ele><time>2026-07-18T18:02:20Z</time><speed>2.166</speed><sat>16</sat></trkpt>
  <trkpt lat="26.41650167" lon="-80.16328833"><ele>21.657</ele><time>2026-07-18T18:02:21Z</time><speed>2.188</speed><sat>16</sat></trkpt>
  <trkpt lat="26.41650333" lon="-80.16331000"><ele>20.157</ele><time>2026-07-18T18:02:22Z</time><speed>2.177</speed><sat>15</sat></trkpt>
  <trkpt lat="26.41650667" lon="-80.16333333"><ele>19.257</ele><time>2026-07-18T18:02:23Z</time><speed>2.184</speed><sat>16</sat></trkpt>
  <trkpt lat="26.41651000" lon="-80.16335500"><ele>18.557</ele><time>2026-07-18T18:02:24Z</time><speed>2.201</speed><sat>16</sat></trkpt>
  <trkpt lat="26.41651333" lon="-80.16337667"><ele>18.057</ele><time>2026-07-18T18:02:25Z</time><speed>2.209</speed><sat>16</sat></trkpt>
  <trkpt lat="26.41651833" lon="-80.16340333"><ele>17.557</ele><time>2026-07-18T18:02:26Z</time><speed>2.252</speed><sat>16</sat></trkpt>
  <trkpt lat="26.41652500" lon="-80.16343000"><ele>17.057</ele><time>2026-07-18T18:02:27Z</time><speed>2.264</speed><sat>16</sat></trkpt>
  <trkpt lat="26.41652667" lon="-80.16345667"><ele>17.156</ele><time>2026-07-18T18:02:28Z</time><speed>2.281</speed><sat>16</sat></trkpt>
  <trkpt lat="26.41652833" lon="-80.16348667"><ele>16.856</ele><time>2026-07-18T18:02:29Z</time><speed>2.298</speed><sat>16</sat></trkpt>
  <trkpt lat="26.41652500" lon="-80.16351667"><ele>16.456</ele><time>2026-07-18T18:02:30Z</time><speed>2.337</speed><sat>15</sat></trkpt>
  <trkpt lat="26.41652333" lon="-80.16354167"><ele>15.856</ele><time>2026-07-18T18:02:31Z</time><speed>2.385</speed><sat>16</sat></trkpt>
  <trkpt lat="26.41652667" lon="-80.16356833"><ele>15.756</ele><time>2026-07-18T18:02:32Z</time><speed>2.437</speed><sat>16</sat></trkpt>
  <trkpt lat="26.41653333" lon="-80.16359500"><ele>15.756</ele><time>2026-07-18T18:02:33Z</time><speed>2.478</speed><sat>16</sat></trkpt>
  <trkpt lat="26.41653833" lon="-80.16361833"><ele>15.656</ele><time>2026-07-18T18:02:34Z</time><speed>2.506</speed><sat>16</sat></trkpt>
  <trkpt lat="26.41654667" lon="-80.16364000"><ele>15.656</ele><time>2026-07-18T18:02:35Z</time><speed>2.527</speed><sat>16</sat></trkpt>
  <trkpt lat="26.41655167" lon="-80.16366167"><ele>15.556</ele><time>2026-07-18T18:02:36Z</time><speed>2.514</speed><sat>16</sat></trkpt>
  <trkpt lat="26.41655833" lon="-80.16368667"><ele>15.656</ele><time>2026-07-18T18:02:37Z</time><speed>2.515</speed><sat>16</sat></trkpt>
  <trkpt lat="26.41656500" lon="-80.16371167"><ele>15.455</ele><time>2026-07-18T18:02:38Z</time><speed>2.504</speed><sat>16</sat></trkpt>
  <trkpt lat="26.41657333" lon="-80.16373667"><ele>15.355</ele><time>2026-07-18T18:02:39Z</time><speed>2.488</speed><sat>16</sat></trkpt>
  <trkpt lat="26.41657833" lon="-80.16375833"><ele>15.355</ele><time>2026-07-18T18:02:40Z</time><speed>2.494</speed><sat>16</sat></trkpt>
  <trkpt lat="26.41658333" lon="-80.16378333"><ele>15.555</ele><time>2026-07-18T18:02:41Z</time><speed>2.486</speed><sat>16</sat></trkpt>
  <trkpt lat="26.41659000" lon="-80.16380833"><ele>15.855</ele><time>2026-07-18T18:02:42Z</time><speed>2.495</speed><sat>16</sat></trkpt>
  <trkpt lat="26.41659833" lon="-80.16383667"><ele>16.155</ele><time>2026-07-18T18:02:43Z</time><speed>2.499</speed><sat>15</sat></trkpt>
  <trkpt lat="26.41660333" lon="-80.16386667"><ele>16.255</ele><time>2026-07-18T18:02:44Z</time><speed>2.527</speed><sat>15</sat></trkpt>
  <trkpt lat="26.41660500" lon="-80.16389833"><ele>16.755</ele><time>2026-07-18T18:02:45Z</time><speed>2.549</speed><sat>15</sat></trkpt>
  <trkpt lat="26.41660167" lon="-80.16392667"><ele>16.955</ele><time>2026-07-18T18:02:46Z</time><speed>2.591</speed><sat>16</sat></trkpt>
  <trkpt lat="26.41659667" lon="-80.16395333"><ele>16.854</ele><time>2026-07-18T18:02:47Z</time><speed>2.613</speed><sat>16</sat></trkpt>
  <trkpt lat="26.41659167" lon="-80.16398000"><ele>17.054</ele><time>2026-07-18T18:02:48Z</time><speed>2.667</speed><sat>16</sat></trkpt>
  <trkpt lat="26.41659000" lon="-80.16400833"><ele>17.454</ele><time>2026-07-18T18:02:49Z</time><speed>2.704</speed><sat>16</sat></trkpt>
  <trkpt lat="26.41658667" lon="-80.16403167"><ele>17.454</ele><time>2026-07-18T18:02:50Z</time><speed>2.717</speed><sat>16</sat></trkpt>
  <trkpt lat="26.41658500" lon="-80.16405500"><ele>17.554</ele><time>2026-07-18T18:02:51Z</time><speed>2.735</speed><sat>16</sat></trkpt>
  <trkpt lat="26.41658167" lon="-80.16407833"><ele>17.354</ele><time>2026-07-18T18:02:52Z</time><speed>2.733</speed><sat>16</sat></trkpt>
  <trkpt lat="26.41658000" lon="-80.16410667"><ele>17.154</ele><time>2026-07-18T18:02:53Z</time><speed>2.744</speed><sat>16</sat></trkpt>
  <trkpt lat="26.41658000" lon="-80.16413500"><ele>17.254</ele><time>2026-07-18T18:02:54Z</time><speed>2.746</speed><sat>15</sat></trkpt>
  <trkpt lat="26.41658333" lon="-80.16416667"><ele>17.254</ele><time>2026-07-18T18:02:55Z</time><speed>2.751</speed><sat>15</sat></trkpt>
  <trkpt lat="26.41658500" lon="-80.16419833"><ele>17.353</ele><time>2026-07-18T18:02:56Z</time><speed>2.749</speed><sat>15</sat></trkpt>
  <trkpt lat="26.41658667" lon="-80.16422833"><ele>17.553</ele><time>2026-07-18T18:02:57Z</time><speed>2.740</speed><sat>15</sat></trkpt>
  <trkpt lat="26.41659000" lon="-80.16425500"><ele>17.053</ele><time>2026-07-18T18:02:58Z</time><speed>2.678</speed><sat>14</sat></trkpt>
  <trkpt lat="26.41659667" lon="-80.16428167"><ele>16.453</ele><time>2026-07-18T18:02:59Z</time><speed>2.668</speed><sat>14</sat></trkpt>
  <trkpt lat="26.41660500" lon="-80.16430833"><ele>15.953</ele><time>2026-07-18T18:03:00Z</time><speed>2.670</speed><sat>14</sat></trkpt>
  <trkpt lat="26.41661500" lon="-80.16433167"><ele>16.253</ele><time>2026-07-18T18:03:01Z</time><speed>2.641</speed><sat>15</sat></trkpt>
  <trkpt lat="26.41662833" lon="-80.16435333"><ele>16.653</ele><time>2026-07-18T18:03:02Z</time><speed>2.554</speed><sat>14</sat></trkpt>
  <trkpt lat="26.41663667" lon="-80.16437167"><ele>17.253</ele><time>2026-07-18T18:03:03Z</time><speed>2.472</speed><sat>14</sat></trkpt>
  <trkpt lat="26.41665167" lon="-80.16439000"><ele>17.853</ele><time>2026-07-18T18:03:04Z</time><speed>2.410</speed><sat>14</sat></trkpt>
  <trkpt lat="26.41666833" lon="-80.16440500"><ele>18.253</ele><time>2026-07-18T18:03:05Z</time><speed>2.331</speed><sat>14</sat></trkpt>
  <trkpt lat="26.41668667" lon="-80.16441833"><ele>18.853</ele><time>2026-07-18T18:03:06Z</time><speed>2.200</speed><sat>14</sat></trkpt>
  <trkpt lat="26.41669500" lon="-80.16443000"><ele>19.353</ele><time>2026-07-18T18:03:07Z</time><speed>2.077</speed><sat>15</sat></trkpt>
  <trkpt lat="26.41669500" lon="-80.16444000"><ele>19.553</ele><time>2026-07-18T18:03:08Z</time><speed>1.961</speed><sat>16</sat></trkpt>
  <trkpt lat="26.41670000" lon="-80.16444167"><ele>20.453</ele><time>2026-07-18T18:03:09Z</time><speed>1.750</speed><sat>16</sat></trkpt>
  <trkpt lat="26.41669833" lon="-80.16444333"><ele>20.853</ele><time>2026-07-18T18:03:10Z</time><speed>1.526</speed><sat>15</sat></trkpt>
  <trkpt lat="26.41669833" lon="-80.16444500"><ele>21.253</ele><time>2026-07-18T18:03:11Z</time><speed>1.336</speed><sat>15</sat></trkpt>
  <trkpt lat="26.41669167" lon="-80.16444667"><ele>21.552</ele><time>2026-07-18T18:03:12Z</time><speed>1.221</speed><sat>15</sat></trkpt>
  <trkpt lat="26.41668500" lon="-80.16444500"><ele>22.352</ele><time>2026-07-18T18:03:13Z</time><speed>1.097</speed><sat>16</sat></trkpt>
  <trkpt lat="26.41667833" lon="-80.16444500"><ele>23.052</ele><time>2026-07-18T18:03:14Z</time><speed>0.950</speed><sat>16</sat></trkpt>
  <trkpt lat="26.41667167" lon="-80.16444667"><ele>23.552</ele><time>2026-07-18T18:03:15Z</time><speed>0.826</speed><sat>16</sat></trkpt>
  <trkpt lat="26.41666333" lon="-80.16445000"><ele>23.752</ele><time>2026-07-18T18:03:16Z</time><speed>0.750</speed><sat>16</sat></trkpt>
  <trkpt lat="26.41665667" lon="-80.16444833"><ele>24.052</ele><time>2026-07-18T18:03:17Z</time><speed>0.683</speed><sat>16</sat></trkpt>
  <trkpt lat="26.41665167" lon="-80.16445000"><ele>24.352</ele><time>2026-07-18T18:03:18Z</time><speed>0.633</speed><sat>16</sat></trkpt>
  <trkpt lat="26.41665000" lon="-80.16445167"><ele>24.452</ele><time>2026-07-18T18:03:19Z</time><speed>0.619</speed><sat>16</sat></trkpt>
  <trkpt lat="26.41664833" lon="-80.16445500"><ele>24.752</ele><time>2026-07-18T18:03:20Z</time><speed>0.605</speed><sat>15</sat></trkpt>
  <trkpt lat="26.41664667" lon="-80.16445500"><ele>25.152</ele><time>2026-07-18T18:03:21Z</time><speed>0.581</speed><sat>16</sat></trkpt>
  <trkpt lat="26.41664500" lon="-80.16445333"><ele>25.152</ele><time>2026-07-18T18:03:22Z</time><speed>0.521</speed><sat>16</sat></trkpt>
  <trkpt lat="26.41664333" lon="-80.16445167"><ele>25.352</ele><time>2026-07-18T18:03:23Z</time><speed>0.455</speed><sat>16</sat></trkpt>
  <trkpt lat="26.41664333" lon="-80.16444833"><ele>25.652</ele><time>2026-07-18T18:03:24Z</time><speed>0.000</speed><sat>16</sat></trkpt>
  <trkpt lat="26.41664333" lon="-80.16444500"><ele>25.852</ele><time>2026-07-18T18:03:25Z</time><speed>0.000</speed><sat>15</sat></trkpt>
  <trkpt lat="26.41664167" lon="-80.16444167"><ele>26.052</ele><time>2026-07-18T18:03:26Z</time><speed>0.000</speed><sat>15</sat></trkpt>
  <trkpt lat="26.41664167" lon="-80.16444167"><ele>26.052</ele><time>2026-07-18T18:03:27Z</time><speed>0.000</speed><sat>16</sat></trkpt>
  <trkpt lat="26.41664167" lon="-80.16444167"><ele>26.052</ele><time>2026-07-18T18:03:28Z</time><speed>0.000</speed><sat>16</sat></trkpt>
  <trkpt lat="26.41664167" lon="-80.16444167"><ele>26.052</ele><time>2026-07-18T18:03:29Z</time><speed>0.000</speed><sat>16</sat></trkpt>
  <trkpt lat="26.41664167" lon="-80.16444167"><ele>26.052</ele><time>2026-07-18T18:03:30Z</time><speed>0.000</speed><sat>16</sat></trkpt>
  <trkpt lat="26.41664167" lon="-80.16444167"><ele>26.052</ele><time>2026-07-18T18:03:31Z</time><speed>0.000</speed><sat>16</sat></trkpt>
  <trkpt lat="26.41664167" lon="-80.16444167"><ele>26.052</ele><time>2026-07-18T18:03:32Z</time><speed>0.000</speed><sat>16</sat></trkpt>
  <trkpt lat="26.41664167" lon="-80.16444167"><ele>26.052</ele><time>2026-07-18T18:03:33Z</time><speed>0.000</speed><sat>16</sat></trkpt>
  <trkpt lat="26.41664167" lon="-80.16444167"><ele>26.052</ele><time>2026-07-18T18:03:34Z</time><speed>0.000</speed><sat>16</sat></trkpt>
  <trkpt lat="26.41664167" lon="-80.16444167"><ele>26.052</ele><time>2026-07-18T18:03:35Z</time><speed>0.000</speed><sat>16</sat></trkpt>
  <trkpt lat="26.41664167" lon="-80.16444167"><ele>26.052</ele><time>2026-07-18T18:03:36Z</time><speed>0.000</speed><sat>16</sat></trkpt>
  <trkpt lat="26.41664167" lon="-80.16444167"><ele>26.052</ele><time>2026-07-18T18:03:37Z</time><speed>0.000</speed><sat>16</sat></trkpt>
  <trkpt lat="26.41664167" lon="-80.16444167"><ele>26.052</ele><time>2026-07-18T18:03:38Z</time><speed>0.000</speed><sat>16</sat></trkpt>
  <trkpt lat="26.41664167" lon="-80.16444167"><ele>26.052</ele><time>2026-07-18T18:03:39Z</time><speed>0.000</speed><sat>16</sat></trkpt>
  <trkpt lat="26.41664167" lon="-80.16444167"><ele>26.052</ele><time>2026-07-18T18:03:40Z</time><speed>0.000</speed><sat>15</sat></trkpt>
  <trkpt lat="26.41664167" lon="-80.16444167"><ele>26.052</ele><time>2026-07-18T18:03:41Z</time><speed>0.000</speed><sat>15</sat></trkpt>
  <trkpt lat="26.41664167" lon="-80.16444167"><ele>26.052</ele><time>2026-07-18T18:03:42Z</time><speed>0.000</speed><sat>15</sat></trkpt>
  <trkpt lat="26.41664167" lon="-80.16444167"><ele>26.052</ele><time>2026-07-18T18:03:43Z</time><speed>0.000</speed><sat>15</sat></trkpt>
  <trkpt lat="26.41664167" lon="-80.16444167"><ele>26.052</ele><time>2026-07-18T18:03:44Z</time><speed>0.000</speed><sat>15</sat></trkpt>
  <trkpt lat="26.41664167" lon="-80.16444167"><ele>26.052</ele><time>2026-07-18T18:03:45Z</time><speed>0.000</speed><sat>15</sat></trkpt>
  <trkpt lat="26.41664167" lon="-80.16444167"><ele>26.052</ele><time>2026-07-18T18:03:46Z</time><speed>0.000</speed><sat>15</sat></trkpt>
  <trkpt lat="26.41664167" lon="-80.16444167"><ele>26.052</ele><time>2026-07-18T18:03:47Z</time><speed>0.000</speed><sat>15</sat></trkpt>
  <trkpt lat="26.41664167" lon="-80.16444167"><ele>26.052</ele><time>2026-07-18T18:03:48Z</time><speed>0.000</speed><sat>15</sat></trkpt>
  <trkpt lat="26.41664167" lon="-80.16444167"><ele>26.052</ele><time>2026-07-18T18:03:49Z</time><speed>0.000</speed><sat>15</sat></trkpt>
  <trkpt lat="26.41664167" lon="-80.16444167"><ele>26.052</ele><time>2026-07-18T18:03:50Z</time><speed>0.000</speed><sat>15</sat></trkpt>
  <trkpt lat="26.41664167" lon="-80.16444167"><ele>26.052</ele><time>2026-07-18T18:03:51Z</time><speed>0.000</speed><sat>15</sat></trkpt>
  <trkpt lat="26.41664167" lon="-80.16444167"><ele>26.052</ele><time>2026-07-18T18:03:52Z</time><speed>0.000</speed><sat>15</sat></trkpt>
  <trkpt lat="26.41664167" lon="-80.16444167"><ele>26.052</ele><time>2026-07-18T18:03:53Z</time><speed>0.000</speed><sat>15</sat></trkpt>
  <trkpt lat="26.41664167" lon="-80.16444167"><ele>26.052</ele><time>2026-07-18T18:03:54Z</time><speed>0.000</speed><sat>15</sat></trkpt>
  <trkpt lat="26.41664167" lon="-80.16444167"><ele>26.052</ele><time>2026-07-18T18:03:55Z</time><speed>0.000</speed><sat>15</sat></trkpt>
  <trkpt lat="26.41664167" lon="-80.16444167"><ele>26.052</ele><time>2026-07-18T18:03:56Z</time><speed>0.000</speed><sat>15</sat></trkpt>
  <trkpt lat="26.41664167" lon="-80.16444167"><ele>26.052</ele><time>2026-07-18T18:03:57Z</time><speed>0.000</speed><sat>15</sat></trkpt>
  <trkpt lat="26.41664167" lon="-80.16444167"><ele>26.052</ele><time>2026-07-18T18:03:58Z</time><speed>0.000</speed><sat>14</sat></trkpt>
  <trkpt lat="26.41664167" lon="-80.16444167"><ele>26.052</ele><time>2026-07-18T18:03:59Z</time><speed>0.000</speed><sat>14</sat></trkpt>
  <trkpt lat="26.41664167" lon="-80.16444167"><ele>26.052</ele><time>2026-07-18T18:04:00Z</time><speed>0.000</speed><sat>14</sat></trkpt>
  <trkpt lat="26.41664167" lon="-80.16444167"><ele>26.052</ele><time>2026-07-18T18:04:01Z</time><speed>0.000</speed><sat>15</sat></trkpt>
  <trkpt lat="26.41664167" lon="-80.16444167"><ele>26.052</ele><time>2026-07-18T18:04:02Z</time><speed>0.000</speed><sat>15</sat></trkpt>
  <trkpt lat="26.41664167" lon="-80.16444167"><ele>26.052</ele><time>2026-07-18T18:04:03Z</time><speed>0.000</speed><sat>15</sat></trkpt>
  <trkpt lat="26.41664167" lon="-80.16444167"><ele>26.052</ele><time>2026-07-18T18:04:04Z</time><speed>0.000</speed><sat>15</sat></trkpt>
  <trkpt lat="26.41664167" lon="-80.16444167"><ele>26.052</ele><time>2026-07-18T18:04:05Z</time><speed>0.000</speed><sat>15</sat></trkpt>
  <trkpt lat="26.41664167" lon="-80.16444167"><ele>26.052</ele><time>2026-07-18T18:04:06Z</time><speed>0.000</speed><sat>15</sat></trkpt>
  <trkpt lat="26.41664167" lon="-80.16444167"><ele>26.052</ele><time>2026-07-18T18:04:07Z</time><speed>0.000</speed><sat>15</sat></trkpt>
  <trkpt lat="26.41664167" lon="-80.16444167"><ele>26.052</ele><time>2026-07-18T18:04:08Z</time><speed>0.000</speed><sat>16</sat></trkpt>
  <trkpt lat="26.41664167" lon="-80.16444167"><ele>26.052</ele><time>2026-07-18T18:04:09Z</time><speed>0.000</speed><sat>16</sat></trkpt>
  <trkpt lat="26.41664167" lon="-80.16444167"><ele>26.052</ele><time>2026-07-18T18:04:10Z</time><speed>0.000</speed><sat>16</sat></trkpt>
  <trkpt lat="26.41662333" lon="-80.16443833"><ele>28.652</ele><time>2026-07-18T18:04:11Z</time><speed>0.288</speed><sat>16</sat></trkpt>
  <trkpt lat="26.41661500" lon="-80.16442833"><ele>28.453</ele><time>2026-07-18T18:04:12Z</time><speed>0.403</speed><sat>16</sat></trkpt>
  <trkpt lat="26.41660833" lon="-80.16440500"><ele>28.053</ele><time>2026-07-18T18:04:13Z</time><speed>0.627</speed><sat>16</sat></trkpt>
  <trkpt lat="26.41660333" lon="-80.16437333"><ele>27.153</ele><time>2026-07-18T18:04:14Z</time><speed>0.881</speed><sat>16</sat></trkpt>
  <trkpt lat="26.41660000" lon="-80.16432833"><ele>26.653</ele><time>2026-07-18T18:04:15Z</time><speed>1.172</speed><sat>14</sat></trkpt>
  <trkpt lat="26.41659333" lon="-80.16429000"><ele>25.553</ele><time>2026-07-18T18:04:16Z</time><speed>1.494</speed><sat>14</sat></trkpt>
  <trkpt lat="26.41658833" lon="-80.16425167"><ele>24.453</ele><time>2026-07-18T18:04:17Z</time><speed>1.811</speed><sat>13</sat></trkpt>
  <trkpt lat="26.41658167" lon="-80.16421333"><ele>23.353</ele><time>2026-07-18T18:04:18Z</time><speed>2.097</speed><sat>13</sat></trkpt>
  <trkpt lat="26.41657500" lon="-80.16418333"><ele>22.154</ele><time>2026-07-18T18:04:19Z</time><speed>2.380</speed><sat>14</sat></trkpt>
  <trkpt lat="26.41657500" lon="-80.16414833"><ele>21.154</ele><time>2026-07-18T18:04:20Z</time><speed>2.650</speed><sat>14</sat></trkpt>
  <trkpt lat="26.41654000" lon="-80.16413167"><ele>19.454</ele><time>2026-07-18T18:04:21Z</time><speed>2.886</speed><sat>14</sat></trkpt>
  <trkpt lat="26.41655333" lon="-80.16409000"><ele>19.454</ele><time>2026-07-18T18:04:22Z</time><speed>3.082</speed><sat>14</sat></trkpt>
  <trkpt lat="26.41655833" lon="-80.16405500"><ele>18.754</ele><time>2026-07-18T18:04:23Z</time><speed>3.174</speed><sat>15</sat></trkpt>
  <trkpt lat="26.41656167" lon="-80.16401667"><ele>18.454</ele><time>2026-07-18T18:04:24Z</time><speed>3.198</speed><sat>15</sat></trkpt>
  <trkpt lat="26.41657000" lon="-80.16398000"><ele>18.254</ele><time>2026-07-18T18:04:25Z</time><speed>3.223</speed><sat>15</sat></trkpt>
  <trkpt lat="26.41657333" lon="-80.16394000"><ele>17.855</ele><time>2026-07-18T18:04:26Z</time><speed>3.224</speed><sat>14</sat></trkpt>
  <trkpt lat="26.41657667" lon="-80.16390000"><ele>17.555</ele><time>2026-07-18T18:04:27Z</time><speed>3.248</speed><sat>14</sat></trkpt>
  <trkpt lat="26.41657333" lon="-80.16386500"><ele>16.955</ele><time>2026-07-18T18:04:28Z</time><speed>3.291</speed><sat>14</sat></trkpt>
  <trkpt lat="26.41656833" lon="-80.16383000"><ele>16.755</ele><time>2026-07-18T18:04:29Z</time><speed>3.355</speed><sat>15</sat></trkpt>
  <trkpt lat="26.41656000" lon="-80.16379333"><ele>16.755</ele><time>2026-07-18T18:04:30Z</time><speed>3.387</speed><sat>15</sat></trkpt>
  <trkpt lat="26.41655333" lon="-80.16375667"><ele>16.655</ele><time>2026-07-18T18:04:31Z</time><speed>3.408</speed><sat>15</sat></trkpt>
  <trkpt lat="26.41654333" lon="-80.16372333"><ele>16.655</ele><time>2026-07-18T18:04:32Z</time><speed>3.438</speed><sat>15</sat></trkpt>
  <trkpt lat="26.41653833" lon="-80.16368833"><ele>16.356</ele><time>2026-07-18T18:04:33Z</time><speed>3.458</speed><sat>15</sat></trkpt>
  <trkpt lat="26.41653167" lon="-80.16365333"><ele>16.356</ele><time>2026-07-18T18:04:34Z</time><speed>3.468</speed><sat>15</sat></trkpt>
  <trkpt lat="26.41652500" lon="-80.16362000"><ele>16.156</ele><time>2026-07-18T18:04:35Z</time><speed>3.461</speed><sat>15</sat></trkpt>
  <trkpt lat="26.41652167" lon="-80.16358833"><ele>15.756</ele><time>2026-07-18T18:04:36Z</time><speed>3.441</speed><sat>15</sat></trkpt>
  <trkpt lat="26.41651833" lon="-80.16356000"><ele>16.156</ele><time>2026-07-18T18:04:37Z</time><speed>3.419</speed><sat>15</sat></trkpt>
  <trkpt lat="26.41651833" lon="-80.16353000"><ele>15.756</ele><time>2026-07-18T18:04:38Z</time><speed>3.416</speed><sat>15</sat></trkpt>
  <trkpt lat="26.41651333" lon="-80.16349667"><ele>16.456</ele><time>2026-07-18T18:04:39Z</time><speed>3.382</speed><sat>16</sat></trkpt>
  <trkpt lat="26.41651000" lon="-80.16346833"><ele>18.056</ele><time>2026-07-18T18:04:40Z</time><speed>3.366</speed><sat>16</sat></trkpt>
  <trkpt lat="26.41650667" lon="-80.16343500"><ele>17.557</ele><time>2026-07-18T18:04:41Z</time><speed>3.357</speed><sat>16</sat></trkpt>
  <trkpt lat="26.41649667" lon="-80.16340167"><ele>18.057</ele><time>2026-07-18T18:04:42Z</time><speed>3.342</speed><sat>16</sat></trkpt>
  <trkpt lat="26.41649000" lon="-80.16336667"><ele>18.057</ele><time>2026-07-18T18:04:43Z</time><speed>3.312</speed><sat>16</sat></trkpt>
  <trkpt lat="26.41647500" lon="-80.16334167"><ele>17.757</ele><time>2026-07-18T18:04:44Z</time><speed>3.329</speed><sat>16</sat></trkpt>
  <trkpt lat="26.41645167" lon="-80.16331667"><ele>17.457</ele><time>2026-07-18T18:04:45Z</time><speed>3.344</speed><sat>16</sat></trkpt>
  <trkpt lat="26.41642833" lon="-80.16329333"><ele>17.257</ele><time>2026-07-18T18:04:46Z</time><speed>3.345</speed><sat>16</sat></trkpt>
  <trkpt lat="26.41640167" lon="-80.16327667"><ele>17.157</ele><time>2026-07-18T18:04:47Z</time><speed>3.292</speed><sat>16</sat></trkpt>
  <trkpt lat="26.41637667" lon="-80.16326000"><ele>16.457</ele><time>2026-07-18T18:04:48Z</time><speed>3.253</speed><sat>16</sat></trkpt>
  <trkpt lat="26.41634667" lon="-80.16324333"><ele>15.557</ele><time>2026-07-18T18:04:49Z</time><speed>3.260</speed><sat>16</sat></trkpt>
  <trkpt lat="26.41631833" lon="-80.16323000"><ele>14.757</ele><time>2026-07-18T18:04:50Z</time><speed>3.273</speed><sat>15</sat></trkpt>
  <trkpt lat="26.41629000" lon="-80.16321833"><ele>14.057</ele><time>2026-07-18T18:04:51Z</time><speed>3.287</speed><sat>15</sat></trkpt>
  <trkpt lat="26.41626500" lon="-80.16320167"><ele>13.457</ele><time>2026-07-18T18:04:52Z</time><speed>3.317</speed><sat>15</sat></trkpt>
  <trkpt lat="26.41624667" lon="-80.16317500"><ele>13.157</ele><time>2026-07-18T18:04:53Z</time><speed>3.344</speed><sat>15</sat></trkpt>
  <trkpt lat="26.41623167" lon="-80.16314667"><ele>13.558</ele><time>2026-07-18T18:04:54Z</time><speed>3.316</speed><sat>15</sat></trkpt>
  <trkpt lat="26.41620667" lon="-80.16312333"><ele>13.558</ele><time>2026-07-18T18:04:55Z</time><speed>3.300</speed><sat>15</sat></trkpt>
  <trkpt lat="26.41617833" lon="-80.16310667"><ele>13.258</ele><time>2026-07-18T18:04:56Z</time><speed>3.324</speed><sat>15</sat></trkpt>
  <trkpt lat="26.41614500" lon="-80.16308833"><ele>14.058</ele><time>2026-07-18T18:04:57Z</time><speed>3.399</speed><sat>16</sat></trkpt>
  <trkpt lat="26.41611167" lon="-80.16308000"><ele>13.658</ele><time>2026-07-18T18:04:58Z</time><speed>3.443</speed><sat>16</sat></trkpt>
  <trkpt lat="26.41607833" lon="-80.16308167"><ele>13.558</ele><time>2026-07-18T18:04:59Z</time><speed>3.481</speed><sat>16</sat></trkpt>
  <trkpt lat="26.41604667" lon="-80.16309167"><ele>12.958</ele><time>2026-07-18T18:05:00Z</time><speed>3.528</speed><sat>16</sat></trkpt>
  <trkpt lat="26.41601667" lon="-80.16311167"><ele>13.358</ele><time>2026-07-18T18:05:01Z</time><speed>3.559</speed><sat>16</sat></trkpt>
  <trkpt lat="26.41598333" lon="-80.16311500"><ele>13.658</ele><time>2026-07-18T18:05:02Z</time><speed>3.585</speed><sat>16</sat></trkpt>
  <trkpt lat="26.41594833" lon="-80.16309833"><ele>13.858</ele><time>2026-07-18T18:05:03Z</time><speed>3.649</speed><sat>16</sat></trkpt>
  <trkpt lat="26.41592500" lon="-80.16306667"><ele>13.858</ele><time>2026-07-18T18:05:04Z</time><speed>3.673</speed><sat>16</sat></trkpt>
  <trkpt lat="26.41590833" lon="-80.16303500"><ele>14.358</ele><time>2026-07-18T18:05:05Z</time><speed>3.679</speed><sat>16</sat></trkpt>
  <trkpt lat="26.41588833" lon="-80.16300833"><ele>14.658</ele><time>2026-07-18T18:05:06Z</time><speed>3.694</speed><sat>16</sat></trkpt>
  <trkpt lat="26.41586833" lon="-80.16298667"><ele>14.058</ele><time>2026-07-18T18:05:07Z</time><speed>3.676</speed><sat>16</sat></trkpt>
  <trkpt lat="26.41584333" lon="-80.16296833"><ele>13.358</ele><time>2026-07-18T18:05:08Z</time><speed>3.654</speed><sat>16</sat></trkpt>
  <trkpt lat="26.41581500" lon="-80.16295333"><ele>13.358</ele><time>2026-07-18T18:05:09Z</time><speed>3.617</speed><sat>16</sat></trkpt>
  <trkpt lat="26.41578833" lon="-80.16294833"><ele>13.458</ele><time>2026-07-18T18:05:10Z</time><speed>3.538</speed><sat>16</sat></trkpt>
  <trkpt lat="26.41576000" lon="-80.16294833"><ele>13.258</ele><time>2026-07-18T18:05:11Z</time><speed>3.437</speed><sat>16</sat></trkpt>
  <trkpt lat="26.41573333" lon="-80.16294833"><ele>13.558</ele><time>2026-07-18T18:05:12Z</time><speed>3.332</speed><sat>16</sat></trkpt>
  <trkpt lat="26.41570333" lon="-80.16294833"><ele>14.758</ele><time>2026-07-18T18:05:13Z</time><speed>3.203</speed><sat>16</sat></trkpt>
  <trkpt lat="26.41567333" lon="-80.16294333"><ele>15.958</ele><time>2026-07-18T18:05:14Z</time><speed>3.127</speed><sat>16</sat></trkpt>
  <trkpt lat="26.41564167" lon="-80.16294000"><ele>16.858</ele><time>2026-07-18T18:05:15Z</time><speed>3.084</speed><sat>16</sat></trkpt>
  <trkpt lat="26.41561167" lon="-80.16294167"><ele>16.658</ele><time>2026-07-18T18:05:16Z</time><speed>3.041</speed><sat>16</sat></trkpt>
  <trkpt lat="26.41558167" lon="-80.16294000"><ele>16.158</ele><time>2026-07-18T18:05:17Z</time><speed>3.041</speed><sat>16</sat></trkpt>
  <trkpt lat="26.41555333" lon="-80.16293500"><ele>15.758</ele><time>2026-07-18T18:05:18Z</time><speed>3.057</speed><sat>16</sat></trkpt>
  <trkpt lat="26.41552333" lon="-80.16293167"><ele>15.258</ele><time>2026-07-18T18:05:19Z</time><speed>3.067</speed><sat>16</sat></trkpt>
  <trkpt lat="26.41549167" lon="-80.16292833"><ele>14.758</ele><time>2026-07-18T18:05:20Z</time><speed>3.116</speed><sat>16</sat></trkpt>
  <trkpt lat="26.41546167" lon="-80.16292167"><ele>14.458</ele><time>2026-07-18T18:05:21Z</time><speed>3.201</speed><sat>16</sat></trkpt>
  <trkpt lat="26.41543000" lon="-80.16291667"><ele>14.058</ele><time>2026-07-18T18:05:22Z</time><speed>3.279</speed><sat>16</sat></trkpt>
  <trkpt lat="26.41539833" lon="-80.16291500"><ele>13.458</ele><time>2026-07-18T18:05:23Z</time><speed>3.334</speed><sat>16</sat></trkpt>
  <trkpt lat="26.41536833" lon="-80.16291667"><ele>12.758</ele><time>2026-07-18T18:05:24Z</time><speed>3.410</speed><sat>16</sat></trkpt>
  <trkpt lat="26.41533833" lon="-80.16291167"><ele>12.358</ele><time>2026-07-18T18:05:25Z</time><speed>3.461</speed><sat>16</sat></trkpt>
  <trkpt lat="26.41530333" lon="-80.16291000"><ele>11.858</ele><time>2026-07-18T18:05:26Z</time><speed>3.500</speed><sat>16</sat></trkpt>
  <trkpt lat="26.41527167" lon="-80.16290667"><ele>11.658</ele><time>2026-07-18T18:05:27Z</time><speed>3.502</speed><sat>16</sat></trkpt>
  <trkpt lat="26.41524167" lon="-80.16290333"><ele>11.758</ele><time>2026-07-18T18:05:28Z</time><speed>3.498</speed><sat>16</sat></trkpt>
  <trkpt lat="26.41520833" lon="-80.16290333"><ele>11.858</ele><time>2026-07-18T18:05:29Z</time><speed>3.505</speed><sat>16</sat></trkpt>
  <trkpt lat="26.41517667" lon="-80.16289833"><ele>12.058</ele><time>2026-07-18T18:05:30Z</time><speed>3.486</speed><sat>16</sat></trkpt>
  <trkpt lat="26.41514667" lon="-80.16289000"><ele>12.358</ele><time>2026-07-18T18:05:31Z</time><speed>3.435</speed><sat>16</sat></trkpt>
  <trkpt lat="26.41512167" lon="-80.16288167"><ele>12.658</ele><time>2026-07-18T18:05:32Z</time><speed>3.366</speed><sat>16</sat></trkpt>
  <trkpt lat="26.41509333" lon="-80.16288333"><ele>12.458</ele><time>2026-07-18T18:05:33Z</time><speed>3.327</speed><sat>16</sat></trkpt>
  <trkpt lat="26.41506833" lon="-80.16289000"><ele>12.958</ele><time>2026-07-18T18:05:34Z</time><speed>3.227</speed><sat>16</sat></trkpt>
  <trkpt lat="26.41504667" lon="-80.16289333"><ele>13.158</ele><time>2026-07-18T18:05:35Z</time><speed>3.095</speed><sat>16</sat></trkpt>
  <trkpt lat="26.41502000" lon="-80.16289333"><ele>13.358</ele><time>2026-07-18T18:05:36Z</time><speed>2.965</speed><sat>16</sat></trkpt>
  <trkpt lat="26.41499500" lon="-80.16289500"><ele>14.858</ele><time>2026-07-18T18:05:37Z</time><speed>2.824</speed><sat>16</sat></trkpt>
  <trkpt lat="26.41497833" lon="-80.16290500"><ele>14.358</ele><time>2026-07-18T18:05:38Z</time><speed>2.671</speed><sat>16</sat></trkpt>
  <trkpt lat="26.41496333" lon="-80.16291500"><ele>14.958</ele><time>2026-07-18T18:05:39Z</time><speed>2.526</speed><sat>14</sat></trkpt>
  <trkpt lat="26.41495500" lon="-80.16292667"><ele>14.858</ele><time>2026-07-18T18:05:40Z</time><speed>2.336</speed><sat>14</sat></trkpt>
  <trkpt lat="26.41495333" lon="-80.16293500"><ele>15.058</ele><time>2026-07-18T18:05:41Z</time><speed>2.117</speed><sat>14</sat></trkpt>
  <trkpt lat="26.41495333" lon="-80.16294667"><ele>15.358</ele><time>2026-07-18T18:05:42Z</time><speed>1.932</speed><sat>14</sat></trkpt>
  <trkpt lat="26.41495500" lon="-80.16296167"><ele>14.658</ele><time>2026-07-18T18:05:43Z</time><speed>1.746</speed><sat>14</sat></trkpt>
  <trkpt lat="26.41495833" lon="-80.16298000"><ele>14.458</ele><time>2026-07-18T18:05:44Z</time><speed>1.644</speed><sat>14</sat></trkpt>
  <trkpt lat="26.41496667" lon="-80.16300000"><ele>14.257</ele><time>2026-07-18T18:05:45Z</time><speed>1.606</speed><sat>14</sat></trkpt>
  <trkpt lat="26.41497333" lon="-80.16301167"><ele>14.357</ele><time>2026-07-18T18:05:46Z</time><speed>1.537</speed><sat>14</sat></trkpt>
  <trkpt lat="26.41497667" lon="-80.16302167"><ele>14.557</ele><time>2026-07-18T18:05:47Z</time><speed>1.462</speed><sat>14</sat></trkpt>
  <trkpt lat="26.41498000" lon="-80.16303833"><ele>14.657</ele><time>2026-07-18T18:05:48Z</time><speed>1.473</speed><sat>14</sat></trkpt>
  <trkpt lat="26.41498333" lon="-80.16305500"><ele>14.157</ele><time>2026-07-18T18:05:49Z</time><speed>1.476</speed><sat>14</sat></trkpt>
  <trkpt lat="26.41498500" lon="-80.16307833"><ele>13.657</ele><time>2026-07-18T18:05:50Z</time><speed>1.541</speed><sat>14</sat></trkpt>
  <trkpt lat="26.41499000" lon="-80.16310167"><ele>13.457</ele><time>2026-07-18T18:05:51Z</time><speed>1.680</speed><sat>14</sat></trkpt>
  <trkpt lat="26.41499333" lon="-80.16312500"><ele>13.957</ele><time>2026-07-18T18:05:52Z</time><speed>1.797</speed><sat>14</sat></trkpt>
  <trkpt lat="26.41499667" lon="-80.16315167"><ele>14.257</ele><time>2026-07-18T18:05:53Z</time><speed>1.887</speed><sat>14</sat></trkpt>
  <trkpt lat="26.41499667" lon="-80.16318000"><ele>14.257</ele><time>2026-07-18T18:05:54Z</time><speed>1.948</speed><sat>14</sat></trkpt>
  <trkpt lat="26.41499167" lon="-80.16321000"><ele>14.157</ele><time>2026-07-18T18:05:55Z</time><speed>1.987</speed><sat>14</sat></trkpt>
  <trkpt lat="26.41498833" lon="-80.16324000"><ele>13.757</ele><time>2026-07-18T18:05:56Z</time><speed>2.053</speed><sat>14</sat></trkpt>
  <trkpt lat="26.41498333" lon="-80.16326500"><ele>13.956</ele><time>2026-07-18T18:05:57Z</time><speed>2.168</speed><sat>14</sat></trkpt>
  <trkpt lat="26.41496167" lon="-80.16328667"><ele>14.256</ele><time>2026-07-18T18:05:58Z</time><speed>2.262</speed><sat>14</sat></trkpt>
  <trkpt lat="26.41493500" lon="-80.16330333"><ele>14.756</ele><time>2026-07-18T18:05:59Z</time><speed>2.364</speed><sat>14</sat></trkpt>
  <trkpt lat="26.41491500" lon="-80.16332333"><ele>15.656</ele><time>2026-07-18T18:06:00Z</time><speed>2.431</speed><sat>14</sat></trkpt>
  <trkpt lat="26.41489833" lon="-80.16334000"><ele>15.456</ele><time>2026-07-18T18:06:01Z</time><speed>2.455</speed><sat>14</sat></trkpt>
  <trkpt lat="26.41488833" lon="-80.16335333"><ele>14.856</ele><time>2026-07-18T18:06:02Z</time><speed>2.450</speed><sat>14</sat></trkpt>
  <trkpt lat="26.41487667" lon="-80.16337167"><ele>14.356</ele><time>2026-07-18T18:06:03Z</time><speed>2.425</speed><sat>14</sat></trkpt>
  <trkpt lat="26.41487000" lon="-80.16338500"><ele>13.656</ele><time>2026-07-18T18:06:04Z</time><speed>2.370</speed><sat>14</sat></trkpt>
  <trkpt lat="26.41485667" lon="-80.16339833"><ele>13.356</ele><time>2026-07-18T18:06:05Z</time><speed>2.289</speed><sat>14</sat></trkpt>
  <trkpt lat="26.41484667" lon="-80.16340667"><ele>12.856</ele><time>2026-07-18T18:06:06Z</time><speed>2.199</speed><sat>14</sat></trkpt>
  <trkpt lat="26.41483000" lon="-80.16341667"><ele>12.156</ele><time>2026-07-18T18:06:07Z</time><speed>2.173</speed><sat>14</sat></trkpt>
  <trkpt lat="26.41481333" lon="-80.16342833"><ele>12.556</ele><time>2026-07-18T18:06:08Z</time><speed>2.146</speed><sat>14</sat></trkpt>
  <trkpt lat="26.41479000" lon="-80.16344000"><ele>12.956</ele><time>2026-07-18T18:06:09Z</time><speed>2.104</speed><sat>14</sat></trkpt>
  <trkpt lat="26.41476667" lon="-80.16345333"><ele>13.456</ele><time>2026-07-18T18:06:10Z</time><speed>2.132</speed><sat>14</sat></trkpt>
  <trkpt lat="26.41474000" lon="-80.16347333"><ele>13.555</ele><time>2026-07-18T18:06:11Z</time><speed>2.208</speed><sat>14</sat></trkpt>
  <trkpt lat="26.41471333" lon="-80.16349167"><ele>13.555</ele><time>2026-07-18T18:06:12Z</time><speed>2.334</speed><sat>14</sat></trkpt>
  <trkpt lat="26.41468500" lon="-80.16350833"><ele>13.455</ele><time>2026-07-18T18:06:13Z</time><speed>2.519</speed><sat>14</sat></trkpt>
  <trkpt lat="26.41465500" lon="-80.16352667"><ele>13.655</ele><time>2026-07-18T18:06:14Z</time><speed>2.716</speed><sat>14</sat></trkpt>
  <trkpt lat="26.41462333" lon="-80.16354333"><ele>13.355</ele><time>2026-07-18T18:06:15Z</time><speed>2.920</speed><sat>14</sat></trkpt>
  <trkpt lat="26.41459500" lon="-80.16356000"><ele>13.055</ele><time>2026-07-18T18:06:16Z</time><speed>3.114</speed><sat>14</sat></trkpt>
  <trkpt lat="26.41456833" lon="-80.16357333"><ele>13.455</ele><time>2026-07-18T18:06:17Z</time><speed>3.189</speed><sat>14</sat></trkpt>
  <trkpt lat="26.41454667" lon="-80.16358500"><ele>13.055</ele><time>2026-07-18T18:06:18Z</time><speed>3.170</speed><sat>14</sat></trkpt>
  <trkpt lat="26.41453333" lon="-80.16359167"><ele>13.055</ele><time>2026-07-18T18:06:19Z</time><speed>3.106</speed><sat>14</sat></trkpt>
  <trkpt lat="26.41451833" lon="-80.16359500"><ele>12.755</ele><time>2026-07-18T18:06:20Z</time><speed>3.029</speed><sat>14</sat></trkpt>
  <trkpt lat="26.41449333" lon="-80.16360000"><ele>12.555</ele><time>2026-07-18T18:06:21Z</time><speed>2.965</speed><sat>14</sat></trkpt>
  <trkpt lat="26.41446167" lon="-80.16360000"><ele>12.855</ele><time>2026-07-18T18:06:22Z</time><speed>2.966</speed><sat>14</sat></trkpt>
  <trkpt lat="26.41442833" lon="-80.16359667"><ele>12.455</ele><time>2026-07-18T18:06:23Z</time><speed>2.982</speed><sat>14</sat></trkpt>
  <trkpt lat="26.41439333" lon="-80.16359167"><ele>12.255</ele><time>2026-07-18T18:06:24Z</time><speed>3.004</speed><sat>14</sat></trkpt>
  <trkpt lat="26.41435833" lon="-80.16358000"><ele>12.255</ele><time>2026-07-18T18:06:25Z</time><speed>3.045</speed><sat>14</sat></trkpt>
  <trkpt lat="26.41432667" lon="-80.16356333"><ele>12.055</ele><time>2026-07-18T18:06:26Z</time><speed>3.095</speed><sat>14</sat></trkpt>
  <trkpt lat="26.41429833" lon="-80.16353833"><ele>11.955</ele><time>2026-07-18T18:06:27Z</time><speed>3.191</speed><sat>14</sat></trkpt>
  <trkpt lat="26.41427500" lon="-80.16350833"><ele>11.655</ele><time>2026-07-18T18:06:28Z</time><speed>3.337</speed><sat>14</sat></trkpt>
  <trkpt lat="26.41425833" lon="-80.16347333"><ele>11.555</ele><time>2026-07-18T18:06:29Z</time><speed>3.569</speed><sat>14</sat></trkpt>
  <trkpt lat="26.41424000" lon="-80.16343667"><ele>11.655</ele><time>2026-07-18T18:06:30Z</time><speed>3.762</speed><sat>14</sat></trkpt>
  <trkpt lat="26.41421500" lon="-80.16340167"><ele>11.955</ele><time>2026-07-18T18:06:31Z</time><speed>3.942</speed><sat>14</sat></trkpt>
  <trkpt lat="26.41419333" lon="-80.16336500"><ele>12.056</ele><time>2026-07-18T18:06:32Z</time><speed>4.004</speed><sat>14</sat></trkpt>
  <trkpt lat="26.41417500" lon="-80.16332833"><ele>12.056</ele><time>2026-07-18T18:06:33Z</time><speed>4.043</speed><sat>14</sat></trkpt>
  <trkpt lat="26.41415500" lon="-80.16329167"><ele>12.156</ele><time>2026-07-18T18:06:34Z</time><speed>4.102</speed><sat>14</sat></trkpt>
  <trkpt lat="26.41413833" lon="-80.16325333"><ele>12.256</ele><time>2026-07-18T18:06:35Z</time><speed>4.146</speed><sat>14</sat></trkpt>
  <trkpt lat="26.41412167" lon="-80.16321333"><ele>12.356</ele><time>2026-07-18T18:06:36Z</time><speed>4.171</speed><sat>14</sat></trkpt>
  <trkpt lat="26.41410333" lon="-80.16317500"><ele>12.656</ele><time>2026-07-18T18:06:37Z</time><speed>4.203</speed><sat>14</sat></trkpt>
  <trkpt lat="26.41408500" lon="-80.16314000"><ele>12.556</ele><time>2026-07-18T18:06:38Z</time><speed>4.236</speed><sat>14</sat></trkpt>
  <trkpt lat="26.41407000" lon="-80.16310500"><ele>12.257</ele><time>2026-07-18T18:06:39Z</time><speed>4.243</speed><sat>14</sat></trkpt>
  <trkpt lat="26.41404833" lon="-80.16306500"><ele>12.457</ele><time>2026-07-18T18:06:40Z</time><speed>4.255</speed><sat>14</sat></trkpt>
  <trkpt lat="26.41402833" lon="-80.16302333"><ele>12.557</ele><time>2026-07-18T18:06:41Z</time><speed>4.283</speed><sat>14</sat></trkpt>
  <trkpt lat="26.41401000" lon="-80.16298833"><ele>12.457</ele><time>2026-07-18T18:06:42Z</time><speed>4.330</speed><sat>14</sat></trkpt>
  <trkpt lat="26.41398667" lon="-80.16295333"><ele>12.857</ele><time>2026-07-18T18:06:43Z</time><speed>4.368</speed><sat>14</sat></trkpt>
  <trkpt lat="26.41396833" lon="-80.16291500"><ele>12.357</ele><time>2026-07-18T18:06:44Z</time><speed>4.382</speed><sat>14</sat></trkpt>
  <trkpt lat="26.41394833" lon="-80.16287500"><ele>11.957</ele><time>2026-07-18T18:06:45Z</time><speed>4.394</speed><sat>14</sat></trkpt>
  <trkpt lat="26.41392500" lon="-80.16284000"><ele>11.858</ele><time>2026-07-18T18:06:46Z</time><speed>4.449</speed><sat>14</sat></trkpt>
  <trkpt lat="26.41390333" lon="-80.16279667"><ele>11.858</ele><time>2026-07-18T18:06:47Z</time><speed>4.501</speed><sat>14</sat></trkpt>
  <trkpt lat="26.41388167" lon="-80.16275500"><ele>12.158</ele><time>2026-07-18T18:06:48Z</time><speed>4.523</speed><sat>14</sat></trkpt>
  <trkpt lat="26.41385833" lon="-80.16271333"><ele>12.158</ele><time>2026-07-18T18:06:49Z</time><speed>4.507</speed><sat>14</sat></trkpt>
  <trkpt lat="26.41383500" lon="-80.16268000"><ele>12.958</ele><time>2026-07-18T18:06:50Z</time><speed>4.537</speed><sat>14</sat></trkpt>
  <trkpt lat="26.41381333" lon="-80.16264000"><ele>12.558</ele><time>2026-07-18T18:06:51Z</time><speed>4.555</speed><sat>14</sat></trkpt>
  <trkpt lat="26.41379167" lon="-80.16260000"><ele>12.558</ele><time>2026-07-18T18:06:52Z</time><speed>4.550</speed><sat>14</sat></trkpt>
  <trkpt lat="26.41376667" lon="-80.16256833"><ele>12.559</ele><time>2026-07-18T18:06:53Z</time><speed>4.551</speed><sat>14</sat></trkpt>
  <trkpt lat="26.41374333" lon="-80.16253667"><ele>12.959</ele><time>2026-07-18T18:06:54Z</time><speed>4.567</speed><sat>14</sat></trkpt>
  <trkpt lat="26.41371833" lon="-80.16250500"><ele>13.159</ele><time>2026-07-18T18:06:55Z</time><speed>4.505</speed><sat>14</sat></trkpt>
  <trkpt lat="26.41369333" lon="-80.16247667"><ele>13.359</ele><time>2026-07-18T18:06:56Z</time><speed>4.410</speed><sat>14</sat></trkpt>
  <trkpt lat="26.41367000" lon="-80.16245167"><ele>13.059</ele><time>2026-07-18T18:06:57Z</time><speed>4.308</speed><sat>14</sat></trkpt>
  <trkpt lat="26.41364500" lon="-80.16242833"><ele>12.659</ele><time>2026-07-18T18:06:58Z</time><speed>4.281</speed><sat>14</sat></trkpt>
  <trkpt lat="26.41362167" lon="-80.16240167"><ele>12.259</ele><time>2026-07-18T18:06:59Z</time><speed>4.261</speed><sat>14</sat></trkpt>
  <trkpt lat="26.41359500" lon="-80.16237833"><ele>12.159</ele><time>2026-07-18T18:07:00Z</time><speed>4.208</speed><sat>14</sat></trkpt>
  <trkpt lat="26.41357167" lon="-80.16234667"><ele>11.759</ele><time>2026-07-18T18:07:01Z</time><speed>4.131</speed><sat>14</sat></trkpt>
  <trkpt lat="26.41354833" lon="-80.16232000"><ele>11.160</ele><time>2026-07-18T18:07:02Z</time><speed>4.071</speed><sat>14</sat></trkpt>
  <trkpt lat="26.41352333" lon="-80.16229333"><ele>10.960</ele><time>2026-07-18T18:07:03Z</time><speed>4.001</speed><sat>14</sat></trkpt>
  <trkpt lat="26.41350000" lon="-80.16226667"><ele>10.660</ele><time>2026-07-18T18:07:04Z</time><speed>3.944</speed><sat>14</sat></trkpt>
  <trkpt lat="26.41347667" lon="-80.16224167"><ele>10.460</ele><time>2026-07-18T18:07:05Z</time><speed>3.929</speed><sat>14</sat></trkpt>
  <trkpt lat="26.41345500" lon="-80.16221667"><ele>10.160</ele><time>2026-07-18T18:07:06Z</time><speed>3.923</speed><sat>14</sat></trkpt>
  <trkpt lat="26.41343167" lon="-80.16218833"><ele>9.760</ele><time>2026-07-18T18:07:07Z</time><speed>3.939</speed><sat>14</sat></trkpt>
  <trkpt lat="26.41340667" lon="-80.16216500"><ele>11.160</ele><time>2026-07-18T18:07:08Z</time><speed>3.920</speed><sat>14</sat></trkpt>
  <trkpt lat="26.41338167" lon="-80.16213667"><ele>11.160</ele><time>2026-07-18T18:07:09Z</time><speed>3.923</speed><sat>14</sat></trkpt>
  <trkpt lat="26.41336000" lon="-80.16210833"><ele>11.360</ele><time>2026-07-18T18:07:10Z</time><speed>3.911</speed><sat>14</sat></trkpt>
  <trkpt lat="26.41333333" lon="-80.16208167"><ele>11.360</ele><time>2026-07-18T18:07:11Z</time><speed>3.903</speed><sat>14</sat></trkpt>
  <trkpt lat="26.41331000" lon="-80.16205667"><ele>11.360</ele><time>2026-07-18T18:07:12Z</time><speed>3.889</speed><sat>14</sat></trkpt>
  <trkpt lat="26.41328500" lon="-80.16203667"><ele>11.561</ele><time>2026-07-18T18:07:13Z</time><speed>3.887</speed><sat>14</sat></trkpt>
  <trkpt lat="26.41325833" lon="-80.16201667"><ele>11.661</ele><time>2026-07-18T18:07:14Z</time><speed>3.869</speed><sat>14</sat></trkpt>
  <trkpt lat="26.41323000" lon="-80.16199000"><ele>10.961</ele><time>2026-07-18T18:07:15Z</time><speed>3.904</speed><sat>14</sat></trkpt>
  <trkpt lat="26.41320167" lon="-80.16196667"><ele>11.161</ele><time>2026-07-18T18:07:16Z</time><speed>3.935</speed><sat>14</sat></trkpt>
  <trkpt lat="26.41317667" lon="-80.16194500"><ele>11.261</ele><time>2026-07-18T18:07:17Z</time><speed>3.971</speed><sat>14</sat></trkpt>
  <trkpt lat="26.41314667" lon="-80.16191500"><ele>11.061</ele><time>2026-07-18T18:07:18Z</time><speed>3.981</speed><sat>14</sat></trkpt>
  <trkpt lat="26.41311667" lon="-80.16188333"><ele>10.561</ele><time>2026-07-18T18:07:19Z</time><speed>3.983</speed><sat>14</sat></trkpt>
  <trkpt lat="26.41308667" lon="-80.16185833"><ele>11.661</ele><time>2026-07-18T18:07:20Z</time><speed>3.971</speed><sat>14</sat></trkpt>
  <trkpt lat="26.41305667" lon="-80.16183000"><ele>12.261</ele><time>2026-07-18T18:07:21Z</time><speed>3.979</speed><sat>14</sat></trkpt>
  <trkpt lat="26.41302833" lon="-80.16180667"><ele>11.961</ele><time>2026-07-18T18:07:22Z</time><speed>4.011</speed><sat>14</sat></trkpt>
  <trkpt lat="26.41299667" lon="-80.16178333"><ele>11.761</ele><time>2026-07-18T18:07:23Z</time><speed>4.026</speed><sat>16</sat></trkpt>
  <trkpt lat="26.41297000" lon="-80.16176000"><ele>12.261</ele><time>2026-07-18T18:07:24Z</time><speed>4.036</speed><sat>16</sat></trkpt>
  <trkpt lat="26.41294333" lon="-80.16173500"><ele>12.262</ele><time>2026-07-18T18:07:25Z</time><speed>4.034</speed><sat>16</sat></trkpt>
  <trkpt lat="26.41291333" lon="-80.16171333"><ele>12.462</ele><time>2026-07-18T18:07:26Z</time><speed>4.004</speed><sat>16</sat></trkpt>
  <trkpt lat="26.41289000" lon="-80.16169333"><ele>12.862</ele><time>2026-07-18T18:07:27Z</time><speed>3.911</speed><sat>15</sat></trkpt>
  <trkpt lat="26.41286667" lon="-80.16167833"><ele>12.762</ele><time>2026-07-18T18:07:28Z</time><speed>3.802</speed><sat>15</sat></trkpt>
  <trkpt lat="26.41284500" lon="-80.16166833"><ele>11.962</ele><time>2026-07-18T18:07:29Z</time><speed>3.691</speed><sat>15</sat></trkpt>
  <trkpt lat="26.41283000" lon="-80.16166333"><ele>11.262</ele><time>2026-07-18T18:07:30Z</time><speed>3.571</speed><sat>15</sat></trkpt>
  <trkpt lat="26.41281500" lon="-80.16165500"><ele>11.462</ele><time>2026-07-18T18:07:31Z</time><speed>3.378</speed><sat>15</sat></trkpt>
  <trkpt lat="26.41280167" lon="-80.16164333"><ele>12.162</ele><time>2026-07-18T18:07:32Z</time><speed>3.153</speed><sat>15</sat></trkpt>
  <trkpt lat="26.41278667" lon="-80.16163500"><ele>12.362</ele><time>2026-07-18T18:07:33Z</time><speed>2.906</speed><sat>15</sat></trkpt>
  <trkpt lat="26.41278000" lon="-80.16162333"><ele>12.062</ele><time>2026-07-18T18:07:34Z</time><speed>2.603</speed><sat>15</sat></trkpt>
  <trkpt lat="26.41277333" lon="-80.16161667"><ele>12.362</ele><time>2026-07-18T18:07:35Z</time><speed>2.345</speed><sat>15</sat></trkpt>
  <trkpt lat="26.41276000" lon="-80.16160167"><ele>12.062</ele><time>2026-07-18T18:07:36Z</time><speed>2.222</speed><sat>15</sat></trkpt>
  <trkpt lat="26.41274000" lon="-80.16158333"><ele>12.562</ele><time>2026-07-18T18:07:37Z</time><speed>2.187</speed><sat>16</sat></trkpt>
  <trkpt lat="26.41271500" lon="-80.16156500"><ele>13.462</ele><time>2026-07-18T18:07:38Z</time><speed>2.209</speed><sat>16</sat></trkpt>
  <trkpt lat="26.41269333" lon="-80.16154833"><ele>12.962</ele><time>2026-07-18T18:07:39Z</time><speed>2.153</speed><sat>16</sat></trkpt>
  <trkpt lat="26.41267333" lon="-80.16153667"><ele>12.662</ele><time>2026-07-18T18:07:40Z</time><speed>2.134</speed><sat>16</sat></trkpt>
  <trkpt lat="26.41265500" lon="-80.16153000"><ele>12.962</ele><time>2026-07-18T18:07:41Z</time><speed>2.191</speed><sat>16</sat></trkpt>
  <trkpt lat="26.41263333" lon="-80.16152167"><ele>13.062</ele><time>2026-07-18T18:07:42Z</time><speed>2.206</speed><sat>16</sat></trkpt>
  <trkpt lat="26.41261667" lon="-80.16151500"><ele>13.562</ele><time>2026-07-18T18:07:43Z</time><speed>2.212</speed><sat>16</sat></trkpt>
  <trkpt lat="26.41260333" lon="-80.16150667"><ele>13.862</ele><time>2026-07-18T18:07:44Z</time><speed>2.278</speed><sat>16</sat></trkpt>
  <trkpt lat="26.41259167" lon="-80.16149500"><ele>13.962</ele><time>2026-07-18T18:07:45Z</time><speed>2.347</speed><sat>16</sat></trkpt>
  <trkpt lat="26.41257667" lon="-80.16148333"><ele>14.262</ele><time>2026-07-18T18:07:46Z</time><speed>2.317</speed><sat>16</sat></trkpt>
  <trkpt lat="26.41256167" lon="-80.16147000"><ele>14.762</ele><time>2026-07-18T18:07:47Z</time><speed>2.297</speed><sat>16</sat></trkpt>
  <trkpt lat="26.41253500" lon="-80.16145000"><ele>15.563</ele><time>2026-07-18T18:07:48Z</time><speed>2.281</speed><sat>16</sat></trkpt>
  <trkpt lat="26.41250833" lon="-80.16143333"><ele>16.763</ele><time>2026-07-18T18:07:49Z</time><speed>2.380</speed><sat>16</sat></trkpt>
  <trkpt lat="26.41248000" lon="-80.16142667"><ele>17.063</ele><time>2026-07-18T18:07:50Z</time><speed>2.453</speed><sat>16</sat></trkpt>
  <trkpt lat="26.41245333" lon="-80.16142333"><ele>17.163</ele><time>2026-07-18T18:07:51Z</time><speed>2.462</speed><sat>16</sat></trkpt>
  <trkpt lat="26.41242833" lon="-80.16141500"><ele>17.363</ele><time>2026-07-18T18:07:52Z</time><speed>2.575</speed><sat>16</sat></trkpt>
  <trkpt lat="26.41240167" lon="-80.16140333"><ele>18.363</ele><time>2026-07-18T18:07:53Z</time><speed>2.754</speed><sat>16</sat></trkpt>
  <trkpt lat="26.41237833" lon="-80.16139333"><ele>18.463</ele><time>2026-07-18T18:07:54Z</time><speed>2.910</speed><sat>16</sat></trkpt>
  <trkpt lat="26.41235167" lon="-80.16138500"><ele>18.563</ele><time>2026-07-18T18:07:55Z</time><speed>3.018</speed><sat>16</sat></trkpt>
  <trkpt lat="26.41232333" lon="-80.16138000"><ele>18.763</ele><time>2026-07-18T18:07:56Z</time><speed>3.080</speed><sat>16</sat></trkpt>
  <trkpt lat="26.41230167" lon="-80.16136500"><ele>18.963</ele><time>2026-07-18T18:07:57Z</time><speed>3.079</speed><sat>16</sat></trkpt>
  <trkpt lat="26.41227667" lon="-80.16134500"><ele>19.063</ele><time>2026-07-18T18:07:58Z</time><speed>3.041</speed><sat>16</sat></trkpt>
  <trkpt lat="26.41226167" lon="-80.16131833"><ele>19.463</ele><time>2026-07-18T18:07:59Z</time><speed>2.966</speed><sat>16</sat></trkpt>
  <trkpt lat="26.41222167" lon="-80.16129833"><ele>20.063</ele><time>2026-07-18T18:08:00Z</time><speed>2.985</speed><sat>16</sat></trkpt>
  <trkpt lat="26.41218667" lon="-80.16128833"><ele>19.963</ele><time>2026-07-18T18:08:01Z</time><speed>3.013</speed><sat>16</sat></trkpt>
  <trkpt lat="26.41215500" lon="-80.16127667"><ele>20.263</ele><time>2026-07-18T18:08:02Z</time><speed>3.048</speed><sat>16</sat></trkpt>
  <trkpt lat="26.41211333" lon="-80.16127000"><ele>20.863</ele><time>2026-07-18T18:08:03Z</time><speed>3.093</speed><sat>15</sat></trkpt>
  <trkpt lat="26.41207667" lon="-80.16125167"><ele>20.863</ele><time>2026-07-18T18:08:04Z</time><speed>3.135</speed><sat>16</sat></trkpt>
  <trkpt lat="26.41204333" lon="-80.16124000"><ele>21.663</ele><time>2026-07-18T18:08:05Z</time><speed>3.140</speed><sat>16</sat></trkpt>
  <trkpt lat="26.41201500" lon="-80.16123000"><ele>21.963</ele><time>2026-07-18T18:08:06Z</time><speed>3.100</speed><sat>16</sat></trkpt>
  <trkpt lat="26.41199167" lon="-80.16122000"><ele>22.363</ele><time>2026-07-18T18:08:07Z</time><speed>3.080</speed><sat>16</sat></trkpt>
  <trkpt lat="26.41196000" lon="-80.16121333"><ele>22.163</ele><time>2026-07-18T18:08:08Z</time><speed>3.118</speed><sat>16</sat></trkpt>
  <trkpt lat="26.41192333" lon="-80.16120333"><ele>21.963</ele><time>2026-07-18T18:08:09Z</time><speed>3.177</speed><sat>16</sat></trkpt>
  <trkpt lat="26.41189333" lon="-80.16119667"><ele>21.863</ele><time>2026-07-18T18:08:10Z</time><speed>3.191</speed><sat>16</sat></trkpt>
  <trkpt lat="26.41186833" lon="-80.16119333"><ele>21.363</ele><time>2026-07-18T18:08:11Z</time><speed>3.145</speed><sat>16</sat></trkpt>
  <trkpt lat="26.41183833" lon="-80.16119333"><ele>21.263</ele><time>2026-07-18T18:08:12Z</time><speed>3.088</speed><sat>16</sat></trkpt>
  <trkpt lat="26.41180167" lon="-80.16118833"><ele>20.863</ele><time>2026-07-18T18:08:13Z</time><speed>3.014</speed><sat>16</sat></trkpt>
  <trkpt lat="26.41177000" lon="-80.16118333"><ele>21.063</ele><time>2026-07-18T18:08:14Z</time><speed>2.969</speed><sat>16</sat></trkpt>
  <trkpt lat="26.41174167" lon="-80.16118000"><ele>21.063</ele><time>2026-07-18T18:08:15Z</time><speed>2.932</speed><sat>16</sat></trkpt>
  <trkpt lat="26.41170667" lon="-80.16117667"><ele>21.163</ele><time>2026-07-18T18:08:16Z</time><speed>3.012</speed><sat>16</sat></trkpt>
  <trkpt lat="26.41167500" lon="-80.16117500"><ele>19.763</ele><time>2026-07-18T18:08:17Z</time><speed>3.015</speed><sat>16</sat></trkpt>
  <trkpt lat="26.41165000" lon="-80.16117500"><ele>18.663</ele><time>2026-07-18T18:08:18Z</time><speed>3.014</speed><sat>16</sat></trkpt>
  <trkpt lat="26.41162167" lon="-80.16117833"><ele>17.363</ele><time>2026-07-18T18:08:19Z</time><speed>3.006</speed><sat>16</sat></trkpt>
  <trkpt lat="26.41159333" lon="-80.16117833"><ele>16.263</ele><time>2026-07-18T18:08:20Z</time><speed>2.962</speed><sat>16</sat></trkpt>
  <trkpt lat="26.41156167" lon="-80.16117667"><ele>15.463</ele><time>2026-07-18T18:08:21Z</time><speed>3.013</speed><sat>16</sat></trkpt>
  <trkpt lat="26.41153333" lon="-80.16117500"><ele>14.963</ele><time>2026-07-18T18:08:22Z</time><speed>3.028</speed><sat>16</sat></trkpt>
  <trkpt lat="26.41150333" lon="-80.16117333"><ele>14.763</ele><time>2026-07-18T18:08:23Z</time><speed>3.031</speed><sat>16</sat></trkpt>
  <trkpt lat="26.41147333" lon="-80.16117333"><ele>14.363</ele><time>2026-07-18T18:08:24Z</time><speed>3.036</speed><sat>16</sat></trkpt>
  <trkpt lat="26.41144000" lon="-80.16117333"><ele>13.763</ele><time>2026-07-18T18:08:25Z</time><speed>3.058</speed><sat>16</sat></trkpt>
  <trkpt lat="26.41140500" lon="-80.16117500"><ele>13.563</ele><time>2026-07-18T18:08:26Z</time><speed>3.070</speed><sat>16</sat></trkpt>
  <trkpt lat="26.41137167" lon="-80.16117500"><ele>13.363</ele><time>2026-07-18T18:08:27Z</time><speed>3.146</speed><sat>16</sat></trkpt>
  <trkpt lat="26.41133833" lon="-80.16117833"><ele>13.463</ele><time>2026-07-18T18:08:28Z</time><speed>3.166</speed><sat>16</sat></trkpt>
  <trkpt lat="26.41130833" lon="-80.16117667"><ele>13.563</ele><time>2026-07-18T18:08:29Z</time><speed>3.167</speed><sat>16</sat></trkpt>
  <trkpt lat="26.41128000" lon="-80.16118000"><ele>13.863</ele><time>2026-07-18T18:08:30Z</time><speed>3.193</speed><sat>16</sat></trkpt>
  <trkpt lat="26.41125000" lon="-80.16117667"><ele>13.963</ele><time>2026-07-18T18:08:31Z</time><speed>3.208</speed><sat>16</sat></trkpt>
  <trkpt lat="26.41122000" lon="-80.16117333"><ele>14.363</ele><time>2026-07-18T18:08:32Z</time><speed>3.224</speed><sat>16</sat></trkpt>
  <trkpt lat="26.41119167" lon="-80.16117000"><ele>14.463</ele><time>2026-07-18T18:08:33Z</time><speed>3.241</speed><sat>16</sat></trkpt>
  <trkpt lat="26.41115833" lon="-80.16116333"><ele>14.663</ele><time>2026-07-18T18:08:34Z</time><speed>3.288</speed><sat>16</sat></trkpt>
  <trkpt lat="26.41113000" lon="-80.16116333"><ele>14.863</ele><time>2026-07-18T18:08:35Z</time><speed>3.330</speed><sat>16</sat></trkpt>
  <trkpt lat="26.41110167" lon="-80.16116167"><ele>15.063</ele><time>2026-07-18T18:08:36Z</time><speed>3.324</speed><sat>16</sat></trkpt>
  <trkpt lat="26.41107167" lon="-80.16116167"><ele>15.363</ele><time>2026-07-18T18:08:37Z</time><speed>3.304</speed><sat>16</sat></trkpt>
  <trkpt lat="26.41104167" lon="-80.16116167"><ele>15.763</ele><time>2026-07-18T18:08:38Z</time><speed>3.300</speed><sat>16</sat></trkpt>
  <trkpt lat="26.41100833" lon="-80.16116500"><ele>15.663</ele><time>2026-07-18T18:08:39Z</time><speed>3.311</speed><sat>16</sat></trkpt>
  <trkpt lat="26.41097667" lon="-80.16116667"><ele>15.663</ele><time>2026-07-18T18:08:40Z</time><speed>3.282</speed><sat>16</sat></trkpt>
  <trkpt lat="26.41095000" lon="-80.16117000"><ele>15.563</ele><time>2026-07-18T18:08:41Z</time><speed>3.275</speed><sat>16</sat></trkpt>
  <trkpt lat="26.41092000" lon="-80.16116833"><ele>16.163</ele><time>2026-07-18T18:08:42Z</time><speed>3.283</speed><sat>16</sat></trkpt>
  <trkpt lat="26.41089333" lon="-80.16117000"><ele>16.763</ele><time>2026-07-18T18:08:43Z</time><speed>3.281</speed><sat>16</sat></trkpt>
  <trkpt lat="26.41086500" lon="-80.16117000"><ele>17.363</ele><time>2026-07-18T18:08:44Z</time><speed>3.230</speed><sat>16</sat></trkpt>
  <trkpt lat="26.41083667" lon="-80.16117333"><ele>16.263</ele><time>2026-07-18T18:08:45Z</time><speed>3.185</speed><sat>16</sat></trkpt>
  <trkpt lat="26.41081000" lon="-80.16117333"><ele>15.463</ele><time>2026-07-18T18:08:46Z</time><speed>3.163</speed><sat>16</sat></trkpt>
  <trkpt lat="26.41078333" lon="-80.16117833"><ele>15.663</ele><time>2026-07-18T18:08:47Z</time><speed>3.132</speed><sat>16</sat></trkpt>
  <trkpt lat="26.41075833" lon="-80.16118333"><ele>15.963</ele><time>2026-07-18T18:08:48Z</time><speed>3.110</speed><sat>16</sat></trkpt>
  <trkpt lat="26.41073167" lon="-80.16119500"><ele>16.563</ele><time>2026-07-18T18:08:49Z</time><speed>3.075</speed><sat>16</sat></trkpt>
  <trkpt lat="26.41070500" lon="-80.16120000"><ele>16.163</ele><time>2026-07-18T18:08:50Z</time><speed>3.025</speed><sat>16</sat></trkpt>
  <trkpt lat="26.41068500" lon="-80.16120667"><ele>16.062</ele><time>2026-07-18T18:08:51Z</time><speed>2.944</speed><sat>16</sat></trkpt>
  <trkpt lat="26.41066833" lon="-80.16120833"><ele>16.062</ele><time>2026-07-18T18:08:52Z</time><speed>2.815</speed><sat>16</sat></trkpt>
  <trkpt lat="26.41065333" lon="-80.16120667"><ele>15.862</ele><time>2026-07-18T18:08:53Z</time><speed>2.689</speed><sat>16</sat></trkpt>
  <trkpt lat="26.41064000" lon="-80.16121000"><ele>16.762</ele><time>2026-07-18T18:08:54Z</time><speed>2.535</speed><sat>16</sat></trkpt>
  <trkpt lat="26.41062833" lon="-80.16120667"><ele>16.562</ele><time>2026-07-18T18:08:55Z</time><speed>2.417</speed><sat>16</sat></trkpt>
  <trkpt lat="26.41061667" lon="-80.16121000"><ele>16.762</ele><time>2026-07-18T18:08:56Z</time><speed>2.261</speed><sat>16</sat></trkpt>
  <trkpt lat="26.41060667" lon="-80.16121167"><ele>16.862</ele><time>2026-07-18T18:08:57Z</time><speed>2.099</speed><sat>16</sat></trkpt>
  <trkpt lat="26.41060167" lon="-80.16121333"><ele>17.762</ele><time>2026-07-18T18:08:58Z</time><speed>1.907</speed><sat>16</sat></trkpt>
  <trkpt lat="26.41059500" lon="-80.16121333"><ele>17.562</ele><time>2026-07-18T18:08:59Z</time><speed>1.725</speed><sat>16</sat></trkpt>
  <trkpt lat="26.41059167" lon="-80.16121167"><ele>17.562</ele><time>2026-07-18T18:09:00Z</time><speed>1.552</speed><sat>16</sat></trkpt>
  <trkpt lat="26.41058833" lon="-80.16120667"><ele>17.762</ele><time>2026-07-18T18:09:01Z</time><speed>1.402</speed><sat>16</sat></trkpt>
  <trkpt lat="26.41058667" lon="-80.16120167"><ele>17.862</ele><time>2026-07-18T18:09:02Z</time><speed>1.261</speed><sat>16</sat></trkpt>
  <trkpt lat="26.41058333" lon="-80.16119000"><ele>18.063</ele><time>2026-07-18T18:09:03Z</time><speed>1.143</speed><sat>16</sat></trkpt>
  <trkpt lat="26.41058333" lon="-80.16117833"><ele>18.063</ele><time>2026-07-18T18:09:04Z</time><speed>1.112</speed><sat>16</sat></trkpt>
  <trkpt lat="26.41058333" lon="-80.16115500"><ele>17.663</ele><time>2026-07-18T18:09:05Z</time><speed>1.111</speed><sat>16</sat></trkpt>
  <trkpt lat="26.41057500" lon="-80.16112833"><ele>17.763</ele><time>2026-07-18T18:09:06Z</time><speed>1.159</speed><sat>16</sat></trkpt>
  <trkpt lat="26.41057000" lon="-80.16110500"><ele>18.363</ele><time>2026-07-18T18:09:07Z</time><speed>1.242</speed><sat>16</sat></trkpt>
  <trkpt lat="26.41056667" lon="-80.16108333"><ele>18.463</ele><time>2026-07-18T18:09:08Z</time><speed>1.277</speed><sat>16</sat></trkpt>
  <trkpt lat="26.41056167" lon="-80.16106833"><ele>18.663</ele><time>2026-07-18T18:09:09Z</time><speed>1.270</speed><sat>16</sat></trkpt>
  <trkpt lat="26.41056167" lon="-80.16106000"><ele>19.163</ele><time>2026-07-18T18:09:10Z</time><speed>1.270</speed><sat>16</sat></trkpt>
  <trkpt lat="26.41056000" lon="-80.16105667"><ele>20.163</ele><time>2026-07-18T18:09:11Z</time><speed>1.238</speed><sat>16</sat></trkpt>
  <trkpt lat="26.41056167" lon="-80.16105500"><ele>21.063</ele><time>2026-07-18T18:09:12Z</time><speed>1.213</speed><sat>16</sat></trkpt>
  <trkpt lat="26.41056000" lon="-80.16105500"><ele>21.663</ele><time>2026-07-18T18:09:13Z</time><speed>1.152</speed><sat>16</sat></trkpt>
  <trkpt lat="26.41056333" lon="-80.16105333"><ele>21.863</ele><time>2026-07-18T18:09:14Z</time><speed>1.024</speed><sat>16</sat></trkpt>
  <trkpt lat="26.41057000" lon="-80.16105000"><ele>22.263</ele><time>2026-07-18T18:09:15Z</time><speed>0.862</speed><sat>16</sat></trkpt>
  <trkpt lat="26.41057167" lon="-80.16104833"><ele>22.463</ele><time>2026-07-18T18:09:16Z</time><speed>0.689</speed><sat>16</sat></trkpt>
  <trkpt lat="26.41057000" lon="-80.16105000"><ele>22.563</ele><time>2026-07-18T18:09:17Z</time><speed>0.500</speed><sat>16</sat></trkpt>
  <trkpt lat="26.41056500" lon="-80.16105000"><ele>22.863</ele><time>2026-07-18T18:09:18Z</time><speed>0.445</speed><sat>16</sat></trkpt>
  <trkpt lat="26.41057167" lon="-80.16104833"><ele>23.763</ele><time>2026-07-18T18:09:19Z</time><speed>0.398</speed><sat>16</sat></trkpt>
  <trkpt lat="26.41057500" lon="-80.16104500"><ele>24.563</ele><time>2026-07-18T18:09:20Z</time><speed>0.359</speed><sat>16</sat></trkpt>
  <trkpt lat="26.41058167" lon="-80.16104333"><ele>25.163</ele><time>2026-07-18T18:09:21Z</time><speed>0.000</speed><sat>16</sat></trkpt>
  <trkpt lat="26.41058500" lon="-80.16104000"><ele>25.763</ele><time>2026-07-18T18:09:22Z</time><speed>0.000</speed><sat>16</sat></trkpt>
  <trkpt lat="26.41059000" lon="-80.16104000"><ele>25.763</ele><time>2026-07-18T18:09:23Z</time><speed>0.000</speed><sat>16</sat></trkpt>
  <trkpt lat="26.41059000" lon="-80.16104000"><ele>25.763</ele><time>2026-07-18T18:09:24Z</time><speed>0.000</speed><sat>16</sat></trkpt>
  <trkpt lat="26.41059000" lon="-80.16104000"><ele>25.763</ele><time>2026-07-18T18:09:25Z</time><speed>0.000</speed><sat>16</sat></trkpt>
  <trkpt lat="26.41059000" lon="-80.16104000"><ele>25.763</ele><time>2026-07-18T18:09:26Z</time><speed>0.000</speed><sat>15</sat></trkpt>
  <trkpt lat="26.41059000" lon="-80.16104000"><ele>25.763</ele><time>2026-07-18T18:09:27Z</time><speed>0.000</speed><sat>15</sat></trkpt>
  <trkpt lat="26.41059000" lon="-80.16104000"><ele>25.763</ele><time>2026-07-18T18:09:28Z</time><speed>0.000</speed><sat>15</sat></trkpt>
 </trkseg>
</trk>

</gpx>
 