<?xml version="1.0" encoding="UTF-8"?>
<!-- Created with BasicAirData GPS Logger for Android - ver. 3.3.0 -->
<!-- Track 16 = 353 TrackPoints + 2 Placemarks -->
<kml xmlns="http://www.opengis.net/kml/2.2">
 <Document>
  <name>GPS Logger 20260724-123713</name>
  <description><![CDATA[Maintenance-ST3
353 Trackpoints + 2 Placemarks]]></description>
  <Style id="TrackStyle">
   <LineStyle>
    <color>ff0000ff</color>
    <width>3</width>
   </LineStyle>
   <PolyStyle>
    <color>7f0000ff</color>
   </PolyStyle>
   <BalloonStyle>
    <text><![CDATA[<p style="color:red;font-weight:bold">$[name]</p><p style="font-size:11px">$[description]</p><p style="font-size:7px">Track Stats based on: Total time | Time in Movement</p>]]></text>
   </BalloonStyle>
  </Style>
  <Style id="PlacemarkStyle">
   <IconStyle>
    <Icon><href>http://maps.google.com/mapfiles/kml/shapes/placemark_circle_highlight.png</href></Icon>
   </IconStyle>
  </Style>

  <Placemark id="1">
   <name>Maintenance</name>
   <styleUrl>#PlacemarkStyle</styleUrl>
   <Point>
    <altitudeMode>clampToGround</altitudeMode>
    <coordinates>-80.16454667,26.41609333,13.452</coordinates>
    <extrude>1</extrude>
   </Point>
  </Placemark>

  <Placemark id="2">
   <name>Station3</name>
   <styleUrl>#PlacemarkStyle</styleUrl>
   <Point>
    <altitudeMode>clampToGround</altitudeMode>
    <coordinates>-80.17015167,26.41656000,5.829</coordinates>
    <extrude>1</extrude>
   </Point>
  </Placemark>

  <Placemark id="20260724-123713">
   <name>Track 20260724-123713</name>
   <description><![CDATA[<b>Maintenance-ST3</b><br><br>Distance = 822 m<br>Duration = 05:52 | 04:37<br>Altitude Gap = -8 m<br>Max Speed = 10 mph<br>Avg Speed = 5.2 | 6.6 mph<br>Direction = W <br><br><i>353 Trackpoints</i>]]></description>
   <styleUrl>#TrackStyle</styleUrl>
   <LineString>
    <extrude>0</extrude>
    <tessellate>0</tessellate>
    <altitudeMode>clampToGround</altitudeMode>
    <coordinates>
     -80.16454667,26.41609333,13.452
     -80.16454667,26.41609333,13.452
     -80.16454667,26.41609333,13.452
     -80.16454667,26.41609333,13.452
     -80.16454667,26.41609333,13.452
     -80.16454667,26.41609333,13.452
     -80.16454667,26.41609333,13.452
     -80.16454667,26.41609333,13.452
     -80.16454667,26.41609333,13.452
     -80.16454667,26.41609333,13.452
     -80.16454667,26.41609333,13.452
     -80.16454667,26.41609333,13.452
     -80.16454667,26.41609333,13.452
     -80.16454667,26.41609333,13.452
     -80.16454667,26.41609333,13.452
     -80.16454667,26.41609333,13.452
     -80.16454667,26.41609333,13.452
     -80.16454667,26.41609333,13.452
     -80.16454667,26.41609333,13.452
     -80.16454667,26.41609333,13.452
     -80.16454667,26.41609333,13.452
     -80.16454667,26.41609333,13.452
     -80.16456500,26.41604500,8.352
     -80.16456000,26.41604333,8.452
     -80.16455833,26.41604667,8.552
     -80.16455333,26.41605000,8.252
     -80.16455333,26.41605000,8.252
     -80.16455333,26.41605000,8.252
     -80.16455333,26.41605000,8.252
     -80.16455333,26.41605000,8.252
     -80.16455333,26.41605000,8.252
     -80.16455333,26.41605000,8.252
     -80.16455333,26.41605000,8.252
     -80.16455333,26.41605000,8.252
     -80.16458000,26.41607333,6.552
     -80.16457833,26.41606833,6.452
     -80.16458333,26.41606500,6.352
     -80.16458833,26.41606333,6.452
     -80.16459000,26.41606167,6.652
     -80.16459000,26.41606167,6.652
     -80.16459000,26.41606167,6.652
     -80.16459000,26.41606167,6.652
     -80.16459000,26.41606167,6.652
     -80.16459000,26.41606167,6.652
     -80.16459000,26.41606167,6.652
     -80.16459000,26.41606167,6.652
     -80.16459000,26.41606167,6.652
     -80.16458167,26.41604167,7.552
     -80.16458667,26.41603667,7.752
     -80.16459167,26.41603500,7.752
     -80.16459833,26.41603667,7.952
     -80.16460000,26.41603167,7.951
     -80.16460667,26.41603000,8.351
     -80.16460833,26.41602667,9.051
     -80.16461000,26.41602667,9.651
     -80.16461167,26.41602333,9.951
     -80.16461500,26.41602167,10.351
     -80.16462333,26.41601833,10.851
     -80.16463167,26.41601500,10.851
     -80.16464500,26.41601667,10.751
     -80.16464833,26.41601833,10.551
     -80.16465333,26.41601667,10.151
     -80.16466000,26.41601333,9.851
     -80.16467000,26.41600333,9.751
     -80.16468667,26.41599000,9.951
     -80.16470333,26.41597667,10.351
     -80.16470500,26.41596500,10.851
     -80.16470500,26.41595500,11.351
     -80.16470000,26.41595333,11.251
     -80.16470000,26.41595000,11.151
     -80.16470500,26.41595000,10.951
     -80.16471833,26.41595667,10.551
     -80.16473500,26.41596833,10.451
     -80.16475000,26.41596833,10.451
     -80.16476333,26.41596500,10.251
     -80.16477833,26.41596167,10.251
     -80.16479167,26.41596333,10.051
     -80.16480833,26.41595833,9.451
     -80.16482667,26.41594667,9.451
     -80.16484500,26.41593667,9.950
     -80.16486167,26.41591000,9.450
     -80.16487500,26.41588667,9.150
     -80.16488500,26.41586667,9.050
     -80.16489667,26.41584833,9.250
     -80.16491000,26.41581833,8.850
     -80.16492167,26.41578667,8.350
     -80.16492833,26.41575000,8.350
     -80.16493000,26.41571833,8.350
     -80.16492667,26.41569000,8.350
     -80.16492667,26.41565667,7.650
     -80.16492167,26.41562500,7.650
     -80.16492167,26.41559500,7.750
     -80.16491500,26.41556333,7.950
     -80.16490833,26.41553333,8.050
     -80.16489333,26.41550333,8.250
     -80.16488000,26.41547667,8.550
     -80.16486500,26.41544667,8.750
     -80.16485000,26.41542000,8.850
     -80.16483833,26.41539333,9.150
     -80.16482333,26.41535833,9.850
     -80.16480500,26.41533333,9.850
     -80.16478833,26.41530667,9.750
     -80.16477500,26.41528167,9.750
     -80.16476500,26.41525833,9.650
     -80.16475500,26.41522833,8.850
     -80.16476500,26.41520833,7.750
     -80.16477667,26.41518833,7.250
     -80.16479333,26.41516833,6.350
     -80.16481167,26.41514500,6.050
     -80.16483000,26.41512000,5.550
     -80.16484667,26.41509167,5.550
     -80.16486333,26.41506333,6.150
     -80.16486667,26.41505000,6.850
     -80.16486000,26.41503167,6.950
     -80.16485167,26.41500833,8.050
     -80.16485000,26.41497833,9.250
     -80.16485000,26.41495667,9.450
     -80.16484167,26.41495000,11.350
     -80.16484000,26.41495000,14.950
     -80.16484167,26.41492833,14.850
     -80.16487667,26.41491333,15.250
     -80.16491333,26.41488333,14.750
     -80.16493500,26.41485500,15.349
     -80.16495833,26.41482833,15.449
     -80.16500667,26.41480500,15.449
     -80.16504667,26.41479000,15.549
     -80.16507833,26.41479833,15.749
     -80.16511167,26.41481167,15.149
     -80.16514667,26.41481667,14.149
     -80.16516833,26.41482833,13.148
     -80.16518000,26.41484000,12.048
     -80.16519000,26.41485667,10.548
     -80.16519167,26.41488333,10.048
     -80.16519000,26.41491667,9.948
     -80.16519333,26.41494833,10.348
     -80.16520833,26.41497333,10.248
     -80.16522833,26.41500167,10.448
     -80.16525500,26.41502000,10.248
     -80.16529000,26.41503500,9.648
     -80.16532500,26.41505000,9.648
     -80.16536000,26.41506667,9.048
     -80.16539500,26.41508500,8.548
     -80.16541333,26.41510000,8.148
     -80.16542667,26.41510833,7.848
     -80.16545500,26.41512167,7.447
     -80.16547833,26.41513000,7.447
     -80.16550333,26.41513667,7.347
     -80.16553333,26.41514667,7.547
     -80.16556167,26.41516000,7.747
     -80.16559000,26.41517500,7.747
     -80.16562167,26.41518833,7.447
     -80.16565000,26.41520000,7.247
     -80.16567667,26.41521167,7.247
     -80.16570500,26.41522167,7.346
     -80.16573167,26.41523000,7.246
     -80.16575000,26.41523167,6.246
     -80.16575833,26.41523500,6.446
     -80.16576167,26.41523167,6.446
     -80.16576167,26.41522833,7.046
     -80.16576000,26.41522500,7.646
     -80.16576000,26.41522500,8.146
     -80.16575833,26.41522333,8.446
     -80.16575667,26.41522333,8.946
     -80.16575667,26.41522667,9.046
     -80.16576167,26.41522833,9.146
     -80.16576500,26.41523500,9.446
     -80.16578333,26.41525000,9.746
     -80.16579667,26.41526500,9.646
     -80.16581333,26.41528000,9.746
     -80.16583667,26.41529500,9.946
     -80.16585000,26.41532167,9.646
     -80.16586500,26.41535167,9.946
     -80.16587667,26.41538667,8.946
     -80.16589500,26.41542000,7.946
     -80.16591667,26.41544500,7.146
     -80.16594167,26.41546667,6.146
     -80.16597833,26.41548167,6.246
     -80.16601167,26.41549667,6.145
     -80.16604833,26.41551500,5.945
     -80.16608333,26.41553500,5.545
     -80.16611833,26.41555833,5.645
     -80.16615167,26.41558167,5.445
     -80.16618333,26.41560000,5.245
     -80.16621833,26.41562167,5.145
     -80.16625667,26.41564167,4.744
     -80.16629500,26.41566000,4.344
     -80.16633167,26.41568167,4.044
     -80.16637000,26.41570000,3.744
     -80.16640833,26.41571500,4.044
     -80.16644667,26.41573500,3.944
     -80.16648167,26.41575333,3.644
     -80.16651500,26.41577167,3.343
     -80.16654833,26.41579167,3.143
     -80.16658333,26.41581167,2.843
     -80.16661667,26.41582833,2.043
     -80.16664833,26.41584500,1.043
     -80.16667833,26.41586333,0.243
     -80.16670500,26.41588167,-0.457
     -80.16672667,26.41589833,-1.257
     -80.16675000,26.41591667,0.543
     -80.16677333,26.41594667,2.442
     -80.16678833,26.41596000,3.342
     -80.16680167,26.41597333,3.742
     -80.16681000,26.41598333,4.442
     -80.16682000,26.41599333,4.542
     -80.16684667,26.41600333,4.842
     -80.16688167,26.41601167,4.742
     -80.16691167,26.41603000,4.742
     -80.16694167,26.41605167,4.642
     -80.16697167,26.41607500,4.642
     -80.16700167,26.41610000,4.542
     -80.16702000,26.41612167,4.442
     -80.16704833,26.41614000,4.141
     -80.16707333,26.41615833,3.941
     -80.16710333,26.41617833,3.441
     -80.16713833,26.41619167,3.241
     -80.16717167,26.41619833,3.241
     -80.16720500,26.41620500,3.341
     -80.16723667,26.41620833,3.441
     -80.16726667,26.41621333,3.441
     -80.16729000,26.41621833,3.441
     -80.16730667,26.41622333,2.840
     -80.16731500,26.41622833,2.640
     -80.16732333,26.41623667,2.840
     -80.16733333,26.41625167,3.140
     -80.16734167,26.41628000,3.640
     -80.16735500,26.41630333,3.640
     -80.16737500,26.41632500,3.540
     -80.16739333,26.41634833,3.740
     -80.16740500,26.41637333,4.040
     -80.16741500,26.41639333,4.940
     -80.16744000,26.41641500,4.640
     -80.16745667,26.41644500,5.340
     -80.16747000,26.41647500,5.640
     -80.16748333,26.41650667,6.040
     -80.16749333,26.41653500,5.540
     -80.16750833,26.41656333,5.840
     -80.16752167,26.41658833,6.040
     -80.16754333,26.41660667,6.340
     -80.16757167,26.41661667,5.940
     -80.16760167,26.41661500,5.139
     -80.16763333,26.41660333,4.239
     -80.16766167,26.41658833,4.039
     -80.16768333,26.41657000,3.439
     -80.16770500,26.41654500,3.639
     -80.16772667,26.41652000,3.939
     -80.16775333,26.41649833,4.239
     -80.16778000,26.41647833,4.339
     -80.16780833,26.41645833,4.439
     -80.16783667,26.41644333,4.638
     -80.16786500,26.41642667,4.838
     -80.16789667,26.41641333,4.938
     -80.16792833,26.41639667,4.738
     -80.16795833,26.41637833,4.638
     -80.16798500,26.41636000,4.538
     -80.16801333,26.41633667,4.238
     -80.16804167,26.41631500,3.537
     -80.16807500,26.41629167,3.237
     -80.16810333,26.41627167,3.737
     -80.16813000,26.41625667,4.137
     -80.16816167,26.41624500,4.837
     -80.16819500,26.41623500,5.337
     -80.16823167,26.41623167,5.337
     -80.16826333,26.41623000,4.937
     -80.16830167,26.41623333,5.036
     -80.16834000,26.41623500,5.036
     -80.16837333,26.41623833,5.136
     -80.16840833,26.41623833,5.036
     -80.16844500,26.41623500,5.136
     -80.16848500,26.41623667,5.136
     -80.16852333,26.41623333,5.335
     -80.16856167,26.41623167,5.235
     -80.16859667,26.41623500,5.035
     -80.16863167,26.41623667,5.335
     -80.16866833,26.41624333,5.335
     -80.16870000,26.41625167,5.135
     -80.16872833,26.41625833,5.135
     -80.16875667,26.41626500,5.534
     -80.16878833,26.41627167,5.534
     -80.16882667,26.41627500,5.734
     -80.16886500,26.41627333,5.834
     -80.16890000,26.41627167,5.734
     -80.16893167,26.41626833,4.834
     -80.16896667,26.41626833,4.734
     -80.16900000,26.41627000,4.633
     -80.16903667,26.41627000,4.733
     -80.16907667,26.41627167,5.033
     -80.16911833,26.41627500,5.233
     -80.16915667,26.41627833,5.933
     -80.16919667,26.41628167,6.333
     -80.16923000,26.41628667,6.533
     -80.16926833,26.41629167,6.532
     -80.16930333,26.41629833,6.432
     -80.16933833,26.41630667,6.332
     -80.16937333,26.41631333,6.132
     -80.16940833,26.41632000,6.232
     -80.16944500,26.41632500,6.532
     -80.16948333,26.41632667,7.032
     -80.16951667,26.41632333,7.031
     -80.16955000,26.41632167,7.131
     -80.16958500,26.41632000,7.031
     -80.16962167,26.41632167,6.831
     -80.16965833,26.41632167,6.831
     -80.16969500,26.41632167,6.931
     -80.16973333,26.41632000,6.931
     -80.16977000,26.41631167,6.930
     -80.16980333,26.41630333,6.730
     -80.16983833,26.41629833,6.430
     -80.16987333,26.41629000,6.230
     -80.16990333,26.41628500,6.030
     -80.16993667,26.41628000,6.430
     -80.16996833,26.41627833,6.630
     -80.17000000,26.41627667,6.529
     -80.17003333,26.41627667,6.429
     -80.17006500,26.41628167,6.529
     -80.17009167,26.41629500,7.029
     -80.17011333,26.41631833,6.729
     -80.17012500,26.41633667,6.129
     -80.17014000,26.41635667,5.329
     -80.17015167,26.41637500,4.929
     -80.17015667,26.41638833,4.429
     -80.17015833,26.41640333,4.329
     -80.17015833,26.41641833,4.329
     -80.17015833,26.41643500,4.029
     -80.17016000,26.41645333,3.829
     -80.17016167,26.41647167,3.729
     -80.17015833,26.41648667,3.629
     -80.17015500,26.41650167,3.529
     -80.17015500,26.41651333,3.629
     -80.17015333,26.41652667,3.729
     -80.17015333,26.41653833,3.929
     -80.17015000,26.41654667,3.729
     -80.17014833,26.41655333,3.629
     -80.17014667,26.41655500,3.629
     -80.17014500,26.41655500,3.829
     -80.17014333,26.41655500,3.929
     -80.17014500,26.41655333,4.129
     -80.17014667,26.41655500,4.629
     -80.17014833,26.41655667,4.929
     -80.17014833,26.41655667,5.229
     -80.17015000,26.41655833,5.529
     -80.17015167,26.41656000,5.829
     -80.17015167,26.41656000,5.829
     -80.17015167,26.41656000,5.829
     -80.17015167,26.41656000,5.829
     -80.17015167,26.41656000,5.829
     -80.17015167,26.41656000,5.829
     -80.17015167,26.41656000,5.829
     -80.17015167,26.41656000,5.829
     -80.17015167,26.41656000,5.829
     -80.17015167,26.41656000,5.829
     -80.17015167,26.41656000,5.829
     -80.17015167,26.41656000,5.829
    </coordinates>
   </LineString>
  </Placemark>

 </Document>
</kml>
 