<?xml version="1.0" encoding="UTF-8"?>
<!-- Created with BasicAirData GPS Logger for Android - ver. 3.3.0 -->
<!-- Track 17 = 853 TrackPoints + 2 Placemarks -->
<kml xmlns="http://www.opengis.net/kml/2.2">
 <Document>
  <name>GPS Logger 20260724-130922</name>
  <description><![CDATA[ST3-4
853 Trackpoints + 2 Placemarks]]></description>
  <Style id="TrackStyle">
   <LineStyle>
    <color>ff0000ff</color>
    <width>3</width>
   </LineStyle>
   <PolyStyle>
    <color>7f0000ff</color>
   </PolyStyle>
   <BalloonStyle>
    <text><![CDATA[<p style="color:red;font-weight:bold">$[name]</p><p style="font-size:11px">$[description]</p><p style="font-size:7px">Track Stats based on: Total time | Time in Movement</p>]]></text>
   </BalloonStyle>
  </Style>
  <Style id="PlacemarkStyle">
   <IconStyle>
    <Icon><href>http://maps.google.com/mapfiles/kml/shapes/placemark_circle_highlight.png</href></Icon>
   </IconStyle>
  </Style>

  <Placemark id="1">
   <name>Station3</name>
   <styleUrl>#PlacemarkStyle</styleUrl>
   <Point>
    <altitudeMode>clampToGround</altitudeMode>
    <coordinates>-80.17004167,26.41657667,9.829</coordinates>
    <extrude>1</extrude>
   </Point>
  </Placemark>

  <Placemark id="2">
   <name>Station4</name>
   <styleUrl>#PlacemarkStyle</styleUrl>
   <Point>
    <altitudeMode>clampToGround</altitudeMode>
    <coordinates>-80.16668167,26.40990167,12.039</coordinates>
    <extrude>1</extrude>
   </Point>
  </Placemark>

  <Placemark id="20260724-130922">
   <name>Track 20260724-130922</name>
   <description><![CDATA[<b>ST3-4</b><br><br>Distance = 1.82 km<br>Duration = 14:12 | 10:06<br>Altitude Gap = 4 m<br>Max Speed = 10 mph<br>Avg Speed = 4.8 | 6.7 mph<br>Direction = SSE <br><br><i>853 Trackpoints</i>]]></description>
   <styleUrl>#TrackStyle</styleUrl>
   <LineString>
    <extrude>0</extrude>
    <tessellate>0</tessellate>
    <altitudeMode>clampToGround</altitudeMode>
    <coordinates>
     -80.17003333,26.41657500,8.429
     -80.17003500,26.41657667,8.929
     -80.17003667,26.41657500,9.529
     -80.17004000,26.41657500,9.829
     -80.17004167,26.41657667,9.829
     -80.17004667,26.41657667,10.029
     -80.17004667,26.41658167,9.929
     -80.17004667,26.41659000,9.829
     -80.17004667,26.41659500,9.729
     -80.17004667,26.41659833,9.729
     -80.17004833,26.41660167,9.829
     -80.17004833,26.41660333,9.829
     -80.17005000,26.41660333,9.929
     -80.17005000,26.41660667,10.029
     -80.17005000,26.41661000,10.229
     -80.17005167,26.41661000,10.129
     -80.17005167,26.41661333,10.029
     -80.17005500,26.41661167,9.829
     -80.17005667,26.41661000,9.629
     -80.17005667,26.41660833,9.529
     -80.17005667,26.41660833,9.429
     -80.17005667,26.41660833,9.329
     -80.17005667,26.41660667,9.329
     -80.17005667,26.41660667,9.329
     -80.17005667,26.41660667,9.329
     -80.17005500,26.41660500,9.329
     -80.17005333,26.41660167,9.429
     -80.17005333,26.41659833,9.529
     -80.17005167,26.41659500,9.629
     -80.17005167,26.41659500,9.629
     -80.17005167,26.41659500,9.629
     -80.17005167,26.41659500,9.629
     -80.17005167,26.41659500,9.629
     -80.17005167,26.41659500,9.629
     -80.17005167,26.41659500,9.629
     -80.17005167,26.41659500,9.629
     -80.17005167,26.41659500,9.629
     -80.17005167,26.41659500,9.629
     -80.17005167,26.41659500,9.629
     -80.17005167,26.41659500,9.629
     -80.17006167,26.41658667,8.629
     -80.17006167,26.41658667,8.329
     -80.17006333,26.41659000,8.129
     -80.17006333,26.41659167,8.029
     -80.17006333,26.41659167,8.029
     -80.17006333,26.41659167,8.029
     -80.17006333,26.41659167,8.029
     -80.17006333,26.41659167,8.029
     -80.17006333,26.41659167,8.029
     -80.17006333,26.41659167,8.029
     -80.17006333,26.41659167,8.029
     -80.17006333,26.41659167,8.029
     -80.17006333,26.41659167,8.029
     -80.17006333,26.41659167,8.029
     -80.17006333,26.41659167,8.029
     -80.17006333,26.41659167,8.029
     -80.17006333,26.41659167,8.029
     -80.17006333,26.41659167,8.029
     -80.17006333,26.41659167,8.029
     -80.17006333,26.41659167,8.029
     -80.17006333,26.41659167,8.029
     -80.17006333,26.41659167,8.029
     -80.17006333,26.41659167,8.029
     -80.17006333,26.41659167,8.029
     -80.17006333,26.41659167,8.029
     -80.17006333,26.41659167,8.029
     -80.17006333,26.41659167,8.029
     -80.17006333,26.41659167,8.029
     -80.17006333,26.41659167,8.029
     -80.17006333,26.41659167,8.029
     -80.17006333,26.41659167,8.029
     -80.17006333,26.41659167,8.029
     -80.17006333,26.41659167,8.029
     -80.17006333,26.41659167,8.029
     -80.17006333,26.41659167,8.029
     -80.17006333,26.41659167,8.029
     -80.17006333,26.41659167,8.029
     -80.17006333,26.41659167,8.029
     -80.17006333,26.41659167,8.029
     -80.17006333,26.41659167,8.029
     -80.17006333,26.41659167,8.029
     -80.17006333,26.41659167,8.029
     -80.17006333,26.41659167,8.029
     -80.17006333,26.41659167,8.029
     -80.17006333,26.41659167,8.029
     -80.17006333,26.41659167,8.029
     -80.17006333,26.41659167,8.029
     -80.17006333,26.41659167,8.029
     -80.17006333,26.41659167,8.029
     -80.17006333,26.41659167,8.029
     -80.17006333,26.41659167,8.029
     -80.17006333,26.41659167,8.029
     -80.17006333,26.41659167,8.029
     -80.17006333,26.41659167,8.029
     -80.17006333,26.41659167,8.029
     -80.17006333,26.41659167,8.029
     -80.17006333,26.41659167,8.029
     -80.17006333,26.41659167,8.029
     -80.17006333,26.41659167,8.029
     -80.17006333,26.41659167,8.029
     -80.17006333,26.41659167,8.029
     -80.17006333,26.41659167,8.029
     -80.17006333,26.41659167,8.029
     -80.17006333,26.41659167,8.029
     -80.17006333,26.41659167,8.029
     -80.17006333,26.41659167,8.029
     -80.17006333,26.41659167,8.029
     -80.17006333,26.41659167,8.029
     -80.17006333,26.41659167,8.029
     -80.17006333,26.41659167,8.029
     -80.17006333,26.41659167,8.029
     -80.17006333,26.41659167,8.029
     -80.17006333,26.41659167,8.029
     -80.17006333,26.41659167,8.029
     -80.17006333,26.41659167,8.029
     -80.17006333,26.41659167,8.029
     -80.17006333,26.41659167,8.029
     -80.17006333,26.41659167,8.029
     -80.17006333,26.41659167,8.029
     -80.17006333,26.41659167,8.029
     -80.17006333,26.41659167,8.029
     -80.17006333,26.41659167,8.029
     -80.17006333,26.41659167,8.029
     -80.17006333,26.41659167,8.029
     -80.17006333,26.41659167,8.029
     -80.17006333,26.41659167,8.029
     -80.17006333,26.41659167,8.029
     -80.17006333,26.41659167,8.029
     -80.17006333,26.41659167,8.029
     -80.17006333,26.41659167,8.029
     -80.17006333,26.41659167,8.029
     -80.17006333,26.41659167,8.029
     -80.17006333,26.41659167,8.029
     -80.17006333,26.41659167,8.029
     -80.17006333,26.41659167,8.029
     -80.17006333,26.41659167,8.029
     -80.17006333,26.41659167,8.029
     -80.17006333,26.41659167,8.029
     -80.17006333,26.41659167,8.029
     -80.17006333,26.41659167,8.029
     -80.17006333,26.41659167,8.029
     -80.17006333,26.41659167,8.029
     -80.17006333,26.41659167,8.029
     -80.17006333,26.41659167,8.029
     -80.17006333,26.41659167,8.029
     -80.17007000,26.41660000,6.929
     -80.17006833,26.41660333,7.329
     -80.17006833,26.41660500,7.529
     -80.17006667,26.41660833,7.629
     -80.17006667,26.41660833,7.129
     -80.17006667,26.41660833,7.129
     -80.17006667,26.41660833,7.129
     -80.17006667,26.41660833,7.129
     -80.17006667,26.41660833,7.129
     -80.17006667,26.41660833,7.129
     -80.17006667,26.41660833,7.129
     -80.17006667,26.41660833,7.129
     -80.17006667,26.41660833,7.129
     -80.17006833,26.41659500,6.329
     -80.17006500,26.41660167,6.329
     -80.17006167,26.41660167,6.329
     -80.17005667,26.41660833,5.829
     -80.17004833,26.41661333,5.529
     -80.17003500,26.41661667,5.429
     -80.17001833,26.41661667,5.029
     -80.17000500,26.41661000,4.730
     -80.16999167,26.41659833,4.730
     -80.16997833,26.41657833,4.730
     -80.16997000,26.41656167,4.730
     -80.16996333,26.41654333,4.730
     -80.16996167,26.41652333,4.430
     -80.16996167,26.41650333,4.430
     -80.16996667,26.41648667,4.530
     -80.16999000,26.41647500,4.230
     -80.17000833,26.41646500,4.429
     -80.17002667,26.41646500,4.529
     -80.17004500,26.41646667,4.729
     -80.17006167,26.41646833,4.429
     -80.17007833,26.41647333,4.229
     -80.17010000,26.41647167,4.029
     -80.17012333,26.41646167,4.329
     -80.17013833,26.41644833,4.429
     -80.17014333,26.41643333,4.229
     -80.17014167,26.41641500,3.529
     -80.17013333,26.41639500,3.229
     -80.17012833,26.41637333,3.429
     -80.17012167,26.41635333,3.129
     -80.17011333,26.41633333,3.329
     -80.17009833,26.41631667,3.629
     -80.17008833,26.41630500,4.429
     -80.17007667,26.41629333,4.929
     -80.17005833,26.41627500,5.329
     -80.17003833,26.41626000,5.629
     -80.17001000,26.41625000,6.429
     -80.16998000,26.41625167,7.729
     -80.16995167,26.41625667,8.130
     -80.16992500,26.41626000,8.030
     -80.16990000,26.41626167,7.630
     -80.16986667,26.41626667,7.230
     -80.16983500,26.41627667,6.530
     -80.16980667,26.41628833,6.130
     -80.16978000,26.41629833,5.830
     -80.16975500,26.41630333,5.730
     -80.16973333,26.41631167,5.230
     -80.16971667,26.41631667,6.031
     -80.16970833,26.41632000,6.331
     -80.16969667,26.41632167,7.031
     -80.16968667,26.41632500,7.431
     -80.16967333,26.41632500,7.631
     -80.16966000,26.41632500,8.131
     -80.16964667,26.41632333,8.331
     -80.16963667,26.41632500,8.231
     -80.16962333,26.41632500,8.231
     -80.16961167,26.41632167,8.031
     -80.16959667,26.41631833,7.731
     -80.16958167,26.41631667,7.531
     -80.16957000,26.41631500,7.631
     -80.16955667,26.41631500,7.731
     -80.16954333,26.41631667,7.631
     -80.16952833,26.41631833,7.431
     -80.16951500,26.41632167,7.531
     -80.16950000,26.41632333,7.431
     -80.16948667,26.41632667,7.532
     -80.16947167,26.41633167,7.532
     -80.16945833,26.41633500,7.432
     -80.16944833,26.41633667,7.132
     -80.16943500,26.41633500,6.832
     -80.16942000,26.41633167,6.732
     -80.16940500,26.41632500,6.632
     -80.16939000,26.41631833,6.532
     -80.16937667,26.41631333,6.632
     -80.16936333,26.41631000,6.432
     -80.16935000,26.41630667,6.332
     -80.16933667,26.41630167,6.232
     -80.16932333,26.41629833,6.432
     -80.16931333,26.41629667,7.232
     -80.16930000,26.41629833,7.532
     -80.16928333,26.41629667,7.632
     -80.16926833,26.41629667,7.932
     -80.16924833,26.41629667,7.932
     -80.16923667,26.41629333,8.433
     -80.16922167,26.41629000,8.833
     -80.16920667,26.41629000,9.533
     -80.16919333,26.41628667,10.033
     -80.16918000,26.41628333,10.233
     -80.16916167,26.41628333,10.733
     -80.16914667,26.41628167,10.933
     -80.16913167,26.41628000,10.833
     -80.16911667,26.41627833,10.833
     -80.16910000,26.41627500,10.733
     -80.16908500,26.41627333,10.933
     -80.16907167,26.41627167,11.333
     -80.16906000,26.41626667,11.633
     -80.16904500,26.41626333,11.733
     -80.16903000,26.41626333,11.433
     -80.16902000,26.41626167,11.133
     -80.16900500,26.41625833,10.733
     -80.16899000,26.41625833,10.634
     -80.16897500,26.41625833,10.334
     -80.16895500,26.41626000,10.334
     -80.16893333,26.41626167,10.434
     -80.16891167,26.41626333,10.134
     -80.16889333,26.41627000,9.734
     -80.16887833,26.41627000,9.234
     -80.16886333,26.41627167,8.934
     -80.16884667,26.41627333,9.034
     -80.16883333,26.41627500,9.034
     -80.16881833,26.41627500,8.934
     -80.16880000,26.41627333,8.334
     -80.16878333,26.41626667,7.934
     -80.16877000,26.41626500,7.634
     -80.16875833,26.41626167,7.134
     -80.16874500,26.41625833,7.135
     -80.16873167,26.41625667,7.335
     -80.16872167,26.41625167,7.635
     -80.16871167,26.41624500,7.835
     -80.16870167,26.41624000,8.335
     -80.16869000,26.41623333,8.335
     -80.16867833,26.41623000,8.435
     -80.16866833,26.41622833,8.535
     -80.16865833,26.41622500,8.335
     -80.16864833,26.41622333,8.335
     -80.16863833,26.41622500,8.135
     -80.16862667,26.41622667,8.135
     -80.16861500,26.41622667,7.935
     -80.16860333,26.41622500,7.935
     -80.16859167,26.41622500,7.535
     -80.16857833,26.41622833,7.635
     -80.16856833,26.41622833,7.635
     -80.16856000,26.41623167,7.735
     -80.16855500,26.41623500,7.835
     -80.16855000,26.41623500,7.735
     -80.16855000,26.41623667,7.835
     -80.16855167,26.41623667,7.935
     -80.16855333,26.41623667,8.035
     -80.16855500,26.41623667,8.135
     -80.16855667,26.41623667,8.135
     -80.16855833,26.41623667,8.335
     -80.16856000,26.41623500,8.535
     -80.16856000,26.41623500,8.535
     -80.16856000,26.41623500,8.535
     -80.16856000,26.41623500,8.535
     -80.16856000,26.41623500,8.535
     -80.16856000,26.41623500,8.535
     -80.16856000,26.41623500,8.535
     -80.16856000,26.41623500,8.535
     -80.16856000,26.41623500,8.535
     -80.16856000,26.41623500,8.535
     -80.16856000,26.41623500,8.535
     -80.16856000,26.41623500,8.535
     -80.16856000,26.41623500,8.535
     -80.16856000,26.41623500,8.535
     -80.16856000,26.41623500,8.535
     -80.16856000,26.41623500,8.535
     -80.16856000,26.41623500,8.535
     -80.16856000,26.41623500,8.535
     -80.16856000,26.41623500,8.535
     -80.16856000,26.41623500,8.535
     -80.16856000,26.41623500,8.535
     -80.16856000,26.41623500,8.535
     -80.16856000,26.41623500,8.535
     -80.16856000,26.41623500,8.535
     -80.16856000,26.41623500,8.535
     -80.16856000,26.41623500,8.535
     -80.16856000,26.41623500,8.535
     -80.16856000,26.41623500,8.535
     -80.16856000,26.41623500,8.535
     -80.16856000,26.41623500,8.535
     -80.16856000,26.41623500,8.535
     -80.16851333,26.41624167,9.335
     -80.16849833,26.41624000,9.236
     -80.16848333,26.41623833,9.036
     -80.16847000,26.41624000,9.136
     -80.16845667,26.41624167,9.136
     -80.16844667,26.41624500,9.336
     -80.16843500,26.41625000,9.536
     -80.16842333,26.41625333,9.836
     -80.16840667,26.41625500,9.836
     -80.16839667,26.41625500,9.936
     -80.16838667,26.41625667,10.136
     -80.16837000,26.41625667,10.436
     -80.16835333,26.41626000,10.636
     -80.16833667,26.41626167,10.636
     -80.16831833,26.41626000,10.636
     -80.16830000,26.41625833,10.336
     -80.16828167,26.41625500,9.936
     -80.16826333,26.41625333,9.337
     -80.16824500,26.41625500,8.837
     -80.16822667,26.41625667,8.337
     -80.16820333,26.41626167,7.737
     -80.16818000,26.41626833,7.037
     -80.16815833,26.41627500,6.837
     -80.16813667,26.41628167,6.637
     -80.16811833,26.41629000,6.537
     -80.16810000,26.41630000,6.637
     -80.16807667,26.41631333,7.337
     -80.16805667,26.41632500,7.437
     -80.16803500,26.41633667,7.538
     -80.16801333,26.41635000,7.938
     -80.16799333,26.41636167,7.938
     -80.16797333,26.41637667,8.038
     -80.16795667,26.41638667,7.938
     -80.16793833,26.41640000,7.938
     -80.16791500,26.41641167,7.838
     -80.16789000,26.41642167,7.438
     -80.16786167,26.41643833,6.738
     -80.16783500,26.41645167,5.938
     -80.16780500,26.41646667,5.439
     -80.16777667,26.41648500,5.139
     -80.16775000,26.41650333,5.139
     -80.16772833,26.41652000,4.939
     -80.16771000,26.41653667,4.839
     -80.16769500,26.41654500,4.439
     -80.16768167,26.41655833,4.239
     -80.16766000,26.41657833,4.639
     -80.16764333,26.41659500,4.739
     -80.16762333,26.41661000,4.939
     -80.16760500,26.41662333,6.139
     -80.16758500,26.41662833,6.740
     -80.16756167,26.41663000,7.240
     -80.16754333,26.41662333,7.540
     -80.16752667,26.41661167,7.440
     -80.16751333,26.41659500,7.440
     -80.16750000,26.41657833,7.340
     -80.16749167,26.41656167,7.440
     -80.16748000,26.41654333,7.540
     -80.16746833,26.41652333,7.540
     -80.16745000,26.41650000,7.540
     -80.16743667,26.41647667,7.540
     -80.16742500,26.41645000,7.940
     -80.16741000,26.41642333,7.940
     -80.16739333,26.41639833,7.940
     -80.16738000,26.41637500,8.040
     -80.16737000,26.41634833,8.140
     -80.16735833,26.41632833,8.240
     -80.16734333,26.41631333,8.440
     -80.16733167,26.41629667,8.640
     -80.16731833,26.41627667,8.640
     -80.16730000,26.41625833,8.340
     -80.16728833,26.41624167,9.341
     -80.16728667,26.41622667,10.241
     -80.16728667,26.41621333,11.141
     -80.16729000,26.41619667,11.541
     -80.16730500,26.41618000,11.740
     -80.16732667,26.41616500,11.640
     -80.16734667,26.41615167,11.540
     -80.16737167,26.41613500,11.340
     -80.16739833,26.41612000,11.340
     -80.16743000,26.41610333,10.840
     -80.16745833,26.41608667,10.740
     -80.16748833,26.41607000,10.440
     -80.16751500,26.41605167,10.139
     -80.16753833,26.41603667,9.739
     -80.16756167,26.41602000,9.739
     -80.16758500,26.41600333,10.039
     -80.16760667,26.41598833,9.739
     -80.16763000,26.41597167,9.439
     -80.16765667,26.41595167,9.439
     -80.16767833,26.41593500,8.939
     -80.16770167,26.41592167,7.839
     -80.16772500,26.41590500,7.639
     -80.16775000,26.41588500,7.838
     -80.16777667,26.41586833,7.838
     -80.16780167,26.41585167,7.738
     -80.16782667,26.41583500,7.738
     -80.16785333,26.41581833,7.338
     -80.16788167,26.41580333,7.038
     -80.16791000,26.41578833,6.938
     -80.16793833,26.41577333,7.638
     -80.16796667,26.41576000,8.137
     -80.16799500,26.41574500,8.837
     -80.16801667,26.41573000,8.937
     -80.16803833,26.41571667,9.137
     -80.16806333,26.41570333,8.937
     -80.16809500,26.41568333,8.837
     -80.16813333,26.41566333,8.537
     -80.16817333,26.41564167,8.337
     -80.16822000,26.41561333,8.136
     -80.16826500,26.41558333,8.136
     -80.16830667,26.41555500,7.936
     -80.16834833,26.41553000,7.936
     -80.16838667,26.41550833,7.836
     -80.16841833,26.41549000,7.435
     -80.16843500,26.41548000,6.935
     -80.16844000,26.41547833,6.235
     -80.16844167,26.41547833,5.935
     -80.16844167,26.41547667,5.835
     -80.16844167,26.41547667,5.835
     -80.16844167,26.41547667,5.835
     -80.16844167,26.41547667,5.835
     -80.16844167,26.41547667,5.835
     -80.16845833,26.41546000,6.835
     -80.16848167,26.41544500,7.335
     -80.16850500,26.41543000,7.435
     -80.16852667,26.41541500,7.235
     -80.16854667,26.41540333,6.535
     -80.16857167,26.41539000,6.735
     -80.16858833,26.41538500,6.635
     -80.16860333,26.41537833,6.935
     -80.16861500,26.41537500,7.135
     -80.16862000,26.41537000,7.135
     -80.16862167,26.41536667,7.135
     -80.16862000,26.41536833,7.535
     -80.16862167,26.41536667,7.735
     -80.16862500,26.41536833,8.035
     -80.16862833,26.41536667,8.335
     -80.16863000,26.41536667,8.535
     -80.16863167,26.41536667,8.635
     -80.16863333,26.41536500,8.735
     -80.16863333,26.41536333,8.734
     -80.16863000,26.41536333,8.935
     -80.16863000,26.41536333,8.935
     -80.16863000,26.41536333,8.935
     -80.16863000,26.41536333,8.935
     -80.16863000,26.41536333,8.935
     -80.16863000,26.41536333,8.935
     -80.16863000,26.41536333,8.935
     -80.16863000,26.41536333,8.935
     -80.16863000,26.41536333,8.935
     -80.16863000,26.41536333,8.935
     -80.16863000,26.41536333,8.935
     -80.16863000,26.41536333,8.935
     -80.16863000,26.41536333,8.935
     -80.16863500,26.41534833,12.134
     -80.16863667,26.41534667,12.034
     -80.16863500,26.41535000,12.134
     -80.16863333,26.41535167,11.734
     -80.16863167,26.41535500,11.335
     -80.16863167,26.41535667,11.035
     -80.16863167,26.41535500,10.735
     -80.16863167,26.41535500,10.535
     -80.16863167,26.41535500,10.535
     -80.16863167,26.41535500,10.535
     -80.16863167,26.41535500,10.535
     -80.16863167,26.41535500,10.535
     -80.16863167,26.41535500,10.535
     -80.16866167,26.41533333,11.234
     -80.16869500,26.41532500,10.734
     -80.16871500,26.41531000,10.634
     -80.16874333,26.41529167,10.334
     -80.16877500,26.41527333,10.034
     -80.16880333,26.41525667,9.834
     -80.16883167,26.41523667,9.834
     -80.16886167,26.41521833,9.633
     -80.16889167,26.41520000,9.333
     -80.16892000,26.41518000,8.833
     -80.16895333,26.41515833,8.433
     -80.16898333,26.41514167,8.233
     -80.16901333,26.41512333,8.133
     -80.16904000,26.41510500,7.933
     -80.16906667,26.41508833,7.733
     -80.16909333,26.41507000,7.832
     -80.16912000,26.41505333,7.832
     -80.16914333,26.41503667,7.832
     -80.16916500,26.41502333,7.932
     -80.16918333,26.41501333,7.632
     -80.16920500,26.41501167,7.432
     -80.16922000,26.41501500,6.732
     -80.16923000,26.41502500,6.732
     -80.16924833,26.41504000,6.332
     -80.16927333,26.41505667,5.832
     -80.16930000,26.41507500,5.532
     -80.16933167,26.41509667,5.931
     -80.16935667,26.41512000,6.331
     -80.16938000,26.41514500,6.431
     -80.16940667,26.41517333,6.731
     -80.16943500,26.41520167,6.931
     -80.16946667,26.41522833,6.631
     -80.16950333,26.41525333,6.931
     -80.16954167,26.41527333,6.431
     -80.16958500,26.41528833,6.631
     -80.16962667,26.41530167,6.130
     -80.16966333,26.41531167,6.230
     -80.16970000,26.41531667,6.430
     -80.16973167,26.41532167,6.330
     -80.16976833,26.41532000,5.530
     -80.16981000,26.41531000,4.930
     -80.16985000,26.41530000,4.429
     -80.16988500,26.41529000,4.629
     -80.16991833,26.41527833,4.529
     -80.16995833,26.41527000,4.429
     -80.17000167,26.41525833,4.229
     -80.17003667,26.41525000,3.729
     -80.17007667,26.41523833,3.928
     -80.17011667,26.41522833,3.928
     -80.17016167,26.41522000,4.028
     -80.17020667,26.41521167,3.928
     -80.17025167,26.41520333,3.628
     -80.17029333,26.41519500,3.428
     -80.17033500,26.41519000,2.927
     -80.17037167,26.41518167,2.827
     -80.17041333,26.41517333,2.727
     -80.17045500,26.41516500,2.527
     -80.17049500,26.41516000,1.727
     -80.17053333,26.41516000,1.127
     -80.17056667,26.41516167,1.426
     -80.17059833,26.41515833,1.326
     -80.17062333,26.41515333,1.226
     -80.17063833,26.41514667,0.826
     -80.17065333,26.41514500,1.526
     -80.17066667,26.41513833,2.226
     -80.17068167,26.41512833,2.526
     -80.17069667,26.41511167,3.026
     -80.17071167,26.41508667,3.626
     -80.17072167,26.41506000,3.726
     -80.17073000,26.41503833,4.226
     -80.17074000,26.41501167,4.326
     -80.17074167,26.41498167,4.826
     -80.17074333,26.41495000,4.926
     -80.17075333,26.41491500,4.826
     -80.17076167,26.41488167,4.725
     -80.17076833,26.41484833,4.725
     -80.17077000,26.41481500,4.825
     -80.17077500,26.41478167,4.825
     -80.17077167,26.41475000,5.125
     -80.17077167,26.41471167,5.025
     -80.17077167,26.41467333,5.225
     -80.17077500,26.41463500,5.225
     -80.17077667,26.41459667,5.025
     -80.17077667,26.41456167,5.025
     -80.17078000,26.41452333,5.225
     -80.17078167,26.41448667,5.225
     -80.17078167,26.41445000,5.425
     -80.17078167,26.41441833,5.525
     -80.17078000,26.41438833,5.725
     -80.17077833,26.41435833,5.825
     -80.17077167,26.41432667,6.125
     -80.17076500,26.41429500,6.425
     -80.17076167,26.41426167,6.725
     -80.17076000,26.41422500,6.825
     -80.17075833,26.41418833,6.925
     -80.17075833,26.41415167,7.225
     -80.17076000,26.41412000,6.625
     -80.17075500,26.41408667,7.325
     -80.17075667,26.41405667,7.125
     -80.17075167,26.41403000,8.325
     -80.17075000,26.41400500,9.125
     -80.17075667,26.41398333,9.625
     -80.17075333,26.41395667,10.625
     -80.17075667,26.41392167,10.725
     -80.17075833,26.41388500,10.525
     -80.17076333,26.41384667,9.825
     -80.17076333,26.41381167,9.925
     -80.17076333,26.41377667,8.925
     -80.17076167,26.41374167,8.225
     -80.17075167,26.41370667,8.325
     -80.17075167,26.41367167,8.225
     -80.17074500,26.41363667,8.425
     -80.17073833,26.41360167,8.525
     -80.17073333,26.41356833,8.525
     -80.17074000,26.41353500,7.625
     -80.17073000,26.41350000,7.525
     -80.17073500,26.41346333,6.725
     -80.17073333,26.41342500,5.825
     -80.17073500,26.41338000,4.425
     -80.17074333,26.41334000,3.325
     -80.17075167,26.41330333,2.725
     -80.17075833,26.41327167,1.825
     -80.17076833,26.41324000,0.925
     -80.17077333,26.41320667,0.024
     -80.17077833,26.41317167,-0.776
     -80.17078333,26.41313833,-1.176
     -80.17078500,26.41310500,-1.476
     -80.17078667,26.41307167,-1.676
     -80.17078667,26.41303833,-1.576
     -80.17078500,26.41300667,-1.476
     -80.17078000,26.41297167,-1.476
     -80.17077333,26.41293833,-1.676
     -80.17076333,26.41290667,-1.376
     -80.17075833,26.41287500,-1.176
     -80.17075667,26.41284333,-0.976
     -80.17076167,26.41281167,-0.676
     -80.17077000,26.41277667,-1.076
     -80.17076667,26.41274500,-0.576
     -80.17076667,26.41270667,-0.276
     -80.17076500,26.41267167,0.124
     -80.17076000,26.41263833,0.524
     -80.17075833,26.41260667,1.224
     -80.17075667,26.41257667,2.024
     -80.17075667,26.41255167,2.824
     -80.17075167,26.41252167,3.624
     -80.17075000,26.41249000,3.524
     -80.17075333,26.41245500,2.724
     -80.17074833,26.41242000,3.024
     -80.17074000,26.41239000,3.324
     -80.17073500,26.41235833,2.924
     -80.17073333,26.41232500,2.624
     -80.17073000,26.41228833,2.124
     -80.17073000,26.41225833,1.724
     -80.17072667,26.41222833,1.624
     -80.17072000,26.41220167,1.624
     -80.17071833,26.41217333,1.624
     -80.17071833,26.41214167,1.424
     -80.17072000,26.41210500,1.424
     -80.17072000,26.41207667,1.124
     -80.17071833,26.41205000,0.924
     -80.17071833,26.41202167,1.224
     -80.17072667,26.41198667,1.724
     -80.17073000,26.41196000,1.724
     -80.17073333,26.41193000,1.524
     -80.17073500,26.41190333,1.524
     -80.17073333,26.41187500,1.624
     -80.17073333,26.41184000,2.024
     -80.17073000,26.41180500,3.224
     -80.17073333,26.41177333,3.224
     -80.17073167,26.41174333,3.424
     -80.17072500,26.41171333,3.424
     -80.17072000,26.41168000,3.524
     -80.17071833,26.41164667,3.224
     -80.17071000,26.41161500,3.024
     -80.17070000,26.41159500,3.624
     -80.17068000,26.41156167,5.824
     -80.17067667,26.41153000,6.524
     -80.17068000,26.41150000,6.224
     -80.17068000,26.41146500,6.124
     -80.17068500,26.41143000,6.024
     -80.17069500,26.41139500,5.524
     -80.17070500,26.41135667,5.124
     -80.17071833,26.41132333,4.724
     -80.17073000,26.41128833,4.024
     -80.17073167,26.41124833,2.924
     -80.17073167,26.41120500,1.924
     -80.17073500,26.41117167,1.323
     -80.17073500,26.41113833,0.723
     -80.17072333,26.41110167,0.523
     -80.17071333,26.41107000,0.424
     -80.17069833,26.41104000,0.324
     -80.17069167,26.41100167,0.624
     -80.17069167,26.41096000,0.724
     -80.17070333,26.41092500,0.423
     -80.17071667,26.41089167,0.023
     -80.17071500,26.41085833,-0.177
     -80.17071833,26.41082333,-0.377
     -80.17071333,26.41078833,-0.477
     -80.17070167,26.41075667,0.423
     -80.17069167,26.41072167,0.123
     -80.17068333,26.41068833,0.023
     -80.17067833,26.41065167,0.023
     -80.17066833,26.41061333,1.623
     -80.17066500,26.41057667,3.023
     -80.17066500,26.41053500,4.023
     -80.17066667,26.41049333,4.123
     -80.17066833,26.41045333,4.423
     -80.17066500,26.41041333,4.423
     -80.17066000,26.41037333,4.823
     -80.17065833,26.41033333,4.923
     -80.17065667,26.41029333,4.923
     -80.17065667,26.41025333,4.823
     -80.17066000,26.41021333,4.823
     -80.17066667,26.41017500,4.523
     -80.17067500,26.41013667,4.623
     -80.17068500,26.41010000,4.223
     -80.17068833,26.41006167,4.423
     -80.17069500,26.41002333,3.823
     -80.17070000,26.40998333,3.123
     -80.17070500,26.40994333,2.523
     -80.17070667,26.40990667,1.723
     -80.17070667,26.40986833,0.923
     -80.17070500,26.40983333,0.223
     -80.17070333,26.40979833,-0.377
     -80.17070333,26.40976333,-0.877
     -80.17070500,26.40972833,-1.677
     -80.17070333,26.40969500,-2.777
     -80.17069167,26.40966167,-3.077
     -80.17068667,26.40962333,-3.777
     -80.17066333,26.40960500,-4.177
     -80.17063000,26.40959667,-4.577
     -80.17058833,26.40959333,-4.677
     -80.17055000,26.40959500,-5.077
     -80.17050167,26.40959500,-5.276
     -80.17045500,26.40960167,-6.176
     -80.17041167,26.40960667,-7.076
     -80.17036333,26.40961333,-6.476
     -80.17031667,26.40961667,-5.976
     -80.17027333,26.40961000,-5.475
     -80.17023167,26.40960500,-4.975
     -80.17019167,26.40960167,-5.075
     -80.17014667,26.40959833,-4.475
     -80.17009667,26.40959667,-4.075
     -80.17005167,26.40960167,-4.075
     -80.17000667,26.40960167,-4.274
     -80.16995833,26.40960333,-3.974
     -80.16990833,26.40960500,-3.674
     -80.16986333,26.40960833,-3.474
     -80.16981333,26.40961000,-2.774
     -80.16976500,26.40960333,-1.573
     -80.16971833,26.40959500,-0.473
     -80.16967167,26.40959333,0.527
     -80.16962833,26.40959333,0.827
     -80.16958167,26.40959833,1.627
     -80.16954000,26.40960333,2.228
     -80.16949500,26.40961167,2.828
     -80.16945667,26.40962000,3.828
     -80.16942000,26.40963333,4.528
     -80.16938667,26.40963667,5.028
     -80.16935667,26.40963833,5.028
     -80.16932833,26.40963667,5.128
     -80.16930000,26.40963833,5.429
     -80.16926833,26.40963667,6.429
     -80.16923000,26.40963167,6.929
     -80.16918833,26.40963667,7.029
     -80.16914667,26.40963500,7.129
     -80.16910500,26.40963500,6.929
     -80.16906500,26.40964000,6.930
     -80.16902500,26.40965000,6.930
     -80.16898833,26.40965500,6.830
     -80.16895000,26.40966000,7.230
     -80.16891167,26.40966333,7.030
     -80.16886500,26.40967333,6.930
     -80.16882167,26.40967833,6.931
     -80.16877833,26.40968167,6.231
     -80.16873500,26.40968000,5.631
     -80.16869000,26.40967667,5.231
     -80.16864833,26.40967000,4.431
     -80.16860667,26.40966833,3.931
     -80.16856667,26.40966500,3.832
     -80.16852833,26.40966000,3.432
     -80.16848833,26.40965167,2.932
     -80.16844667,26.40964333,3.132
     -80.16841000,26.40963667,3.232
     -80.16837500,26.40963167,3.232
     -80.16834000,26.40962167,3.232
     -80.16830333,26.40961500,3.533
     -80.16826333,26.40960833,4.033
     -80.16822167,26.40960000,4.533
     -80.16818000,26.40959500,4.533
     -80.16813500,26.40958667,4.933
     -80.16808333,26.40958000,5.134
     -80.16803500,26.40958667,4.634
     -80.16799167,26.40959000,5.434
     -80.16794333,26.40959500,5.534
     -80.16790500,26.40960333,5.634
     -80.16787333,26.40962167,5.734
     -80.16784500,26.40964000,6.435
     -80.16782167,26.40965667,6.835
     -80.16779333,26.40966833,7.135
     -80.16776500,26.40968833,7.135
     -80.16773333,26.40970833,6.835
     -80.16769667,26.40971167,6.735
     -80.16765667,26.40971667,6.635
     -80.16761667,26.40972000,6.536
     -80.16757833,26.40971500,5.936
     -80.16753500,26.40972167,5.736
     -80.16750000,26.40972333,5.236
     -80.16746667,26.40972167,5.236
     -80.16742833,26.40971333,5.136
     -80.16739333,26.40970500,5.236
     -80.16736167,26.40969000,5.137
     -80.16733000,26.40967500,5.137
     -80.16729833,26.40966000,5.037
     -80.16727167,26.40964833,4.637
     -80.16725000,26.40964000,4.437
     -80.16721667,26.40962667,4.337
     -80.16717667,26.40961833,3.637
     -80.16713833,26.40962167,4.137
     -80.16709167,26.40962333,5.338
     -80.16705167,26.40962667,6.238
     -80.16701167,26.40963167,6.838
     -80.16698333,26.40963167,7.138
     -80.16695167,26.40963500,7.038
     -80.16692000,26.40964167,6.838
     -80.16689167,26.40964833,7.238
     -80.16686000,26.40966833,8.239
     -80.16683833,26.40969167,8.839
     -80.16681333,26.40971500,9.339
     -80.16679333,26.40973667,9.239
     -80.16677500,26.40975833,9.639
     -80.16676000,26.40978000,9.939
     -80.16674333,26.40979333,10.039
     -80.16672500,26.40981333,9.839
     -80.16670500,26.40983000,9.639
     -80.16670167,26.40985000,8.839
     -80.16670167,26.40985833,8.239
     -80.16669833,26.40987167,8.139
     -80.16669833,26.40988167,7.639
     -80.16669500,26.40988500,7.939
     -80.16668833,26.40989333,8.439
     -80.16668167,26.40988667,8.739
     -80.16668167,26.40989000,9.139
     -80.16668000,26.40989000,9.439
     -80.16668000,26.40988833,9.639
     -80.16668000,26.40989000,10.039
     -80.16668167,26.40989333,10.639
     -80.16668000,26.40989500,11.039
     -80.16668000,26.40989833,11.539
     -80.16668167,26.40990167,12.039
     -80.16668167,26.40990167,12.039
     -80.16668167,26.40990167,12.039
     -80.16668167,26.40990167,12.039
     -80.16668167,26.40990167,12.039
     -80.16668167,26.40990167,12.039
     -80.16668167,26.40990167,12.039
     -80.16668167,26.40990167,12.039
    </coordinates>
   </LineString>
  </Placemark>

 </Document>
</kml>
 