<?xml version="1.0" encoding="UTF-8"?>
<!-- Created with BasicAirData GPS Logger for Android - ver. 3.3.0 -->
<!-- Track 16 = 353 TrackPoints + 2 Placemarks -->

<!-- Track Statistics (based on Total Time | Time in Movement): -->
<!--  Distance = 822 m -->
<!--  Duration = 05:52 | 04:37 -->
<!--  Altitude Gap = -8 m -->
<!--  Max Speed = 10 mph -->
<!--  Avg Speed = 5.2 | 6.6 mph -->
<!--  Direction = W -->
<!--  Activity = running -->
<!--  Altitudes = Corrected using EGM96 grid (bilinear interpolation) -->

<gpx version="1.0"
     creator="BasicAirData GPS Logger 3.3.0"
     xmlns="http://www.topografix.com/GPX/1/0"
     xmlns:xsi="http://www.w3.org/2001/XMLSchema-instance"
     xsi:schemaLocation="http://www.topografix.com/GPX/1/0 http://www.topografix.com/GPX/1/0/gpx.xsd">
<name>GPS Logger 20260724-123713</name>
<desc>Maintenance-ST3</desc>
<time>2026-07-25T02:04:45Z</time>
<keywords>running</keywords>
<bounds minlat="26.41479000" minlon="-80.17016167" maxlat="26.41661667" maxlon="-80.16454667" />

<wpt lat="26.41609333" lon="-80.16454667"><ele>13.452</ele><time>2026-07-24T16:37:15Z</time><name>Maintenance</name><sat>12</sat></wpt>

<wpt lat="26.41656000" lon="-80.17015167"><ele>5.829</ele><time>2026-07-24T16:42:59Z</time><name>Station3</name><sat>13</sat></wpt>

<trk>
 <name>Track 20260724-123713</name>
 <trkseg>
  <trkpt lat="26.41609333" lon="-80.16454667"><ele>13.452</ele><time>2026-07-24T16:37:13Z</time><speed>0.000</speed><sat>11</sat></trkpt>
  <trkpt lat="26.41609333" lon="-80.16454667"><ele>13.452</ele><time>2026-07-24T16:37:14Z</time><speed>0.000</speed><sat>11</sat></trkpt>
  <trkpt lat="26.41609333" lon="-80.16454667"><ele>13.452</ele><time>2026-07-24T16:37:15Z</time><speed>0.000</speed><sat>12</sat></trkpt>
  <trkpt lat="26.41609333" lon="-80.16454667"><ele>13.452</ele><time>2026-07-24T16:37:16Z</time><speed>0.000</speed><sat>12</sat></trkpt>
  <trkpt lat="26.41609333" lon="-80.16454667"><ele>13.452</ele><time>2026-07-24T16:37:17Z</time><speed>0.000</speed><sat>12</sat></trkpt>
  <trkpt lat="26.41609333" lon="-80.16454667"><ele>13.452</ele><time>2026-07-24T16:37:18Z</time><speed>0.000</speed><sat>12</sat></trkpt>
  <trkpt lat="26.41609333" lon="-80.16454667"><ele>13.452</ele><time>2026-07-24T16:37:19Z</time><speed>0.000</speed><sat>12</sat></trkpt>
  <trkpt lat="26.41609333" lon="-80.16454667"><ele>13.452</ele><time>2026-07-24T16:37:20Z</time><speed>0.000</speed><sat>11</sat></trkpt>
  <trkpt lat="26.41609333" lon="-80.16454667"><ele>13.452</ele><time>2026-07-24T16:37:21Z</time><speed>0.000</speed><sat>11</sat></trkpt>
  <trkpt lat="26.41609333" lon="-80.16454667"><ele>13.452</ele><time>2026-07-24T16:37:22Z</time><speed>0.000</speed><sat>11</sat></trkpt>
  <trkpt lat="26.41609333" lon="-80.16454667"><ele>13.452</ele><time>2026-07-24T16:37:23Z</time><speed>0.000</speed><sat>11</sat></trkpt>
  <trkpt lat="26.41609333" lon="-80.16454667"><ele>13.452</ele><time>2026-07-24T16:37:24Z</time><speed>0.000</speed><sat>11</sat></trkpt>
  <trkpt lat="26.41609333" lon="-80.16454667"><ele>13.452</ele><time>2026-07-24T16:37:25Z</time><speed>0.000</speed><sat>12</sat></trkpt>
  <trkpt lat="26.41609333" lon="-80.16454667"><ele>13.452</ele><time>2026-07-24T16:37:26Z</time><speed>0.000</speed><sat>12</sat></trkpt>
  <trkpt lat="26.41609333" lon="-80.16454667"><ele>13.452</ele><time>2026-07-24T16:37:27Z</time><speed>0.000</speed><sat>12</sat></trkpt>
  <trkpt lat="26.41609333" lon="-80.16454667"><ele>13.452</ele><time>2026-07-24T16:37:28Z</time><speed>0.000</speed><sat>12</sat></trkpt>
  <trkpt lat="26.41609333" lon="-80.16454667"><ele>13.452</ele><time>2026-07-24T16:37:29Z</time><speed>0.000</speed><sat>12</sat></trkpt>
  <trkpt lat="26.41609333" lon="-80.16454667"><ele>13.452</ele><time>2026-07-24T16:37:30Z</time><speed>0.000</speed><sat>12</sat></trkpt>
  <trkpt lat="26.41609333" lon="-80.16454667"><ele>13.452</ele><time>2026-07-24T16:37:31Z</time><speed>0.000</speed><sat>11</sat></trkpt>
  <trkpt lat="26.41609333" lon="-80.16454667"><ele>13.452</ele><time>2026-07-24T16:37:32Z</time><speed>0.000</speed><sat>11</sat></trkpt>
  <trkpt lat="26.41609333" lon="-80.16454667"><ele>13.452</ele><time>2026-07-24T16:37:33Z</time><speed>0.000</speed><sat>11</sat></trkpt>
  <trkpt lat="26.41609333" lon="-80.16454667"><ele>13.452</ele><time>2026-07-24T16:37:34Z</time><speed>0.000</speed><sat>11</sat></trkpt>
  <trkpt lat="26.41604500" lon="-80.16456500"><ele>8.352</ele><time>2026-07-24T16:37:35Z</time><speed>0.206</speed><sat>11</sat></trkpt>
  <trkpt lat="26.41604333" lon="-80.16456000"><ele>8.452</ele><time>2026-07-24T16:37:36Z</time><speed>0.000</speed><sat>11</sat></trkpt>
  <trkpt lat="26.41604667" lon="-80.16455833"><ele>8.552</ele><time>2026-07-24T16:37:37Z</time><speed>0.000</speed><sat>11</sat></trkpt>
  <trkpt lat="26.41605000" lon="-80.16455333"><ele>8.252</ele><time>2026-07-24T16:37:38Z</time><speed>0.000</speed><sat>11</sat></trkpt>
  <trkpt lat="26.41605000" lon="-80.16455333"><ele>8.252</ele><time>2026-07-24T16:37:39Z</time><speed>0.000</speed><sat>11</sat></trkpt>
  <trkpt lat="26.41605000" lon="-80.16455333"><ele>8.252</ele><time>2026-07-24T16:37:40Z</time><speed>0.000</speed><sat>11</sat></trkpt>
  <trkpt lat="26.41605000" lon="-80.16455333"><ele>8.252</ele><time>2026-07-24T16:37:41Z</time><speed>0.000</speed><sat>11</sat></trkpt>
  <trkpt lat="26.41605000" lon="-80.16455333"><ele>8.252</ele><time>2026-07-24T16:37:42Z</time><speed>0.000</speed><sat>11</sat></trkpt>
  <trkpt lat="26.41605000" lon="-80.16455333"><ele>8.252</ele><time>2026-07-24T16:37:43Z</time><speed>0.000</speed><sat>11</sat></trkpt>
  <trkpt lat="26.41605000" lon="-80.16455333"><ele>8.252</ele><time>2026-07-24T16:37:44Z</time><speed>0.000</speed><sat>11</sat></trkpt>
  <trkpt lat="26.41605000" lon="-80.16455333"><ele>8.252</ele><time>2026-07-24T16:37:45Z</time><speed>0.000</speed><sat>12</sat></trkpt>
  <trkpt lat="26.41605000" lon="-80.16455333"><ele>8.252</ele><time>2026-07-24T16:37:46Z</time><speed>0.000</speed><sat>12</sat></trkpt>
  <trkpt lat="26.41607333" lon="-80.16458000"><ele>6.552</ele><time>2026-07-24T16:37:47Z</time><speed>0.211</speed><sat>12</sat></trkpt>
  <trkpt lat="26.41606833" lon="-80.16457833"><ele>6.452</ele><time>2026-07-24T16:37:48Z</time><speed>0.247</speed><sat>12</sat></trkpt>
  <trkpt lat="26.41606500" lon="-80.16458333"><ele>6.352</ele><time>2026-07-24T16:37:49Z</time><speed>0.000</speed><sat>12</sat></trkpt>
  <trkpt lat="26.41606333" lon="-80.16458833"><ele>6.452</ele><time>2026-07-24T16:37:50Z</time><speed>0.000</speed><sat>12</sat></trkpt>
  <trkpt lat="26.41606167" lon="-80.16459000"><ele>6.652</ele><time>2026-07-24T16:37:51Z</time><speed>0.000</speed><sat>12</sat></trkpt>
  <trkpt lat="26.41606167" lon="-80.16459000"><ele>6.652</ele><time>2026-07-24T16:37:52Z</time><speed>0.000</speed><sat>12</sat></trkpt>
  <trkpt lat="26.41606167" lon="-80.16459000"><ele>6.652</ele><time>2026-07-24T16:37:53Z</time><speed>0.000</speed><sat>11</sat></trkpt>
  <trkpt lat="26.41606167" lon="-80.16459000"><ele>6.652</ele><time>2026-07-24T16:37:54Z</time><speed>0.000</speed><sat>12</sat></trkpt>
  <trkpt lat="26.41606167" lon="-80.16459000"><ele>6.652</ele><time>2026-07-24T16:37:55Z</time><speed>0.000</speed><sat>12</sat></trkpt>
  <trkpt lat="26.41606167" lon="-80.16459000"><ele>6.652</ele><time>2026-07-24T16:37:56Z</time><speed>0.000</speed><sat>13</sat></trkpt>
  <trkpt lat="26.41606167" lon="-80.16459000"><ele>6.652</ele><time>2026-07-24T16:37:57Z</time><speed>0.000</speed><sat>13</sat></trkpt>
  <trkpt lat="26.41606167" lon="-80.16459000"><ele>6.652</ele><time>2026-07-24T16:37:58Z</time><speed>0.000</speed><sat>13</sat></trkpt>
  <trkpt lat="26.41606167" lon="-80.16459000"><ele>6.652</ele><time>2026-07-24T16:37:59Z</time><speed>0.000</speed><sat>13</sat></trkpt>
  <trkpt lat="26.41604167" lon="-80.16458167"><ele>7.552</ele><time>2026-07-24T16:38:00Z</time><speed>0.284</speed><sat>13</sat></trkpt>
  <trkpt lat="26.41603667" lon="-80.16458667"><ele>7.752</ele><time>2026-07-24T16:38:01Z</time><speed>0.354</speed><sat>13</sat></trkpt>
  <trkpt lat="26.41603500" lon="-80.16459167"><ele>7.752</ele><time>2026-07-24T16:38:02Z</time><speed>0.000</speed><sat>13</sat></trkpt>
  <trkpt lat="26.41603667" lon="-80.16459833"><ele>7.952</ele><time>2026-07-24T16:38:03Z</time><speed>0.000</speed><sat>13</sat></trkpt>
  <trkpt lat="26.41603167" lon="-80.16460000"><ele>7.951</ele><time>2026-07-24T16:38:04Z</time><speed>0.000</speed><sat>13</sat></trkpt>
  <trkpt lat="26.41603000" lon="-80.16460667"><ele>8.351</ele><time>2026-07-24T16:38:05Z</time><speed>0.454</speed><sat>12</sat></trkpt>
  <trkpt lat="26.41602667" lon="-80.16460833"><ele>9.051</ele><time>2026-07-24T16:38:06Z</time><speed>0.484</speed><sat>12</sat></trkpt>
  <trkpt lat="26.41602667" lon="-80.16461000"><ele>9.651</ele><time>2026-07-24T16:38:07Z</time><speed>0.512</speed><sat>12</sat></trkpt>
  <trkpt lat="26.41602333" lon="-80.16461167"><ele>9.951</ele><time>2026-07-24T16:38:08Z</time><speed>0.561</speed><sat>12</sat></trkpt>
  <trkpt lat="26.41602167" lon="-80.16461500"><ele>10.351</ele><time>2026-07-24T16:38:09Z</time><speed>0.594</speed><sat>12</sat></trkpt>
  <trkpt lat="26.41601833" lon="-80.16462333"><ele>10.851</ele><time>2026-07-24T16:38:10Z</time><speed>0.613</speed><sat>13</sat></trkpt>
  <trkpt lat="26.41601500" lon="-80.16463167"><ele>10.851</ele><time>2026-07-24T16:38:11Z</time><speed>0.569</speed><sat>13</sat></trkpt>
  <trkpt lat="26.41601667" lon="-80.16464500"><ele>10.751</ele><time>2026-07-24T16:38:12Z</time><speed>0.567</speed><sat>13</sat></trkpt>
  <trkpt lat="26.41601833" lon="-80.16464833"><ele>10.551</ele><time>2026-07-24T16:38:13Z</time><speed>0.550</speed><sat>13</sat></trkpt>
  <trkpt lat="26.41601667" lon="-80.16465333"><ele>10.151</ele><time>2026-07-24T16:38:14Z</time><speed>0.543</speed><sat>13</sat></trkpt>
  <trkpt lat="26.41601333" lon="-80.16466000"><ele>9.851</ele><time>2026-07-24T16:38:15Z</time><speed>0.555</speed><sat>13</sat></trkpt>
  <trkpt lat="26.41600333" lon="-80.16467000"><ele>9.751</ele><time>2026-07-24T16:38:16Z</time><speed>0.581</speed><sat>13</sat></trkpt>
  <trkpt lat="26.41599000" lon="-80.16468667"><ele>9.951</ele><time>2026-07-24T16:38:17Z</time><speed>0.639</speed><sat>13</sat></trkpt>
  <trkpt lat="26.41597667" lon="-80.16470333"><ele>10.351</ele><time>2026-07-24T16:38:18Z</time><speed>0.647</speed><sat>13</sat></trkpt>
  <trkpt lat="26.41596500" lon="-80.16470500"><ele>10.851</ele><time>2026-07-24T16:38:19Z</time><speed>0.688</speed><sat>13</sat></trkpt>
  <trkpt lat="26.41595500" lon="-80.16470500"><ele>11.351</ele><time>2026-07-24T16:38:20Z</time><speed>0.695</speed><sat>13</sat></trkpt>
  <trkpt lat="26.41595333" lon="-80.16470000"><ele>11.251</ele><time>2026-07-24T16:38:21Z</time><speed>0.718</speed><sat>13</sat></trkpt>
  <trkpt lat="26.41595000" lon="-80.16470000"><ele>11.151</ele><time>2026-07-24T16:38:22Z</time><speed>0.748</speed><sat>13</sat></trkpt>
  <trkpt lat="26.41595000" lon="-80.16470500"><ele>10.951</ele><time>2026-07-24T16:38:23Z</time><speed>0.766</speed><sat>13</sat></trkpt>
  <trkpt lat="26.41595667" lon="-80.16471833"><ele>10.551</ele><time>2026-07-24T16:38:24Z</time><speed>0.811</speed><sat>13</sat></trkpt>
  <trkpt lat="26.41596833" lon="-80.16473500"><ele>10.451</ele><time>2026-07-24T16:38:25Z</time><speed>0.878</speed><sat>13</sat></trkpt>
  <trkpt lat="26.41596833" lon="-80.16475000"><ele>10.451</ele><time>2026-07-24T16:38:26Z</time><speed>0.902</speed><sat>13</sat></trkpt>
  <trkpt lat="26.41596500" lon="-80.16476333"><ele>10.251</ele><time>2026-07-24T16:38:27Z</time><speed>0.923</speed><sat>13</sat></trkpt>
  <trkpt lat="26.41596167" lon="-80.16477833"><ele>10.251</ele><time>2026-07-24T16:38:28Z</time><speed>0.957</speed><sat>13</sat></trkpt>
  <trkpt lat="26.41596333" lon="-80.16479167"><ele>10.051</ele><time>2026-07-24T16:38:29Z</time><speed>0.000</speed><sat>13</sat></trkpt>
  <trkpt lat="26.41595833" lon="-80.16480833"><ele>9.451</ele><time>2026-07-24T16:38:30Z</time><speed>1.058</speed><sat>13</sat></trkpt>
  <trkpt lat="26.41594667" lon="-80.16482667"><ele>9.451</ele><time>2026-07-24T16:38:31Z</time><speed>1.157</speed><sat>13</sat></trkpt>
  <trkpt lat="26.41593667" lon="-80.16484500"><ele>9.950</ele><time>2026-07-24T16:38:32Z</time><speed>1.282</speed><sat>13</sat></trkpt>
  <trkpt lat="26.41591000" lon="-80.16486167"><ele>9.450</ele><time>2026-07-24T16:38:33Z</time><speed>1.498</speed><sat>13</sat></trkpt>
  <trkpt lat="26.41588667" lon="-80.16487500"><ele>9.150</ele><time>2026-07-24T16:38:34Z</time><speed>1.636</speed><sat>13</sat></trkpt>
  <trkpt lat="26.41586667" lon="-80.16488500"><ele>9.050</ele><time>2026-07-24T16:38:35Z</time><speed>1.726</speed><sat>13</sat></trkpt>
  <trkpt lat="26.41584833" lon="-80.16489667"><ele>9.250</ele><time>2026-07-24T16:38:36Z</time><speed>1.816</speed><sat>13</sat></trkpt>
  <trkpt lat="26.41581833" lon="-80.16491000"><ele>8.850</ele><time>2026-07-24T16:38:37Z</time><speed>1.990</speed><sat>13</sat></trkpt>
  <trkpt lat="26.41578667" lon="-80.16492167"><ele>8.350</ele><time>2026-07-24T16:38:38Z</time><speed>2.225</speed><sat>13</sat></trkpt>
  <trkpt lat="26.41575000" lon="-80.16492833"><ele>8.350</ele><time>2026-07-24T16:38:39Z</time><speed>2.404</speed><sat>13</sat></trkpt>
  <trkpt lat="26.41571833" lon="-80.16493000"><ele>8.350</ele><time>2026-07-24T16:38:40Z</time><speed>2.593</speed><sat>13</sat></trkpt>
  <trkpt lat="26.41569000" lon="-80.16492667"><ele>8.350</ele><time>2026-07-24T16:38:41Z</time><speed>2.772</speed><sat>13</sat></trkpt>
  <trkpt lat="26.41565667" lon="-80.16492667"><ele>7.650</ele><time>2026-07-24T16:38:42Z</time><speed>2.913</speed><sat>13</sat></trkpt>
  <trkpt lat="26.41562500" lon="-80.16492167"><ele>7.650</ele><time>2026-07-24T16:38:43Z</time><speed>2.997</speed><sat>13</sat></trkpt>
  <trkpt lat="26.41559500" lon="-80.16492167"><ele>7.750</ele><time>2026-07-24T16:38:44Z</time><speed>3.099</speed><sat>13</sat></trkpt>
  <trkpt lat="26.41556333" lon="-80.16491500"><ele>7.950</ele><time>2026-07-24T16:38:45Z</time><speed>3.213</speed><sat>13</sat></trkpt>
  <trkpt lat="26.41553333" lon="-80.16490833"><ele>8.050</ele><time>2026-07-24T16:38:46Z</time><speed>3.324</speed><sat>13</sat></trkpt>
  <trkpt lat="26.41550333" lon="-80.16489333"><ele>8.250</ele><time>2026-07-24T16:38:47Z</time><speed>3.367</speed><sat>13</sat></trkpt>
  <trkpt lat="26.41547667" lon="-80.16488000"><ele>8.550</ele><time>2026-07-24T16:38:48Z</time><speed>3.349</speed><sat>13</sat></trkpt>
  <trkpt lat="26.41544667" lon="-80.16486500"><ele>8.750</ele><time>2026-07-24T16:38:49Z</time><speed>3.337</speed><sat>13</sat></trkpt>
  <trkpt lat="26.41542000" lon="-80.16485000"><ele>8.850</ele><time>2026-07-24T16:38:50Z</time><speed>3.279</speed><sat>13</sat></trkpt>
  <trkpt lat="26.41539333" lon="-80.16483833"><ele>9.150</ele><time>2026-07-24T16:38:51Z</time><speed>3.258</speed><sat>13</sat></trkpt>
  <trkpt lat="26.41535833" lon="-80.16482333"><ele>9.850</ele><time>2026-07-24T16:38:52Z</time><speed>3.262</speed><sat>13</sat></trkpt>
  <trkpt lat="26.41533333" lon="-80.16480500"><ele>9.850</ele><time>2026-07-24T16:38:53Z</time><speed>3.262</speed><sat>13</sat></trkpt>
  <trkpt lat="26.41530667" lon="-80.16478833"><ele>9.750</ele><time>2026-07-24T16:38:54Z</time><speed>3.264</speed><sat>13</sat></trkpt>
  <trkpt lat="26.41528167" lon="-80.16477500"><ele>9.750</ele><time>2026-07-24T16:38:55Z</time><speed>3.210</speed><sat>13</sat></trkpt>
  <trkpt lat="26.41525833" lon="-80.16476500"><ele>9.650</ele><time>2026-07-24T16:38:56Z</time><speed>3.151</speed><sat>13</sat></trkpt>
  <trkpt lat="26.41522833" lon="-80.16475500"><ele>8.850</ele><time>2026-07-24T16:38:57Z</time><speed>3.045</speed><sat>13</sat></trkpt>
  <trkpt lat="26.41520833" lon="-80.16476500"><ele>7.750</ele><time>2026-07-24T16:38:58Z</time><speed>2.926</speed><sat>13</sat></trkpt>
  <trkpt lat="26.41518833" lon="-80.16477667"><ele>7.250</ele><time>2026-07-24T16:38:59Z</time><speed>2.855</speed><sat>13</sat></trkpt>
  <trkpt lat="26.41516833" lon="-80.16479333"><ele>6.350</ele><time>2026-07-24T16:39:00Z</time><speed>2.842</speed><sat>13</sat></trkpt>
  <trkpt lat="26.41514500" lon="-80.16481167"><ele>6.050</ele><time>2026-07-24T16:39:01Z</time><speed>2.854</speed><sat>13</sat></trkpt>
  <trkpt lat="26.41512000" lon="-80.16483000"><ele>5.550</ele><time>2026-07-24T16:39:02Z</time><speed>2.858</speed><sat>13</sat></trkpt>
  <trkpt lat="26.41509167" lon="-80.16484667"><ele>5.550</ele><time>2026-07-24T16:39:03Z</time><speed>2.891</speed><sat>13</sat></trkpt>
  <trkpt lat="26.41506333" lon="-80.16486333"><ele>6.150</ele><time>2026-07-24T16:39:04Z</time><speed>2.903</speed><sat>13</sat></trkpt>
  <trkpt lat="26.41505000" lon="-80.16486667"><ele>6.850</ele><time>2026-07-24T16:39:05Z</time><speed>2.782</speed><sat>13</sat></trkpt>
  <trkpt lat="26.41503167" lon="-80.16486000"><ele>6.950</ele><time>2026-07-24T16:39:06Z</time><speed>2.726</speed><sat>13</sat></trkpt>
  <trkpt lat="26.41500833" lon="-80.16485167"><ele>8.050</ele><time>2026-07-24T16:39:07Z</time><speed>2.750</speed><sat>13</sat></trkpt>
  <trkpt lat="26.41497833" lon="-80.16485000"><ele>9.250</ele><time>2026-07-24T16:39:08Z</time><speed>2.803</speed><sat>13</sat></trkpt>
  <trkpt lat="26.41495667" lon="-80.16485000"><ele>9.450</ele><time>2026-07-24T16:39:09Z</time><speed>2.763</speed><sat>12</sat></trkpt>
  <trkpt lat="26.41495000" lon="-80.16484167"><ele>11.350</ele><time>2026-07-24T16:39:10Z</time><speed>0.000</speed><sat>10</sat></trkpt>
  <trkpt lat="26.41495000" lon="-80.16484000"><ele>14.950</ele><time>2026-07-24T16:39:11Z</time><speed>0.000</speed><sat>10</sat></trkpt>
  <trkpt lat="26.41492833" lon="-80.16484167"><ele>14.850</ele><time>2026-07-24T16:39:12Z</time><speed>2.100</speed><sat>11</sat></trkpt>
  <trkpt lat="26.41491333" lon="-80.16487667"><ele>15.250</ele><time>2026-07-24T16:39:13Z</time><speed>1.893</speed><sat>13</sat></trkpt>
  <trkpt lat="26.41488333" lon="-80.16491333"><ele>14.750</ele><time>2026-07-24T16:39:14Z</time><speed>1.817</speed><sat>13</sat></trkpt>
  <trkpt lat="26.41485500" lon="-80.16493500"><ele>15.349</ele><time>2026-07-24T16:39:15Z</time><speed>1.916</speed><sat>13</sat></trkpt>
  <trkpt lat="26.41482833" lon="-80.16495833"><ele>15.449</ele><time>2026-07-24T16:39:16Z</time><speed>2.059</speed><sat>13</sat></trkpt>
  <trkpt lat="26.41480500" lon="-80.16500667"><ele>15.449</ele><time>2026-07-24T16:39:17Z</time><speed>2.205</speed><sat>13</sat></trkpt>
  <trkpt lat="26.41479000" lon="-80.16504667"><ele>15.549</ele><time>2026-07-24T16:39:18Z</time><speed>2.306</speed><sat>13</sat></trkpt>
  <trkpt lat="26.41479833" lon="-80.16507833"><ele>15.749</ele><time>2026-07-24T16:39:19Z</time><speed>2.361</speed><sat>13</sat></trkpt>
  <trkpt lat="26.41481167" lon="-80.16511167"><ele>15.149</ele><time>2026-07-24T16:39:20Z</time><speed>2.479</speed><sat>13</sat></trkpt>
  <trkpt lat="26.41481667" lon="-80.16514667"><ele>14.149</ele><time>2026-07-24T16:39:21Z</time><speed>2.610</speed><sat>13</sat></trkpt>
  <trkpt lat="26.41482833" lon="-80.16516833"><ele>13.148</ele><time>2026-07-24T16:39:22Z</time><speed>2.691</speed><sat>13</sat></trkpt>
  <trkpt lat="26.41484000" lon="-80.16518000"><ele>12.048</ele><time>2026-07-24T16:39:23Z</time><speed>2.706</speed><sat>13</sat></trkpt>
  <trkpt lat="26.41485667" lon="-80.16519000"><ele>10.548</ele><time>2026-07-24T16:39:24Z</time><speed>2.668</speed><sat>13</sat></trkpt>
  <trkpt lat="26.41488333" lon="-80.16519167"><ele>10.048</ele><time>2026-07-24T16:39:25Z</time><speed>2.688</speed><sat>13</sat></trkpt>
  <trkpt lat="26.41491667" lon="-80.16519000"><ele>9.948</ele><time>2026-07-24T16:39:26Z</time><speed>2.651</speed><sat>13</sat></trkpt>
  <trkpt lat="26.41494833" lon="-80.16519333"><ele>10.348</ele><time>2026-07-24T16:39:27Z</time><speed>2.544</speed><sat>13</sat></trkpt>
  <trkpt lat="26.41497333" lon="-80.16520833"><ele>10.248</ele><time>2026-07-24T16:39:28Z</time><speed>2.494</speed><sat>13</sat></trkpt>
  <trkpt lat="26.41500167" lon="-80.16522833"><ele>10.448</ele><time>2026-07-24T16:39:29Z</time><speed>2.568</speed><sat>13</sat></trkpt>
  <trkpt lat="26.41502000" lon="-80.16525500"><ele>10.248</ele><time>2026-07-24T16:39:30Z</time><speed>2.669</speed><sat>13</sat></trkpt>
  <trkpt lat="26.41503500" lon="-80.16529000"><ele>9.648</ele><time>2026-07-24T16:39:31Z</time><speed>2.872</speed><sat>13</sat></trkpt>
  <trkpt lat="26.41505000" lon="-80.16532500"><ele>9.648</ele><time>2026-07-24T16:39:32Z</time><speed>3.045</speed><sat>13</sat></trkpt>
  <trkpt lat="26.41506667" lon="-80.16536000"><ele>9.048</ele><time>2026-07-24T16:39:33Z</time><speed>3.291</speed><sat>13</sat></trkpt>
  <trkpt lat="26.41508500" lon="-80.16539500"><ele>8.548</ele><time>2026-07-24T16:39:34Z</time><speed>3.505</speed><sat>13</sat></trkpt>
  <trkpt lat="26.41510000" lon="-80.16541333"><ele>8.148</ele><time>2026-07-24T16:39:35Z</time><speed>3.419</speed><sat>13</sat></trkpt>
  <trkpt lat="26.41510833" lon="-80.16542667"><ele>7.848</ele><time>2026-07-24T16:39:36Z</time><speed>3.348</speed><sat>13</sat></trkpt>
  <trkpt lat="26.41512167" lon="-80.16545500"><ele>7.447</ele><time>2026-07-24T16:39:37Z</time><speed>3.312</speed><sat>13</sat></trkpt>
  <trkpt lat="26.41513000" lon="-80.16547833"><ele>7.447</ele><time>2026-07-24T16:39:38Z</time><speed>3.207</speed><sat>13</sat></trkpt>
  <trkpt lat="26.41513667" lon="-80.16550333"><ele>7.347</ele><time>2026-07-24T16:39:39Z</time><speed>3.139</speed><sat>13</sat></trkpt>
  <trkpt lat="26.41514667" lon="-80.16553333"><ele>7.547</ele><time>2026-07-24T16:39:40Z</time><speed>3.101</speed><sat>13</sat></trkpt>
  <trkpt lat="26.41516000" lon="-80.16556167"><ele>7.747</ele><time>2026-07-24T16:39:41Z</time><speed>3.045</speed><sat>13</sat></trkpt>
  <trkpt lat="26.41517500" lon="-80.16559000"><ele>7.747</ele><time>2026-07-24T16:39:42Z</time><speed>3.030</speed><sat>13</sat></trkpt>
  <trkpt lat="26.41518833" lon="-80.16562167"><ele>7.447</ele><time>2026-07-24T16:39:43Z</time><speed>2.942</speed><sat>13</sat></trkpt>
  <trkpt lat="26.41520000" lon="-80.16565000"><ele>7.247</ele><time>2026-07-24T16:39:44Z</time><speed>2.837</speed><sat>13</sat></trkpt>
  <trkpt lat="26.41521167" lon="-80.16567667"><ele>7.247</ele><time>2026-07-24T16:39:45Z</time><speed>2.962</speed><sat>13</sat></trkpt>
  <trkpt lat="26.41522167" lon="-80.16570500"><ele>7.346</ele><time>2026-07-24T16:39:46Z</time><speed>3.004</speed><sat>13</sat></trkpt>
  <trkpt lat="26.41523000" lon="-80.16573167"><ele>7.246</ele><time>2026-07-24T16:39:47Z</time><speed>2.940</speed><sat>13</sat></trkpt>
  <trkpt lat="26.41523167" lon="-80.16575000"><ele>6.246</ele><time>2026-07-24T16:39:48Z</time><speed>2.872</speed><sat>13</sat></trkpt>
  <trkpt lat="26.41523500" lon="-80.16575833"><ele>6.446</ele><time>2026-07-24T16:39:49Z</time><speed>2.641</speed><sat>13</sat></trkpt>
  <trkpt lat="26.41523167" lon="-80.16576167"><ele>6.446</ele><time>2026-07-24T16:39:50Z</time><speed>2.347</speed><sat>13</sat></trkpt>
  <trkpt lat="26.41522833" lon="-80.16576167"><ele>7.046</ele><time>2026-07-24T16:39:51Z</time><speed>2.025</speed><sat>13</sat></trkpt>
  <trkpt lat="26.41522500" lon="-80.16576000"><ele>7.646</ele><time>2026-07-24T16:39:52Z</time><speed>1.683</speed><sat>13</sat></trkpt>
  <trkpt lat="26.41522500" lon="-80.16576000"><ele>8.146</ele><time>2026-07-24T16:39:53Z</time><speed>1.353</speed><sat>13</sat></trkpt>
  <trkpt lat="26.41522333" lon="-80.16575833"><ele>8.446</ele><time>2026-07-24T16:39:54Z</time><speed>1.027</speed><sat>13</sat></trkpt>
  <trkpt lat="26.41522333" lon="-80.16575667"><ele>8.946</ele><time>2026-07-24T16:39:55Z</time><speed>0.725</speed><sat>13</sat></trkpt>
  <trkpt lat="26.41522667" lon="-80.16575667"><ele>9.046</ele><time>2026-07-24T16:39:56Z</time><speed>0.468</speed><sat>13</sat></trkpt>
  <trkpt lat="26.41522833" lon="-80.16576167"><ele>9.146</ele><time>2026-07-24T16:39:57Z</time><speed>0.000</speed><sat>13</sat></trkpt>
  <trkpt lat="26.41523500" lon="-80.16576500"><ele>9.446</ele><time>2026-07-24T16:39:58Z</time><speed>0.312</speed><sat>13</sat></trkpt>
  <trkpt lat="26.41525000" lon="-80.16578333"><ele>9.746</ele><time>2026-07-24T16:39:59Z</time><speed>0.481</speed><sat>13</sat></trkpt>
  <trkpt lat="26.41526500" lon="-80.16579667"><ele>9.646</ele><time>2026-07-24T16:40:00Z</time><speed>0.692</speed><sat>13</sat></trkpt>
  <trkpt lat="26.41528000" lon="-80.16581333"><ele>9.746</ele><time>2026-07-24T16:40:01Z</time><speed>0.937</speed><sat>13</sat></trkpt>
  <trkpt lat="26.41529500" lon="-80.16583667"><ele>9.946</ele><time>2026-07-24T16:40:02Z</time><speed>1.223</speed><sat>13</sat></trkpt>
  <trkpt lat="26.41532167" lon="-80.16585000"><ele>9.646</ele><time>2026-07-24T16:40:03Z</time><speed>1.511</speed><sat>13</sat></trkpt>
  <trkpt lat="26.41535167" lon="-80.16586500"><ele>9.946</ele><time>2026-07-24T16:40:04Z</time><speed>1.858</speed><sat>13</sat></trkpt>
  <trkpt lat="26.41538667" lon="-80.16587667"><ele>8.946</ele><time>2026-07-24T16:40:05Z</time><speed>2.207</speed><sat>13</sat></trkpt>
  <trkpt lat="26.41542000" lon="-80.16589500"><ele>7.946</ele><time>2026-07-24T16:40:06Z</time><speed>2.553</speed><sat>13</sat></trkpt>
  <trkpt lat="26.41544500" lon="-80.16591667"><ele>7.146</ele><time>2026-07-24T16:40:07Z</time><speed>2.870</speed><sat>13</sat></trkpt>
  <trkpt lat="26.41546667" lon="-80.16594167"><ele>6.146</ele><time>2026-07-24T16:40:08Z</time><speed>3.078</speed><sat>13</sat></trkpt>
  <trkpt lat="26.41548167" lon="-80.16597833"><ele>6.246</ele><time>2026-07-24T16:40:09Z</time><speed>3.238</speed><sat>13</sat></trkpt>
  <trkpt lat="26.41549667" lon="-80.16601167"><ele>6.145</ele><time>2026-07-24T16:40:10Z</time><speed>3.389</speed><sat>13</sat></trkpt>
  <trkpt lat="26.41551500" lon="-80.16604833"><ele>5.945</ele><time>2026-07-24T16:40:11Z</time><speed>3.535</speed><sat>13</sat></trkpt>
  <trkpt lat="26.41553500" lon="-80.16608333"><ele>5.545</ele><time>2026-07-24T16:40:12Z</time><speed>3.645</speed><sat>13</sat></trkpt>
  <trkpt lat="26.41555833" lon="-80.16611833"><ele>5.645</ele><time>2026-07-24T16:40:13Z</time><speed>3.752</speed><sat>13</sat></trkpt>
  <trkpt lat="26.41558167" lon="-80.16615167"><ele>5.445</ele><time>2026-07-24T16:40:14Z</time><speed>3.830</speed><sat>13</sat></trkpt>
  <trkpt lat="26.41560000" lon="-80.16618333"><ele>5.245</ele><time>2026-07-24T16:40:15Z</time><speed>3.885</speed><sat>13</sat></trkpt>
  <trkpt lat="26.41562167" lon="-80.16621833"><ele>5.145</ele><time>2026-07-24T16:40:16Z</time><speed>3.963</speed><sat>13</sat></trkpt>
  <trkpt lat="26.41564167" lon="-80.16625667"><ele>4.744</ele><time>2026-07-24T16:40:17Z</time><speed>4.090</speed><sat>13</sat></trkpt>
  <trkpt lat="26.41566000" lon="-80.16629500"><ele>4.344</ele><time>2026-07-24T16:40:18Z</time><speed>4.185</speed><sat>13</sat></trkpt>
  <trkpt lat="26.41568167" lon="-80.16633167"><ele>4.044</ele><time>2026-07-24T16:40:19Z</time><speed>4.228</speed><sat>13</sat></trkpt>
  <trkpt lat="26.41570000" lon="-80.16637000"><ele>3.744</ele><time>2026-07-24T16:40:20Z</time><speed>4.256</speed><sat>13</sat></trkpt>
  <trkpt lat="26.41571500" lon="-80.16640833"><ele>4.044</ele><time>2026-07-24T16:40:21Z</time><speed>4.379</speed><sat>13</sat></trkpt>
  <trkpt lat="26.41573500" lon="-80.16644667"><ele>3.944</ele><time>2026-07-24T16:40:22Z</time><speed>4.422</speed><sat>13</sat></trkpt>
  <trkpt lat="26.41575333" lon="-80.16648167"><ele>3.644</ele><time>2026-07-24T16:40:23Z</time><speed>4.461</speed><sat>13</sat></trkpt>
  <trkpt lat="26.41577167" lon="-80.16651500"><ele>3.343</ele><time>2026-07-24T16:40:24Z</time><speed>4.445</speed><sat>13</sat></trkpt>
  <trkpt lat="26.41579167" lon="-80.16654833"><ele>3.143</ele><time>2026-07-24T16:40:25Z</time><speed>4.468</speed><sat>13</sat></trkpt>
  <trkpt lat="26.41581167" lon="-80.16658333"><ele>2.843</ele><time>2026-07-24T16:40:26Z</time><speed>4.443</speed><sat>13</sat></trkpt>
  <trkpt lat="26.41582833" lon="-80.16661667"><ele>2.043</ele><time>2026-07-24T16:40:27Z</time><speed>4.397</speed><sat>13</sat></trkpt>
  <trkpt lat="26.41584500" lon="-80.16664833"><ele>1.043</ele><time>2026-07-24T16:40:28Z</time><speed>4.436</speed><sat>13</sat></trkpt>
  <trkpt lat="26.41586333" lon="-80.16667833"><ele>0.243</ele><time>2026-07-24T16:40:29Z</time><speed>4.376</speed><sat>13</sat></trkpt>
  <trkpt lat="26.41588167" lon="-80.16670500"><ele>-0.457</ele><time>2026-07-24T16:40:30Z</time><speed>4.327</speed><sat>13</sat></trkpt>
  <trkpt lat="26.41589833" lon="-80.16672667"><ele>-1.257</ele><time>2026-07-24T16:40:31Z</time><speed>4.067</speed><sat>13</sat></trkpt>
  <trkpt lat="26.41591667" lon="-80.16675000"><ele>0.543</ele><time>2026-07-24T16:40:32Z</time><speed>3.897</speed><sat>13</sat></trkpt>
  <trkpt lat="26.41594667" lon="-80.16677333"><ele>2.442</ele><time>2026-07-24T16:40:33Z</time><speed>3.748</speed><sat>13</sat></trkpt>
  <trkpt lat="26.41596000" lon="-80.16678833"><ele>3.342</ele><time>2026-07-24T16:40:34Z</time><speed>3.573</speed><sat>13</sat></trkpt>
  <trkpt lat="26.41597333" lon="-80.16680167"><ele>3.742</ele><time>2026-07-24T16:40:35Z</time><speed>3.344</speed><sat>13</sat></trkpt>
  <trkpt lat="26.41598333" lon="-80.16681000"><ele>4.442</ele><time>2026-07-24T16:40:36Z</time><speed>3.096</speed><sat>13</sat></trkpt>
  <trkpt lat="26.41599333" lon="-80.16682000"><ele>4.542</ele><time>2026-07-24T16:40:37Z</time><speed>2.836</speed><sat>13</sat></trkpt>
  <trkpt lat="26.41600333" lon="-80.16684667"><ele>4.842</ele><time>2026-07-24T16:40:38Z</time><speed>2.663</speed><sat>13</sat></trkpt>
  <trkpt lat="26.41601167" lon="-80.16688167"><ele>4.742</ele><time>2026-07-24T16:40:39Z</time><speed>2.664</speed><sat>13</sat></trkpt>
  <trkpt lat="26.41603000" lon="-80.16691167"><ele>4.742</ele><time>2026-07-24T16:40:40Z</time><speed>2.661</speed><sat>13</sat></trkpt>
  <trkpt lat="26.41605167" lon="-80.16694167"><ele>4.642</ele><time>2026-07-24T16:40:41Z</time><speed>2.752</speed><sat>13</sat></trkpt>
  <trkpt lat="26.41607500" lon="-80.16697167"><ele>4.642</ele><time>2026-07-24T16:40:42Z</time><speed>2.889</speed><sat>13</sat></trkpt>
  <trkpt lat="26.41610000" lon="-80.16700167"><ele>4.542</ele><time>2026-07-24T16:40:43Z</time><speed>2.890</speed><sat>13</sat></trkpt>
  <trkpt lat="26.41612167" lon="-80.16702000"><ele>4.442</ele><time>2026-07-24T16:40:44Z</time><speed>2.960</speed><sat>13</sat></trkpt>
  <trkpt lat="26.41614000" lon="-80.16704833"><ele>4.141</ele><time>2026-07-24T16:40:45Z</time><speed>3.033</speed><sat>13</sat></trkpt>
  <trkpt lat="26.41615833" lon="-80.16707333"><ele>3.941</ele><time>2026-07-24T16:40:46Z</time><speed>3.207</speed><sat>13</sat></trkpt>
  <trkpt lat="26.41617833" lon="-80.16710333"><ele>3.441</ele><time>2026-07-24T16:40:47Z</time><speed>3.390</speed><sat>13</sat></trkpt>
  <trkpt lat="26.41619167" lon="-80.16713833"><ele>3.241</ele><time>2026-07-24T16:40:48Z</time><speed>3.432</speed><sat>13</sat></trkpt>
  <trkpt lat="26.41619833" lon="-80.16717167"><ele>3.241</ele><time>2026-07-24T16:40:49Z</time><speed>3.425</speed><sat>13</sat></trkpt>
  <trkpt lat="26.41620500" lon="-80.16720500"><ele>3.341</ele><time>2026-07-24T16:40:50Z</time><speed>3.397</speed><sat>13</sat></trkpt>
  <trkpt lat="26.41620833" lon="-80.16723667"><ele>3.441</ele><time>2026-07-24T16:40:51Z</time><speed>3.363</speed><sat>13</sat></trkpt>
  <trkpt lat="26.41621333" lon="-80.16726667"><ele>3.441</ele><time>2026-07-24T16:40:52Z</time><speed>3.243</speed><sat>13</sat></trkpt>
  <trkpt lat="26.41621833" lon="-80.16729000"><ele>3.441</ele><time>2026-07-24T16:40:53Z</time><speed>3.177</speed><sat>13</sat></trkpt>
  <trkpt lat="26.41622333" lon="-80.16730667"><ele>2.840</ele><time>2026-07-24T16:40:54Z</time><speed>3.054</speed><sat>13</sat></trkpt>
  <trkpt lat="26.41622833" lon="-80.16731500"><ele>2.640</ele><time>2026-07-24T16:40:55Z</time><speed>2.809</speed><sat>13</sat></trkpt>
  <trkpt lat="26.41623667" lon="-80.16732333"><ele>2.840</ele><time>2026-07-24T16:40:56Z</time><speed>2.519</speed><sat>13</sat></trkpt>
  <trkpt lat="26.41625167" lon="-80.16733333"><ele>3.140</ele><time>2026-07-24T16:40:57Z</time><speed>2.363</speed><sat>13</sat></trkpt>
  <trkpt lat="26.41628000" lon="-80.16734167"><ele>3.640</ele><time>2026-07-24T16:40:58Z</time><speed>2.281</speed><sat>13</sat></trkpt>
  <trkpt lat="26.41630333" lon="-80.16735500"><ele>3.640</ele><time>2026-07-24T16:40:59Z</time><speed>2.208</speed><sat>13</sat></trkpt>
  <trkpt lat="26.41632500" lon="-80.16737500"><ele>3.540</ele><time>2026-07-24T16:41:00Z</time><speed>2.199</speed><sat>13</sat></trkpt>
  <trkpt lat="26.41634833" lon="-80.16739333"><ele>3.740</ele><time>2026-07-24T16:41:01Z</time><speed>2.211</speed><sat>13</sat></trkpt>
  <trkpt lat="26.41637333" lon="-80.16740500"><ele>4.040</ele><time>2026-07-24T16:41:02Z</time><speed>2.196</speed><sat>13</sat></trkpt>
  <trkpt lat="26.41639333" lon="-80.16741500"><ele>4.940</ele><time>2026-07-24T16:41:03Z</time><speed>2.208</speed><sat>13</sat></trkpt>
  <trkpt lat="26.41641500" lon="-80.16744000"><ele>4.640</ele><time>2026-07-24T16:41:04Z</time><speed>2.342</speed><sat>13</sat></trkpt>
  <trkpt lat="26.41644500" lon="-80.16745667"><ele>5.340</ele><time>2026-07-24T16:41:05Z</time><speed>2.641</speed><sat>13</sat></trkpt>
  <trkpt lat="26.41647500" lon="-80.16747000"><ele>5.640</ele><time>2026-07-24T16:41:06Z</time><speed>2.946</speed><sat>13</sat></trkpt>
  <trkpt lat="26.41650667" lon="-80.16748333"><ele>6.040</ele><time>2026-07-24T16:41:07Z</time><speed>3.109</speed><sat>13</sat></trkpt>
  <trkpt lat="26.41653500" lon="-80.16749333"><ele>5.540</ele><time>2026-07-24T16:41:08Z</time><speed>3.194</speed><sat>14</sat></trkpt>
  <trkpt lat="26.41656333" lon="-80.16750833"><ele>5.840</ele><time>2026-07-24T16:41:09Z</time><speed>3.260</speed><sat>14</sat></trkpt>
  <trkpt lat="26.41658833" lon="-80.16752167"><ele>6.040</ele><time>2026-07-24T16:41:10Z</time><speed>3.236</speed><sat>14</sat></trkpt>
  <trkpt lat="26.41660667" lon="-80.16754333"><ele>6.340</ele><time>2026-07-24T16:41:11Z</time><speed>3.158</speed><sat>14</sat></trkpt>
  <trkpt lat="26.41661667" lon="-80.16757167"><ele>5.940</ele><time>2026-07-24T16:41:12Z</time><speed>3.114</speed><sat>14</sat></trkpt>
  <trkpt lat="26.41661500" lon="-80.16760167"><ele>5.139</ele><time>2026-07-24T16:41:13Z</time><speed>3.175</speed><sat>14</sat></trkpt>
  <trkpt lat="26.41660333" lon="-80.16763333"><ele>4.239</ele><time>2026-07-24T16:41:14Z</time><speed>3.143</speed><sat>14</sat></trkpt>
  <trkpt lat="26.41658833" lon="-80.16766167"><ele>4.039</ele><time>2026-07-24T16:41:15Z</time><speed>3.077</speed><sat>14</sat></trkpt>
  <trkpt lat="26.41657000" lon="-80.16768333"><ele>3.439</ele><time>2026-07-24T16:41:16Z</time><speed>3.004</speed><sat>14</sat></trkpt>
  <trkpt lat="26.41654500" lon="-80.16770500"><ele>3.639</ele><time>2026-07-24T16:41:17Z</time><speed>2.947</speed><sat>14</sat></trkpt>
  <trkpt lat="26.41652000" lon="-80.16772667"><ele>3.939</ele><time>2026-07-24T16:41:18Z</time><speed>2.918</speed><sat>14</sat></trkpt>
  <trkpt lat="26.41649833" lon="-80.16775333"><ele>4.239</ele><time>2026-07-24T16:41:19Z</time><speed>2.935</speed><sat>14</sat></trkpt>
  <trkpt lat="26.41647833" lon="-80.16778000"><ele>4.339</ele><time>2026-07-24T16:41:20Z</time><speed>2.986</speed><sat>14</sat></trkpt>
  <trkpt lat="26.41645833" lon="-80.16780833"><ele>4.439</ele><time>2026-07-24T16:41:21Z</time><speed>3.105</speed><sat>14</sat></trkpt>
  <trkpt lat="26.41644333" lon="-80.16783667"><ele>4.638</ele><time>2026-07-24T16:41:22Z</time><speed>3.221</speed><sat>14</sat></trkpt>
  <trkpt lat="26.41642667" lon="-80.16786500"><ele>4.838</ele><time>2026-07-24T16:41:23Z</time><speed>3.292</speed><sat>14</sat></trkpt>
  <trkpt lat="26.41641333" lon="-80.16789667"><ele>4.938</ele><time>2026-07-24T16:41:24Z</time><speed>3.390</speed><sat>14</sat></trkpt>
  <trkpt lat="26.41639667" lon="-80.16792833"><ele>4.738</ele><time>2026-07-24T16:41:25Z</time><speed>3.476</speed><sat>14</sat></trkpt>
  <trkpt lat="26.41637833" lon="-80.16795833"><ele>4.638</ele><time>2026-07-24T16:41:26Z</time><speed>3.537</speed><sat>14</sat></trkpt>
  <trkpt lat="26.41636000" lon="-80.16798500"><ele>4.538</ele><time>2026-07-24T16:41:27Z</time><speed>3.580</speed><sat>14</sat></trkpt>
  <trkpt lat="26.41633667" lon="-80.16801333"><ele>4.238</ele><time>2026-07-24T16:41:28Z</time><speed>3.665</speed><sat>14</sat></trkpt>
  <trkpt lat="26.41631500" lon="-80.16804167"><ele>3.537</ele><time>2026-07-24T16:41:29Z</time><speed>3.739</speed><sat>14</sat></trkpt>
  <trkpt lat="26.41629167" lon="-80.16807500"><ele>3.237</ele><time>2026-07-24T16:41:30Z</time><speed>3.822</speed><sat>14</sat></trkpt>
  <trkpt lat="26.41627167" lon="-80.16810333"><ele>3.737</ele><time>2026-07-24T16:41:31Z</time><speed>3.814</speed><sat>14</sat></trkpt>
  <trkpt lat="26.41625667" lon="-80.16813000"><ele>4.137</ele><time>2026-07-24T16:41:32Z</time><speed>3.772</speed><sat>14</sat></trkpt>
  <trkpt lat="26.41624500" lon="-80.16816167"><ele>4.837</ele><time>2026-07-24T16:41:33Z</time><speed>3.744</speed><sat>14</sat></trkpt>
  <trkpt lat="26.41623500" lon="-80.16819500"><ele>5.337</ele><time>2026-07-24T16:41:34Z</time><speed>3.724</speed><sat>14</sat></trkpt>
  <trkpt lat="26.41623167" lon="-80.16823167"><ele>5.337</ele><time>2026-07-24T16:41:35Z</time><speed>3.716</speed><sat>14</sat></trkpt>
  <trkpt lat="26.41623000" lon="-80.16826333"><ele>4.937</ele><time>2026-07-24T16:41:36Z</time><speed>3.728</speed><sat>14</sat></trkpt>
  <trkpt lat="26.41623333" lon="-80.16830167"><ele>5.036</ele><time>2026-07-24T16:41:37Z</time><speed>3.730</speed><sat>14</sat></trkpt>
  <trkpt lat="26.41623500" lon="-80.16834000"><ele>5.036</ele><time>2026-07-24T16:41:38Z</time><speed>3.696</speed><sat>13</sat></trkpt>
  <trkpt lat="26.41623833" lon="-80.16837333"><ele>5.136</ele><time>2026-07-24T16:41:39Z</time><speed>3.623</speed><sat>14</sat></trkpt>
  <trkpt lat="26.41623833" lon="-80.16840833"><ele>5.036</ele><time>2026-07-24T16:41:40Z</time><speed>3.562</speed><sat>14</sat></trkpt>
  <trkpt lat="26.41623500" lon="-80.16844500"><ele>5.136</ele><time>2026-07-24T16:41:41Z</time><speed>3.593</speed><sat>14</sat></trkpt>
  <trkpt lat="26.41623667" lon="-80.16848500"><ele>5.136</ele><time>2026-07-24T16:41:42Z</time><speed>3.666</speed><sat>14</sat></trkpt>
  <trkpt lat="26.41623333" lon="-80.16852333"><ele>5.335</ele><time>2026-07-24T16:41:43Z</time><speed>3.725</speed><sat>14</sat></trkpt>
  <trkpt lat="26.41623167" lon="-80.16856167"><ele>5.235</ele><time>2026-07-24T16:41:44Z</time><speed>3.745</speed><sat>14</sat></trkpt>
  <trkpt lat="26.41623500" lon="-80.16859667"><ele>5.035</ele><time>2026-07-24T16:41:45Z</time><speed>3.769</speed><sat>14</sat></trkpt>
  <trkpt lat="26.41623667" lon="-80.16863167"><ele>5.335</ele><time>2026-07-24T16:41:46Z</time><speed>3.781</speed><sat>14</sat></trkpt>
  <trkpt lat="26.41624333" lon="-80.16866833"><ele>5.335</ele><time>2026-07-24T16:41:47Z</time><speed>3.783</speed><sat>14</sat></trkpt>
  <trkpt lat="26.41625167" lon="-80.16870000"><ele>5.135</ele><time>2026-07-24T16:41:48Z</time><speed>3.717</speed><sat>14</sat></trkpt>
  <trkpt lat="26.41625833" lon="-80.16872833"><ele>5.135</ele><time>2026-07-24T16:41:49Z</time><speed>3.672</speed><sat>14</sat></trkpt>
  <trkpt lat="26.41626500" lon="-80.16875667"><ele>5.534</ele><time>2026-07-24T16:41:50Z</time><speed>3.625</speed><sat>14</sat></trkpt>
  <trkpt lat="26.41627167" lon="-80.16878833"><ele>5.534</ele><time>2026-07-24T16:41:51Z</time><speed>3.587</speed><sat>14</sat></trkpt>
  <trkpt lat="26.41627500" lon="-80.16882667"><ele>5.734</ele><time>2026-07-24T16:41:52Z</time><speed>3.585</speed><sat>14</sat></trkpt>
  <trkpt lat="26.41627333" lon="-80.16886500"><ele>5.834</ele><time>2026-07-24T16:41:53Z</time><speed>3.558</speed><sat>14</sat></trkpt>
  <trkpt lat="26.41627167" lon="-80.16890000"><ele>5.734</ele><time>2026-07-24T16:41:54Z</time><speed>3.536</speed><sat>14</sat></trkpt>
  <trkpt lat="26.41626833" lon="-80.16893167"><ele>4.834</ele><time>2026-07-24T16:41:55Z</time><speed>3.517</speed><sat>14</sat></trkpt>
  <trkpt lat="26.41626833" lon="-80.16896667"><ele>4.734</ele><time>2026-07-24T16:41:56Z</time><speed>3.519</speed><sat>14</sat></trkpt>
  <trkpt lat="26.41627000" lon="-80.16900000"><ele>4.633</ele><time>2026-07-24T16:41:57Z</time><speed>3.500</speed><sat>14</sat></trkpt>
  <trkpt lat="26.41627000" lon="-80.16903667"><ele>4.733</ele><time>2026-07-24T16:41:58Z</time><speed>3.559</speed><sat>14</sat></trkpt>
  <trkpt lat="26.41627167" lon="-80.16907667"><ele>5.033</ele><time>2026-07-24T16:41:59Z</time><speed>3.654</speed><sat>13</sat></trkpt>
  <trkpt lat="26.41627500" lon="-80.16911833"><ele>5.233</ele><time>2026-07-24T16:42:00Z</time><speed>3.696</speed><sat>13</sat></trkpt>
  <trkpt lat="26.41627833" lon="-80.16915667"><ele>5.933</ele><time>2026-07-24T16:42:01Z</time><speed>3.720</speed><sat>14</sat></trkpt>
  <trkpt lat="26.41628167" lon="-80.16919667"><ele>6.333</ele><time>2026-07-24T16:42:02Z</time><speed>3.702</speed><sat>14</sat></trkpt>
  <trkpt lat="26.41628667" lon="-80.16923000"><ele>6.533</ele><time>2026-07-24T16:42:03Z</time><speed>3.702</speed><sat>15</sat></trkpt>
  <trkpt lat="26.41629167" lon="-80.16926833"><ele>6.532</ele><time>2026-07-24T16:42:04Z</time><speed>3.709</speed><sat>14</sat></trkpt>
  <trkpt lat="26.41629833" lon="-80.16930333"><ele>6.432</ele><time>2026-07-24T16:42:05Z</time><speed>3.713</speed><sat>14</sat></trkpt>
  <trkpt lat="26.41630667" lon="-80.16933833"><ele>6.332</ele><time>2026-07-24T16:42:06Z</time><speed>3.693</speed><sat>14</sat></trkpt>
  <trkpt lat="26.41631333" lon="-80.16937333"><ele>6.132</ele><time>2026-07-24T16:42:07Z</time><speed>3.698</speed><sat>14</sat></trkpt>
  <trkpt lat="26.41632000" lon="-80.16940833"><ele>6.232</ele><time>2026-07-24T16:42:08Z</time><speed>3.701</speed><sat>14</sat></trkpt>
  <trkpt lat="26.41632500" lon="-80.16944500"><ele>6.532</ele><time>2026-07-24T16:42:09Z</time><speed>3.641</speed><sat>14</sat></trkpt>
  <trkpt lat="26.41632667" lon="-80.16948333"><ele>7.032</ele><time>2026-07-24T16:42:10Z</time><speed>3.618</speed><sat>14</sat></trkpt>
  <trkpt lat="26.41632333" lon="-80.16951667"><ele>7.031</ele><time>2026-07-24T16:42:11Z</time><speed>3.583</speed><sat>14</sat></trkpt>
  <trkpt lat="26.41632167" lon="-80.16955000"><ele>7.131</ele><time>2026-07-24T16:42:12Z</time><speed>3.555</speed><sat>14</sat></trkpt>
  <trkpt lat="26.41632000" lon="-80.16958500"><ele>7.031</ele><time>2026-07-24T16:42:13Z</time><speed>3.519</speed><sat>14</sat></trkpt>
  <trkpt lat="26.41632167" lon="-80.16962167"><ele>6.831</ele><time>2026-07-24T16:42:14Z</time><speed>3.509</speed><sat>14</sat></trkpt>
  <trkpt lat="26.41632167" lon="-80.16965833"><ele>6.831</ele><time>2026-07-24T16:42:15Z</time><speed>3.512</speed><sat>14</sat></trkpt>
  <trkpt lat="26.41632167" lon="-80.16969500"><ele>6.931</ele><time>2026-07-24T16:42:16Z</time><speed>3.508</speed><sat>14</sat></trkpt>
  <trkpt lat="26.41632000" lon="-80.16973333"><ele>6.931</ele><time>2026-07-24T16:42:17Z</time><speed>3.518</speed><sat>14</sat></trkpt>
  <trkpt lat="26.41631167" lon="-80.16977000"><ele>6.930</ele><time>2026-07-24T16:42:18Z</time><speed>3.518</speed><sat>14</sat></trkpt>
  <trkpt lat="26.41630333" lon="-80.16980333"><ele>6.730</ele><time>2026-07-24T16:42:19Z</time><speed>3.534</speed><sat>14</sat></trkpt>
  <trkpt lat="26.41629833" lon="-80.16983833"><ele>6.430</ele><time>2026-07-24T16:42:20Z</time><speed>3.564</speed><sat>14</sat></trkpt>
  <trkpt lat="26.41629000" lon="-80.16987333"><ele>6.230</ele><time>2026-07-24T16:42:21Z</time><speed>3.568</speed><sat>14</sat></trkpt>
  <trkpt lat="26.41628500" lon="-80.16990333"><ele>6.030</ele><time>2026-07-24T16:42:22Z</time><speed>3.568</speed><sat>14</sat></trkpt>
  <trkpt lat="26.41628000" lon="-80.16993667"><ele>6.430</ele><time>2026-07-24T16:42:23Z</time><speed>3.569</speed><sat>14</sat></trkpt>
  <trkpt lat="26.41627833" lon="-80.16996833"><ele>6.630</ele><time>2026-07-24T16:42:24Z</time><speed>3.545</speed><sat>14</sat></trkpt>
  <trkpt lat="26.41627667" lon="-80.17000000"><ele>6.529</ele><time>2026-07-24T16:42:25Z</time><speed>3.511</speed><sat>14</sat></trkpt>
  <trkpt lat="26.41627667" lon="-80.17003333"><ele>6.429</ele><time>2026-07-24T16:42:26Z</time><speed>3.488</speed><sat>14</sat></trkpt>
  <trkpt lat="26.41628167" lon="-80.17006500"><ele>6.529</ele><time>2026-07-24T16:42:27Z</time><speed>3.454</speed><sat>14</sat></trkpt>
  <trkpt lat="26.41629500" lon="-80.17009167"><ele>7.029</ele><time>2026-07-24T16:42:28Z</time><speed>3.411</speed><sat>14</sat></trkpt>
  <trkpt lat="26.41631833" lon="-80.17011333"><ele>6.729</ele><time>2026-07-24T16:42:29Z</time><speed>3.339</speed><sat>14</sat></trkpt>
  <trkpt lat="26.41633667" lon="-80.17012500"><ele>6.129</ele><time>2026-07-24T16:42:30Z</time><speed>3.245</speed><sat>14</sat></trkpt>
  <trkpt lat="26.41635667" lon="-80.17014000"><ele>5.329</ele><time>2026-07-24T16:42:31Z</time><speed>3.159</speed><sat>14</sat></trkpt>
  <trkpt lat="26.41637500" lon="-80.17015167"><ele>4.929</ele><time>2026-07-24T16:42:32Z</time><speed>3.027</speed><sat>14</sat></trkpt>
  <trkpt lat="26.41638833" lon="-80.17015667"><ele>4.429</ele><time>2026-07-24T16:42:33Z</time><speed>2.849</speed><sat>13</sat></trkpt>
  <trkpt lat="26.41640333" lon="-80.17015833"><ele>4.329</ele><time>2026-07-24T16:42:34Z</time><speed>2.696</speed><sat>12</sat></trkpt>
  <trkpt lat="26.41641833" lon="-80.17015833"><ele>4.329</ele><time>2026-07-24T16:42:35Z</time><speed>2.539</speed><sat>13</sat></trkpt>
  <trkpt lat="26.41643500" lon="-80.17015833"><ele>4.029</ele><time>2026-07-24T16:42:36Z</time><speed>2.373</speed><sat>13</sat></trkpt>
  <trkpt lat="26.41645333" lon="-80.17016000"><ele>3.829</ele><time>2026-07-24T16:42:37Z</time><speed>2.223</speed><sat>13</sat></trkpt>
  <trkpt lat="26.41647167" lon="-80.17016167"><ele>3.729</ele><time>2026-07-24T16:42:38Z</time><speed>2.051</speed><sat>13</sat></trkpt>
  <trkpt lat="26.41648667" lon="-80.17015833"><ele>3.629</ele><time>2026-07-24T16:42:39Z</time><speed>1.902</speed><sat>13</sat></trkpt>
  <trkpt lat="26.41650167" lon="-80.17015500"><ele>3.529</ele><time>2026-07-24T16:42:40Z</time><speed>1.757</speed><sat>13</sat></trkpt>
  <trkpt lat="26.41651333" lon="-80.17015500"><ele>3.629</ele><time>2026-07-24T16:42:41Z</time><speed>1.621</speed><sat>13</sat></trkpt>
  <trkpt lat="26.41652667" lon="-80.17015333"><ele>3.729</ele><time>2026-07-24T16:42:42Z</time><speed>1.528</speed><sat>13</sat></trkpt>
  <trkpt lat="26.41653833" lon="-80.17015333"><ele>3.929</ele><time>2026-07-24T16:42:43Z</time><speed>1.466</speed><sat>13</sat></trkpt>
  <trkpt lat="26.41654667" lon="-80.17015000"><ele>3.729</ele><time>2026-07-24T16:42:44Z</time><speed>1.382</speed><sat>13</sat></trkpt>
  <trkpt lat="26.41655333" lon="-80.17014833"><ele>3.629</ele><time>2026-07-24T16:42:45Z</time><speed>1.272</speed><sat>13</sat></trkpt>
  <trkpt lat="26.41655500" lon="-80.17014667"><ele>3.629</ele><time>2026-07-24T16:42:46Z</time><speed>1.147</speed><sat>13</sat></trkpt>
  <trkpt lat="26.41655500" lon="-80.17014500"><ele>3.829</ele><time>2026-07-24T16:42:47Z</time><speed>0.972</speed><sat>13</sat></trkpt>
  <trkpt lat="26.41655500" lon="-80.17014333"><ele>3.929</ele><time>2026-07-24T16:42:48Z</time><speed>0.820</speed><sat>13</sat></trkpt>
  <trkpt lat="26.41655333" lon="-80.17014500"><ele>4.129</ele><time>2026-07-24T16:42:49Z</time><speed>0.687</speed><sat>13</sat></trkpt>
  <trkpt lat="26.41655500" lon="-80.17014667"><ele>4.629</ele><time>2026-07-24T16:42:50Z</time><speed>0.565</speed><sat>13</sat></trkpt>
  <trkpt lat="26.41655667" lon="-80.17014833"><ele>4.929</ele><time>2026-07-24T16:42:51Z</time><speed>0.440</speed><sat>13</sat></trkpt>
  <trkpt lat="26.41655667" lon="-80.17014833"><ele>5.229</ele><time>2026-07-24T16:42:52Z</time><speed>0.000</speed><sat>13</sat></trkpt>
  <trkpt lat="26.41655833" lon="-80.17015000"><ele>5.529</ele><time>2026-07-24T16:42:53Z</time><speed>0.000</speed><sat>13</sat></trkpt>
  <trkpt lat="26.41656000" lon="-80.17015167"><ele>5.829</ele><time>2026-07-24T16:42:54Z</time><speed>0.000</speed><sat>12</sat></trkpt>
  <trkpt lat="26.41656000" lon="-80.17015167"><ele>5.829</ele><time>2026-07-24T16:42:55Z</time><speed>0.000</speed><sat>13</sat></trkpt>
  <trkpt lat="26.41656000" lon="-80.17015167"><ele>5.829</ele><time>2026-07-24T16:42:56Z</time><speed>0.000</speed><sat>13</sat></trkpt>
  <trkpt lat="26.41656000" lon="-80.17015167"><ele>5.829</ele><time>2026-07-24T16:42:57Z</time><speed>0.000</speed><sat>13</sat></trkpt>
  <trkpt lat="26.41656000" lon="-80.17015167"><ele>5.829</ele><time>2026-07-24T16:42:58Z</time><speed>0.000</speed><sat>13</sat></trkpt>
  <trkpt lat="26.41656000" lon="-80.17015167"><ele>5.829</ele><time>2026-07-24T16:42:59Z</time><speed>0.000</speed><sat>13</sat></trkpt>
  <trkpt lat="26.41656000" lon="-80.17015167"><ele>5.829</ele><time>2026-07-24T16:43:00Z</time><speed>0.000</speed><sat>12</sat></trkpt>
  <trkpt lat="26.41656000" lon="-80.17015167"><ele>5.829</ele><time>2026-07-24T16:43:01Z</time><speed>0.000</speed><sat>12</sat></trkpt>
  <trkpt lat="26.41656000" lon="-80.17015167"><ele>5.829</ele><time>2026-07-24T16:43:02Z</time><speed>0.000</speed><sat>13</sat></trkpt>
  <trkpt lat="26.41656000" lon="-80.17015167"><ele>5.829</ele><time>2026-07-24T16:43:03Z</time><speed>0.000</speed><sat>13</sat></trkpt>
  <trkpt lat="26.41656000" lon="-80.17015167"><ele>5.829</ele><time>2026-07-24T16:43:04Z</time><speed>0.000</speed><sat>13</sat></trkpt>
  <trkpt lat="26.41656000" lon="-80.17015167"><ele>5.829</ele><time>2026-07-24T16:43:05Z</time><speed>0.000</speed><sat>13</sat></trkpt>
 </trkseg>
</trk>

</gpx>
 