<?xml version="1.0" encoding="UTF-8"?>
<!-- Created with BasicAirData GPS Logger for Android - ver. 3.3.0 -->
<!-- Track 12 = 590 TrackPoints + 2 Placemarks -->

<!-- Track Statistics (based on Total Time | Time in Movement): -->
<!--  Distance = 2.62 km -->
<!--  Duration = 09:49 | 08:50 -->
<!--  Altitude Gap = 5 m -->
<!--  Max Speed = 15 mph -->
<!--  Avg Speed = 10.0 | 11.1 mph -->
<!--  Direction = SW -->
<!--  Activity = cycling -->
<!--  Altitudes = Corrected using EGM96 grid (bilinear interpolation) -->

<gpx version="1.0"
     creator="BasicAirData GPS Logger 3.3.0"
     xmlns="http://www.topografix.com/GPX/1/0"
     xmlns:xsi="http://www.w3.org/2001/XMLSchema-instance"
     xsi:schemaLocation="http://www.topografix.com/GPX/1/0 http://www.topografix.com/GPX/1/0/gpx.xsd">
<name>GPS Logger 20260724-103209</name>
<desc>ST2-GolfCartCenter</desc>
<time>2026-07-25T02:05:05Z</time>
<keywords>cycling</keywords>
<bounds minlat="26.41284167" minlon="-80.16347333" maxlat="26.42372333" maxlon="-80.15276000" />

<wpt lat="26.42372000" lon="-80.15280167"><ele>4.804</ele><time>2026-07-24T14:32:28Z</time><name>Station2</name><sat>16</sat></wpt>

<wpt lat="26.41588000" lon="-80.16338333"><ele>10.156</ele><time>2026-07-24T14:41:47Z</time><name>Golf cart center</name><sat>16</sat></wpt>

<trk>
 <name>Track 20260724-103209</name>
 <trkseg>
  <trkpt lat="26.42351167" lon="-80.15276333"><ele>5.504</ele><time>2026-07-24T14:32:09Z</time><speed>0.000</speed><sat>11</sat></trkpt>
  <trkpt lat="26.42351167" lon="-80.15276000"><ele>5.504</ele><time>2026-07-24T14:32:10Z</time><speed>0.000</speed><sat>11</sat></trkpt>
  <trkpt lat="26.42351167" lon="-80.15276000"><ele>5.504</ele><time>2026-07-24T14:32:11Z</time><speed>0.000</speed><sat>12</sat></trkpt>
  <trkpt lat="26.42351167" lon="-80.15276000"><ele>5.504</ele><time>2026-07-24T14:32:12Z</time><speed>0.000</speed><sat>12</sat></trkpt>
  <trkpt lat="26.42351167" lon="-80.15276000"><ele>5.504</ele><time>2026-07-24T14:32:13Z</time><speed>0.000</speed><sat>12</sat></trkpt>
  <trkpt lat="26.42351167" lon="-80.15276000"><ele>5.504</ele><time>2026-07-24T14:32:14Z</time><speed>0.000</speed><sat>12</sat></trkpt>
  <trkpt lat="26.42351167" lon="-80.15276000"><ele>5.504</ele><time>2026-07-24T14:32:15Z</time><speed>0.000</speed><sat>12</sat></trkpt>
  <trkpt lat="26.42351167" lon="-80.15276000"><ele>5.504</ele><time>2026-07-24T14:32:16Z</time><speed>0.000</speed><sat>12</sat></trkpt>
  <trkpt lat="26.42351167" lon="-80.15276000"><ele>5.504</ele><time>2026-07-24T14:32:17Z</time><speed>0.000</speed><sat>12</sat></trkpt>
  <trkpt lat="26.42356500" lon="-80.15279000"><ele>5.304</ele><time>2026-07-24T14:32:18Z</time><speed>0.640</speed><sat>11</sat></trkpt>
  <trkpt lat="26.42360333" lon="-80.15280000"><ele>5.104</ele><time>2026-07-24T14:32:19Z</time><speed>0.947</speed><sat>11</sat></trkpt>
  <trkpt lat="26.42363667" lon="-80.15280833"><ele>4.704</ele><time>2026-07-24T14:32:20Z</time><speed>1.228</speed><sat>11</sat></trkpt>
  <trkpt lat="26.42366333" lon="-80.15281500"><ele>4.704</ele><time>2026-07-24T14:32:21Z</time><speed>1.521</speed><sat>16</sat></trkpt>
  <trkpt lat="26.42368833" lon="-80.15281500"><ele>4.704</ele><time>2026-07-24T14:32:22Z</time><speed>1.791</speed><sat>16</sat></trkpt>
  <trkpt lat="26.42370833" lon="-80.15281500"><ele>4.704</ele><time>2026-07-24T14:32:23Z</time><speed>2.013</speed><sat>16</sat></trkpt>
  <trkpt lat="26.42371333" lon="-80.15280833"><ele>4.604</ele><time>2026-07-24T14:32:24Z</time><speed>2.179</speed><sat>16</sat></trkpt>
  <trkpt lat="26.42372000" lon="-80.15280667"><ele>4.704</ele><time>2026-07-24T14:32:25Z</time><speed>2.285</speed><sat>16</sat></trkpt>
  <trkpt lat="26.42372333" lon="-80.15280500"><ele>4.904</ele><time>2026-07-24T14:32:26Z</time><speed>2.268</speed><sat>16</sat></trkpt>
  <trkpt lat="26.42372167" lon="-80.15279833"><ele>5.104</ele><time>2026-07-24T14:32:27Z</time><speed>2.049</speed><sat>16</sat></trkpt>
  <trkpt lat="26.42372000" lon="-80.15280167"><ele>4.804</ele><time>2026-07-24T14:32:28Z</time><speed>1.769</speed><sat>16</sat></trkpt>
  <trkpt lat="26.42371500" lon="-80.15280500"><ele>4.704</ele><time>2026-07-24T14:32:29Z</time><speed>1.467</speed><sat>16</sat></trkpt>
  <trkpt lat="26.42371167" lon="-80.15281167"><ele>4.604</ele><time>2026-07-24T14:32:30Z</time><speed>1.191</speed><sat>16</sat></trkpt>
  <trkpt lat="26.42371333" lon="-80.15281667"><ele>4.504</ele><time>2026-07-24T14:32:31Z</time><speed>0.902</speed><sat>16</sat></trkpt>
  <trkpt lat="26.42371000" lon="-80.15281833"><ele>4.404</ele><time>2026-07-24T14:32:32Z</time><speed>0.635</speed><sat>16</sat></trkpt>
  <trkpt lat="26.42371000" lon="-80.15282167"><ele>4.404</ele><time>2026-07-24T14:32:33Z</time><speed>0.427</speed><sat>16</sat></trkpt>
  <trkpt lat="26.42370833" lon="-80.15282333"><ele>4.504</ele><time>2026-07-24T14:32:34Z</time><speed>0.000</speed><sat>16</sat></trkpt>
  <trkpt lat="26.42370833" lon="-80.15282500"><ele>4.504</ele><time>2026-07-24T14:32:35Z</time><speed>0.000</speed><sat>16</sat></trkpt>
  <trkpt lat="26.42370667" lon="-80.15282667"><ele>4.504</ele><time>2026-07-24T14:32:36Z</time><speed>0.000</speed><sat>16</sat></trkpt>
  <trkpt lat="26.42370667" lon="-80.15282667"><ele>4.504</ele><time>2026-07-24T14:32:37Z</time><speed>0.000</speed><sat>16</sat></trkpt>
  <trkpt lat="26.42370667" lon="-80.15282667"><ele>4.504</ele><time>2026-07-24T14:32:38Z</time><speed>0.000</speed><sat>16</sat></trkpt>
  <trkpt lat="26.42370667" lon="-80.15282667"><ele>4.504</ele><time>2026-07-24T14:32:39Z</time><speed>0.000</speed><sat>16</sat></trkpt>
  <trkpt lat="26.42366833" lon="-80.15281833"><ele>4.104</ele><time>2026-07-24T14:32:40Z</time><speed>0.417</speed><sat>16</sat></trkpt>
  <trkpt lat="26.42363833" lon="-80.15281500"><ele>4.104</ele><time>2026-07-24T14:32:41Z</time><speed>0.668</speed><sat>16</sat></trkpt>
  <trkpt lat="26.42360500" lon="-80.15280833"><ele>4.004</ele><time>2026-07-24T14:32:42Z</time><speed>0.949</speed><sat>16</sat></trkpt>
  <trkpt lat="26.42357500" lon="-80.15279667"><ele>3.904</ele><time>2026-07-24T14:32:43Z</time><speed>1.217</speed><sat>16</sat></trkpt>
  <trkpt lat="26.42355500" lon="-80.15278333"><ele>3.904</ele><time>2026-07-24T14:32:44Z</time><speed>1.413</speed><sat>15</sat></trkpt>
  <trkpt lat="26.42354000" lon="-80.15277333"><ele>3.904</ele><time>2026-07-24T14:32:45Z</time><speed>1.542</speed><sat>16</sat></trkpt>
  <trkpt lat="26.42353167" lon="-80.15277000"><ele>3.904</ele><time>2026-07-24T14:32:46Z</time><speed>1.621</speed><sat>16</sat></trkpt>
  <trkpt lat="26.42352833" lon="-80.15276833"><ele>4.004</ele><time>2026-07-24T14:32:47Z</time><speed>1.613</speed><sat>15</sat></trkpt>
  <trkpt lat="26.42352833" lon="-80.15276833"><ele>3.904</ele><time>2026-07-24T14:32:48Z</time><speed>1.595</speed><sat>15</sat></trkpt>
  <trkpt lat="26.42352667" lon="-80.15277000"><ele>4.104</ele><time>2026-07-24T14:32:49Z</time><speed>1.541</speed><sat>15</sat></trkpt>
  <trkpt lat="26.42352333" lon="-80.15277167"><ele>4.004</ele><time>2026-07-24T14:32:50Z</time><speed>1.353</speed><sat>15</sat></trkpt>
  <trkpt lat="26.42352333" lon="-80.15277167"><ele>3.904</ele><time>2026-07-24T14:32:51Z</time><speed>1.096</speed><sat>15</sat></trkpt>
  <trkpt lat="26.42352333" lon="-80.15277000"><ele>3.904</ele><time>2026-07-24T14:32:52Z</time><speed>0.814</speed><sat>15</sat></trkpt>
  <trkpt lat="26.42352167" lon="-80.15277500"><ele>3.804</ele><time>2026-07-24T14:32:53Z</time><speed>0.554</speed><sat>15</sat></trkpt>
  <trkpt lat="26.42352167" lon="-80.15278000"><ele>3.504</ele><time>2026-07-24T14:32:54Z</time><speed>0.000</speed><sat>15</sat></trkpt>
  <trkpt lat="26.42351333" lon="-80.15279000"><ele>3.404</ele><time>2026-07-24T14:32:55Z</time><speed>0.404</speed><sat>14</sat></trkpt>
  <trkpt lat="26.42350000" lon="-80.15280167"><ele>3.504</ele><time>2026-07-24T14:32:56Z</time><speed>0.463</speed><sat>14</sat></trkpt>
  <trkpt lat="26.42348833" lon="-80.15280333"><ele>3.504</ele><time>2026-07-24T14:32:57Z</time><speed>0.594</speed><sat>15</sat></trkpt>
  <trkpt lat="26.42347500" lon="-80.15281167"><ele>3.604</ele><time>2026-07-24T14:32:58Z</time><speed>0.759</speed><sat>15</sat></trkpt>
  <trkpt lat="26.42346167" lon="-80.15282500"><ele>3.804</ele><time>2026-07-24T14:32:59Z</time><speed>0.946</speed><sat>15</sat></trkpt>
  <trkpt lat="26.42344833" lon="-80.15282833"><ele>3.704</ele><time>2026-07-24T14:33:00Z</time><speed>1.090</speed><sat>15</sat></trkpt>
  <trkpt lat="26.42343833" lon="-80.15284167"><ele>3.404</ele><time>2026-07-24T14:33:01Z</time><speed>1.271</speed><sat>15</sat></trkpt>
  <trkpt lat="26.42342833" lon="-80.15285500"><ele>2.904</ele><time>2026-07-24T14:33:02Z</time><speed>1.456</speed><sat>16</sat></trkpt>
  <trkpt lat="26.42342000" lon="-80.15286667"><ele>2.004</ele><time>2026-07-24T14:33:03Z</time><speed>1.609</speed><sat>15</sat></trkpt>
  <trkpt lat="26.42341167" lon="-80.15288667"><ele>1.904</ele><time>2026-07-24T14:33:04Z</time><speed>1.764</speed><sat>14</sat></trkpt>
  <trkpt lat="26.42339833" lon="-80.15290167"><ele>0.904</ele><time>2026-07-24T14:33:05Z</time><speed>1.826</speed><sat>16</sat></trkpt>
  <trkpt lat="26.42338333" lon="-80.15291667"><ele>0.304</ele><time>2026-07-24T14:33:06Z</time><speed>1.885</speed><sat>16</sat></trkpt>
  <trkpt lat="26.42337000" lon="-80.15293167"><ele>-0.196</ele><time>2026-07-24T14:33:07Z</time><speed>1.972</speed><sat>16</sat></trkpt>
  <trkpt lat="26.42335500" lon="-80.15295167"><ele>-0.496</ele><time>2026-07-24T14:33:08Z</time><speed>2.038</speed><sat>16</sat></trkpt>
  <trkpt lat="26.42334167" lon="-80.15297500"><ele>-0.897</ele><time>2026-07-24T14:33:09Z</time><speed>2.096</speed><sat>17</sat></trkpt>
  <trkpt lat="26.42332833" lon="-80.15299833"><ele>-1.097</ele><time>2026-07-24T14:33:10Z</time><speed>2.215</speed><sat>17</sat></trkpt>
  <trkpt lat="26.42331167" lon="-80.15302333"><ele>-1.097</ele><time>2026-07-24T14:33:11Z</time><speed>2.279</speed><sat>17</sat></trkpt>
  <trkpt lat="26.42329667" lon="-80.15305667"><ele>-0.797</ele><time>2026-07-24T14:33:12Z</time><speed>2.429</speed><sat>17</sat></trkpt>
  <trkpt lat="26.42328333" lon="-80.15308833"><ele>-0.597</ele><time>2026-07-24T14:33:13Z</time><speed>2.553</speed><sat>17</sat></trkpt>
  <trkpt lat="26.42327167" lon="-80.15311667"><ele>-0.497</ele><time>2026-07-24T14:33:14Z</time><speed>2.627</speed><sat>17</sat></trkpt>
  <trkpt lat="26.42326000" lon="-80.15314000"><ele>-0.397</ele><time>2026-07-24T14:33:15Z</time><speed>2.651</speed><sat>17</sat></trkpt>
  <trkpt lat="26.42324500" lon="-80.15315333"><ele>-0.197</ele><time>2026-07-24T14:33:16Z</time><speed>2.674</speed><sat>17</sat></trkpt>
  <trkpt lat="26.42323333" lon="-80.15317167"><ele>-0.297</ele><time>2026-07-24T14:33:17Z</time><speed>2.646</speed><sat>17</sat></trkpt>
  <trkpt lat="26.42321833" lon="-80.15318500"><ele>-0.297</ele><time>2026-07-24T14:33:18Z</time><speed>2.610</speed><sat>17</sat></trkpt>
  <trkpt lat="26.42320167" lon="-80.15319667"><ele>0.102</ele><time>2026-07-24T14:33:19Z</time><speed>2.568</speed><sat>17</sat></trkpt>
  <trkpt lat="26.42318333" lon="-80.15320500"><ele>-0.098</ele><time>2026-07-24T14:33:20Z</time><speed>2.507</speed><sat>17</sat></trkpt>
  <trkpt lat="26.42316333" lon="-80.15320500"><ele>0.502</ele><time>2026-07-24T14:33:21Z</time><speed>2.517</speed><sat>17</sat></trkpt>
  <trkpt lat="26.42314167" lon="-80.15320333"><ele>0.902</ele><time>2026-07-24T14:33:22Z</time><speed>2.399</speed><sat>17</sat></trkpt>
  <trkpt lat="26.42312500" lon="-80.15320333"><ele>1.102</ele><time>2026-07-24T14:33:23Z</time><speed>2.283</speed><sat>17</sat></trkpt>
  <trkpt lat="26.42311167" lon="-80.15320333"><ele>1.302</ele><time>2026-07-24T14:33:24Z</time><speed>2.174</speed><sat>17</sat></trkpt>
  <trkpt lat="26.42309667" lon="-80.15320500"><ele>1.702</ele><time>2026-07-24T14:33:25Z</time><speed>2.120</speed><sat>17</sat></trkpt>
  <trkpt lat="26.42308333" lon="-80.15321000"><ele>1.802</ele><time>2026-07-24T14:33:26Z</time><speed>2.081</speed><sat>17</sat></trkpt>
  <trkpt lat="26.42306833" lon="-80.15321667"><ele>2.002</ele><time>2026-07-24T14:33:27Z</time><speed>2.106</speed><sat>17</sat></trkpt>
  <trkpt lat="26.42305167" lon="-80.15322000"><ele>2.202</ele><time>2026-07-24T14:33:28Z</time><speed>2.118</speed><sat>17</sat></trkpt>
  <trkpt lat="26.42303000" lon="-80.15323000"><ele>2.202</ele><time>2026-07-24T14:33:29Z</time><speed>2.120</speed><sat>16</sat></trkpt>
  <trkpt lat="26.42300500" lon="-80.15323667"><ele>2.302</ele><time>2026-07-24T14:33:30Z</time><speed>2.110</speed><sat>16</sat></trkpt>
  <trkpt lat="26.42297833" lon="-80.15323667"><ele>2.302</ele><time>2026-07-24T14:33:31Z</time><speed>2.075</speed><sat>15</sat></trkpt>
  <trkpt lat="26.42295000" lon="-80.15323500"><ele>2.202</ele><time>2026-07-24T14:33:32Z</time><speed>2.084</speed><sat>15</sat></trkpt>
  <trkpt lat="26.42292333" lon="-80.15323500"><ele>2.102</ele><time>2026-07-24T14:33:33Z</time><speed>2.128</speed><sat>16</sat></trkpt>
  <trkpt lat="26.42290000" lon="-80.15322833"><ele>2.402</ele><time>2026-07-24T14:33:34Z</time><speed>2.173</speed><sat>16</sat></trkpt>
  <trkpt lat="26.42287833" lon="-80.15322000"><ele>3.002</ele><time>2026-07-24T14:33:35Z</time><speed>2.188</speed><sat>16</sat></trkpt>
  <trkpt lat="26.42286167" lon="-80.15320833"><ele>3.702</ele><time>2026-07-24T14:33:36Z</time><speed>2.187</speed><sat>16</sat></trkpt>
  <trkpt lat="26.42284500" lon="-80.15320500"><ele>4.102</ele><time>2026-07-24T14:33:37Z</time><speed>2.119</speed><sat>16</sat></trkpt>
  <trkpt lat="26.42282833" lon="-80.15320333"><ele>4.202</ele><time>2026-07-24T14:33:38Z</time><speed>2.047</speed><sat>17</sat></trkpt>
  <trkpt lat="26.42281333" lon="-80.15320333"><ele>4.002</ele><time>2026-07-24T14:33:39Z</time><speed>2.000</speed><sat>17</sat></trkpt>
  <trkpt lat="26.42279667" lon="-80.15320167"><ele>3.802</ele><time>2026-07-24T14:33:40Z</time><speed>1.987</speed><sat>17</sat></trkpt>
  <trkpt lat="26.42278000" lon="-80.15320167"><ele>3.802</ele><time>2026-07-24T14:33:41Z</time><speed>1.938</speed><sat>17</sat></trkpt>
  <trkpt lat="26.42276333" lon="-80.15320167"><ele>3.602</ele><time>2026-07-24T14:33:42Z</time><speed>1.872</speed><sat>17</sat></trkpt>
  <trkpt lat="26.42275167" lon="-80.15320500"><ele>3.502</ele><time>2026-07-24T14:33:43Z</time><speed>1.771</speed><sat>17</sat></trkpt>
  <trkpt lat="26.42273500" lon="-80.15320667"><ele>3.402</ele><time>2026-07-24T14:33:44Z</time><speed>1.676</speed><sat>16</sat></trkpt>
  <trkpt lat="26.42272000" lon="-80.15321667"><ele>3.402</ele><time>2026-07-24T14:33:45Z</time><speed>1.645</speed><sat>16</sat></trkpt>
  <trkpt lat="26.42271333" lon="-80.15323667"><ele>3.002</ele><time>2026-07-24T14:33:46Z</time><speed>1.647</speed><sat>16</sat></trkpt>
  <trkpt lat="26.42271167" lon="-80.15326000"><ele>2.702</ele><time>2026-07-24T14:33:47Z</time><speed>1.737</speed><sat>16</sat></trkpt>
  <trkpt lat="26.42271500" lon="-80.15329000"><ele>2.602</ele><time>2026-07-24T14:33:48Z</time><speed>1.858</speed><sat>16</sat></trkpt>
  <trkpt lat="26.42272167" lon="-80.15333000"><ele>2.902</ele><time>2026-07-24T14:33:49Z</time><speed>2.064</speed><sat>16</sat></trkpt>
  <trkpt lat="26.42272667" lon="-80.15337500"><ele>3.401</ele><time>2026-07-24T14:33:50Z</time><speed>2.277</speed><sat>16</sat></trkpt>
  <trkpt lat="26.42272667" lon="-80.15342000"><ele>3.701</ele><time>2026-07-24T14:33:51Z</time><speed>2.536</speed><sat>16</sat></trkpt>
  <trkpt lat="26.42272500" lon="-80.15346833"><ele>4.201</ele><time>2026-07-24T14:33:52Z</time><speed>2.826</speed><sat>16</sat></trkpt>
  <trkpt lat="26.42272500" lon="-80.15352000"><ele>4.801</ele><time>2026-07-24T14:33:53Z</time><speed>3.177</speed><sat>16</sat></trkpt>
  <trkpt lat="26.42272167" lon="-80.15357333"><ele>5.301</ele><time>2026-07-24T14:33:54Z</time><speed>3.558</speed><sat>16</sat></trkpt>
  <trkpt lat="26.42272000" lon="-80.15362667"><ele>5.400</ele><time>2026-07-24T14:33:55Z</time><speed>3.892</speed><sat>16</sat></trkpt>
  <trkpt lat="26.42271833" lon="-80.15367667"><ele>5.400</ele><time>2026-07-24T14:33:56Z</time><speed>4.202</speed><sat>17</sat></trkpt>
  <trkpt lat="26.42271833" lon="-80.15373333"><ele>4.900</ele><time>2026-07-24T14:33:57Z</time><speed>4.494</speed><sat>17</sat></trkpt>
  <trkpt lat="26.42271833" lon="-80.15378833"><ele>5.000</ele><time>2026-07-24T14:33:58Z</time><speed>4.769</speed><sat>16</sat></trkpt>
  <trkpt lat="26.42271667" lon="-80.15384333"><ele>4.900</ele><time>2026-07-24T14:33:59Z</time><speed>4.955</speed><sat>16</sat></trkpt>
  <trkpt lat="26.42271333" lon="-80.15389833"><ele>5.099</ele><time>2026-07-24T14:34:00Z</time><speed>5.098</speed><sat>16</sat></trkpt>
  <trkpt lat="26.42270833" lon="-80.15394833"><ele>4.699</ele><time>2026-07-24T14:34:01Z</time><speed>5.200</speed><sat>17</sat></trkpt>
  <trkpt lat="26.42270833" lon="-80.15400333"><ele>4.099</ele><time>2026-07-24T14:34:02Z</time><speed>5.290</speed><sat>16</sat></trkpt>
  <trkpt lat="26.42271333" lon="-80.15406167"><ele>4.099</ele><time>2026-07-24T14:34:03Z</time><speed>5.412</speed><sat>17</sat></trkpt>
  <trkpt lat="26.42271500" lon="-80.15412167"><ele>4.298</ele><time>2026-07-24T14:34:04Z</time><speed>5.493</speed><sat>17</sat></trkpt>
  <trkpt lat="26.42271500" lon="-80.15417833"><ele>4.098</ele><time>2026-07-24T14:34:05Z</time><speed>5.574</speed><sat>17</sat></trkpt>
  <trkpt lat="26.42271500" lon="-80.15423500"><ele>3.898</ele><time>2026-07-24T14:34:06Z</time><speed>5.626</speed><sat>17</sat></trkpt>
  <trkpt lat="26.42271500" lon="-80.15428833"><ele>3.498</ele><time>2026-07-24T14:34:07Z</time><speed>5.652</speed><sat>17</sat></trkpt>
  <trkpt lat="26.42272000" lon="-80.15434333"><ele>4.197</ele><time>2026-07-24T14:34:08Z</time><speed>5.688</speed><sat>17</sat></trkpt>
  <trkpt lat="26.42272833" lon="-80.15440000"><ele>4.397</ele><time>2026-07-24T14:34:09Z</time><speed>5.672</speed><sat>17</sat></trkpt>
  <trkpt lat="26.42273667" lon="-80.15446000"><ele>4.797</ele><time>2026-07-24T14:34:10Z</time><speed>5.719</speed><sat>17</sat></trkpt>
  <trkpt lat="26.42274500" lon="-80.15452167"><ele>4.997</ele><time>2026-07-24T14:34:11Z</time><speed>5.796</speed><sat>16</sat></trkpt>
  <trkpt lat="26.42275500" lon="-80.15458167"><ele>5.296</ele><time>2026-07-24T14:34:12Z</time><speed>5.837</speed><sat>16</sat></trkpt>
  <trkpt lat="26.42276333" lon="-80.15464000"><ele>4.996</ele><time>2026-07-24T14:34:13Z</time><speed>5.818</speed><sat>17</sat></trkpt>
  <trkpt lat="26.42276667" lon="-80.15469833"><ele>4.196</ele><time>2026-07-24T14:34:14Z</time><speed>5.837</speed><sat>16</sat></trkpt>
  <trkpt lat="26.42277500" lon="-80.15476000"><ele>3.896</ele><time>2026-07-24T14:34:15Z</time><speed>5.851</speed><sat>17</sat></trkpt>
  <trkpt lat="26.42278167" lon="-80.15482000"><ele>3.296</ele><time>2026-07-24T14:34:16Z</time><speed>5.895</speed><sat>16</sat></trkpt>
  <trkpt lat="26.42279000" lon="-80.15488000"><ele>2.295</ele><time>2026-07-24T14:34:17Z</time><speed>5.960</speed><sat>17</sat></trkpt>
  <trkpt lat="26.42279833" lon="-80.15494333"><ele>1.595</ele><time>2026-07-24T14:34:18Z</time><speed>6.023</speed><sat>17</sat></trkpt>
  <trkpt lat="26.42281000" lon="-80.15501000"><ele>1.495</ele><time>2026-07-24T14:34:19Z</time><speed>6.093</speed><sat>17</sat></trkpt>
  <trkpt lat="26.42281667" lon="-80.15507000"><ele>1.295</ele><time>2026-07-24T14:34:20Z</time><speed>6.081</speed><sat>17</sat></trkpt>
  <trkpt lat="26.42282500" lon="-80.15513167"><ele>1.494</ele><time>2026-07-24T14:34:21Z</time><speed>6.068</speed><sat>17</sat></trkpt>
  <trkpt lat="26.42283000" lon="-80.15519333"><ele>1.494</ele><time>2026-07-24T14:34:22Z</time><speed>6.097</speed><sat>17</sat></trkpt>
  <trkpt lat="26.42283833" lon="-80.15525500"><ele>1.694</ele><time>2026-07-24T14:34:23Z</time><speed>6.127</speed><sat>17</sat></trkpt>
  <trkpt lat="26.42284500" lon="-80.15531667"><ele>1.894</ele><time>2026-07-24T14:34:24Z</time><speed>6.123</speed><sat>17</sat></trkpt>
  <trkpt lat="26.42285667" lon="-80.15537500"><ele>1.793</ele><time>2026-07-24T14:34:25Z</time><speed>6.130</speed><sat>17</sat></trkpt>
  <trkpt lat="26.42286000" lon="-80.15543500"><ele>1.293</ele><time>2026-07-24T14:34:26Z</time><speed>6.128</speed><sat>17</sat></trkpt>
  <trkpt lat="26.42286500" lon="-80.15549667"><ele>1.093</ele><time>2026-07-24T14:34:27Z</time><speed>6.099</speed><sat>17</sat></trkpt>
  <trkpt lat="26.42287167" lon="-80.15555500"><ele>0.793</ele><time>2026-07-24T14:34:28Z</time><speed>6.052</speed><sat>17</sat></trkpt>
  <trkpt lat="26.42287833" lon="-80.15561500"><ele>0.792</ele><time>2026-07-24T14:34:29Z</time><speed>6.039</speed><sat>16</sat></trkpt>
  <trkpt lat="26.42289000" lon="-80.15567667"><ele>1.092</ele><time>2026-07-24T14:34:30Z</time><speed>6.033</speed><sat>17</sat></trkpt>
  <trkpt lat="26.42290000" lon="-80.15573500"><ele>1.292</ele><time>2026-07-24T14:34:31Z</time><speed>5.997</speed><sat>16</sat></trkpt>
  <trkpt lat="26.42291500" lon="-80.15579833"><ele>1.492</ele><time>2026-07-24T14:34:32Z</time><speed>5.994</speed><sat>16</sat></trkpt>
  <trkpt lat="26.42292667" lon="-80.15586000"><ele>1.791</ele><time>2026-07-24T14:34:33Z</time><speed>6.008</speed><sat>16</sat></trkpt>
  <trkpt lat="26.42293500" lon="-80.15592000"><ele>1.691</ele><time>2026-07-24T14:34:34Z</time><speed>6.048</speed><sat>16</sat></trkpt>
  <trkpt lat="26.42294167" lon="-80.15598167"><ele>1.891</ele><time>2026-07-24T14:34:35Z</time><speed>6.077</speed><sat>16</sat></trkpt>
  <trkpt lat="26.42294500" lon="-80.15604167"><ele>1.791</ele><time>2026-07-24T14:34:36Z</time><speed>6.107</speed><sat>15</sat></trkpt>
  <trkpt lat="26.42294833" lon="-80.15610000"><ele>1.690</ele><time>2026-07-24T14:34:37Z</time><speed>6.143</speed><sat>15</sat></trkpt>
  <trkpt lat="26.42294833" lon="-80.15616333"><ele>1.890</ele><time>2026-07-24T14:34:38Z</time><speed>6.195</speed><sat>16</sat></trkpt>
  <trkpt lat="26.42295167" lon="-80.15622667"><ele>2.090</ele><time>2026-07-24T14:34:39Z</time><speed>6.251</speed><sat>16</sat></trkpt>
  <trkpt lat="26.42295167" lon="-80.15629167"><ele>2.390</ele><time>2026-07-24T14:34:40Z</time><speed>6.315</speed><sat>16</sat></trkpt>
  <trkpt lat="26.42295167" lon="-80.15635500"><ele>2.689</ele><time>2026-07-24T14:34:41Z</time><speed>6.397</speed><sat>16</sat></trkpt>
  <trkpt lat="26.42295000" lon="-80.15641667"><ele>3.089</ele><time>2026-07-24T14:34:42Z</time><speed>6.415</speed><sat>15</sat></trkpt>
  <trkpt lat="26.42295000" lon="-80.15648167"><ele>3.489</ele><time>2026-07-24T14:34:43Z</time><speed>6.422</speed><sat>16</sat></trkpt>
  <trkpt lat="26.42294667" lon="-80.15654667"><ele>3.389</ele><time>2026-07-24T14:34:44Z</time><speed>6.432</speed><sat>16</sat></trkpt>
  <trkpt lat="26.42294333" lon="-80.15661500"><ele>3.688</ele><time>2026-07-24T14:34:45Z</time><speed>6.468</speed><sat>15</sat></trkpt>
  <trkpt lat="26.42294333" lon="-80.15668333"><ele>3.988</ele><time>2026-07-24T14:34:46Z</time><speed>6.493</speed><sat>15</sat></trkpt>
  <trkpt lat="26.42293500" lon="-80.15675167"><ele>4.188</ele><time>2026-07-24T14:34:47Z</time><speed>6.533</speed><sat>15</sat></trkpt>
  <trkpt lat="26.42292833" lon="-80.15682000"><ele>4.387</ele><time>2026-07-24T14:34:48Z</time><speed>6.551</speed><sat>15</sat></trkpt>
  <trkpt lat="26.42292167" lon="-80.15688833"><ele>4.487</ele><time>2026-07-24T14:34:49Z</time><speed>6.592</speed><sat>15</sat></trkpt>
  <trkpt lat="26.42291167" lon="-80.15695833"><ele>4.187</ele><time>2026-07-24T14:34:50Z</time><speed>6.875</speed><sat>15</sat></trkpt>
  <trkpt lat="26.42290333" lon="-80.15702333"><ele>3.687</ele><time>2026-07-24T14:34:51Z</time><speed>6.740</speed><sat>15</sat></trkpt>
  <trkpt lat="26.42289167" lon="-80.15708500"><ele>3.186</ele><time>2026-07-24T14:34:52Z</time><speed>6.513</speed><sat>15</sat></trkpt>
  <trkpt lat="26.42288000" lon="-80.15714667"><ele>2.986</ele><time>2026-07-24T14:34:53Z</time><speed>6.709</speed><sat>15</sat></trkpt>
  <trkpt lat="26.42286833" lon="-80.15721000"><ele>2.586</ele><time>2026-07-24T14:34:54Z</time><speed>6.698</speed><sat>15</sat></trkpt>
  <trkpt lat="26.42286000" lon="-80.15727333"><ele>1.885</ele><time>2026-07-24T14:34:55Z</time><speed>6.697</speed><sat>15</sat></trkpt>
  <trkpt lat="26.42284833" lon="-80.15733333"><ele>1.085</ele><time>2026-07-24T14:34:56Z</time><speed>6.599</speed><sat>15</sat></trkpt>
  <trkpt lat="26.42283500" lon="-80.15739667"><ele>1.185</ele><time>2026-07-24T14:34:57Z</time><speed>6.702</speed><sat>15</sat></trkpt>
  <trkpt lat="26.42282167" lon="-80.15746333"><ele>1.085</ele><time>2026-07-24T14:34:58Z</time><speed>6.819</speed><sat>15</sat></trkpt>
  <trkpt lat="26.42281000" lon="-80.15753167"><ele>1.184</ele><time>2026-07-24T14:34:59Z</time><speed>6.802</speed><sat>15</sat></trkpt>
  <trkpt lat="26.42280167" lon="-80.15759667"><ele>0.884</ele><time>2026-07-24T14:35:00Z</time><speed>6.608</speed><sat>15</sat></trkpt>
  <trkpt lat="26.42279167" lon="-80.15766500"><ele>1.084</ele><time>2026-07-24T14:35:01Z</time><speed>6.642</speed><sat>15</sat></trkpt>
  <trkpt lat="26.42278167" lon="-80.15773000"><ele>0.884</ele><time>2026-07-24T14:35:02Z</time><speed>6.545</speed><sat>16</sat></trkpt>
  <trkpt lat="26.42277167" lon="-80.15779333"><ele>0.483</ele><time>2026-07-24T14:35:03Z</time><speed>6.367</speed><sat>16</sat></trkpt>
  <trkpt lat="26.42276500" lon="-80.15785833"><ele>0.183</ele><time>2026-07-24T14:35:04Z</time><speed>6.472</speed><sat>16</sat></trkpt>
  <trkpt lat="26.42275667" lon="-80.15790833"><ele>-1.117</ele><time>2026-07-24T14:35:05Z</time><speed>6.219</speed><sat>16</sat></trkpt>
  <trkpt lat="26.42274667" lon="-80.15796833"><ele>-1.517</ele><time>2026-07-24T14:35:06Z</time><speed>6.229</speed><sat>16</sat></trkpt>
  <trkpt lat="26.42273500" lon="-80.15803167"><ele>-2.118</ele><time>2026-07-24T14:35:07Z</time><speed>6.250</speed><sat>16</sat></trkpt>
  <trkpt lat="26.42273167" lon="-80.15809667"><ele>-2.118</ele><time>2026-07-24T14:35:08Z</time><speed>6.274</speed><sat>16</sat></trkpt>
  <trkpt lat="26.42272333" lon="-80.15815833"><ele>-2.818</ele><time>2026-07-24T14:35:09Z</time><speed>6.275</speed><sat>16</sat></trkpt>
  <trkpt lat="26.42273333" lon="-80.15822167"><ele>-1.619</ele><time>2026-07-24T14:35:10Z</time><speed>6.371</speed><sat>16</sat></trkpt>
  <trkpt lat="26.42273500" lon="-80.15828833"><ele>-1.519</ele><time>2026-07-24T14:35:11Z</time><speed>6.393</speed><sat>15</sat></trkpt>
  <trkpt lat="26.42273000" lon="-80.15835500"><ele>-1.419</ele><time>2026-07-24T14:35:12Z</time><speed>6.354</speed><sat>16</sat></trkpt>
  <trkpt lat="26.42273000" lon="-80.15842000"><ele>-0.519</ele><time>2026-07-24T14:35:13Z</time><speed>6.315</speed><sat>16</sat></trkpt>
  <trkpt lat="26.42272833" lon="-80.15848333"><ele>-0.520</ele><time>2026-07-24T14:35:14Z</time><speed>6.460</speed><sat>16</sat></trkpt>
  <trkpt lat="26.42273333" lon="-80.15855167"><ele>-0.420</ele><time>2026-07-24T14:35:15Z</time><speed>6.724</speed><sat>16</sat></trkpt>
  <trkpt lat="26.42272833" lon="-80.15861833"><ele>-0.320</ele><time>2026-07-24T14:35:16Z</time><speed>6.585</speed><sat>16</sat></trkpt>
  <trkpt lat="26.42272833" lon="-80.15868833"><ele>-0.120</ele><time>2026-07-24T14:35:17Z</time><speed>6.742</speed><sat>16</sat></trkpt>
  <trkpt lat="26.42272667" lon="-80.15875833"><ele>0.279</ele><time>2026-07-24T14:35:18Z</time><speed>6.519</speed><sat>16</sat></trkpt>
  <trkpt lat="26.42272333" lon="-80.15882333"><ele>0.679</ele><time>2026-07-24T14:35:19Z</time><speed>6.559</speed><sat>16</sat></trkpt>
  <trkpt lat="26.42272500" lon="-80.15889500"><ele>0.779</ele><time>2026-07-24T14:35:20Z</time><speed>6.560</speed><sat>15</sat></trkpt>
  <trkpt lat="26.42272167" lon="-80.15895667"><ele>0.578</ele><time>2026-07-24T14:35:21Z</time><speed>6.295</speed><sat>16</sat></trkpt>
  <trkpt lat="26.42272167" lon="-80.15902500"><ele>0.978</ele><time>2026-07-24T14:35:22Z</time><speed>6.481</speed><sat>16</sat></trkpt>
  <trkpt lat="26.42271667" lon="-80.15909333"><ele>1.278</ele><time>2026-07-24T14:35:23Z</time><speed>6.172</speed><sat>16</sat></trkpt>
  <trkpt lat="26.42271500" lon="-80.15916000"><ele>1.478</ele><time>2026-07-24T14:35:24Z</time><speed>6.549</speed><sat>16</sat></trkpt>
  <trkpt lat="26.42270500" lon="-80.15922167"><ele>1.677</ele><time>2026-07-24T14:35:25Z</time><speed>6.329</speed><sat>16</sat></trkpt>
  <trkpt lat="26.42269833" lon="-80.15929333"><ele>1.877</ele><time>2026-07-24T14:35:26Z</time><speed>6.348</speed><sat>15</sat></trkpt>
  <trkpt lat="26.42268000" lon="-80.15935333"><ele>2.177</ele><time>2026-07-24T14:35:27Z</time><speed>6.224</speed><sat>16</sat></trkpt>
  <trkpt lat="26.42265833" lon="-80.15941167"><ele>2.477</ele><time>2026-07-24T14:35:28Z</time><speed>6.358</speed><sat>16</sat></trkpt>
  <trkpt lat="26.42263333" lon="-80.15946833"><ele>2.576</ele><time>2026-07-24T14:35:29Z</time><speed>6.382</speed><sat>16</sat></trkpt>
  <trkpt lat="26.42260333" lon="-80.15952333"><ele>2.776</ele><time>2026-07-24T14:35:30Z</time><speed>6.530</speed><sat>16</sat></trkpt>
  <trkpt lat="26.42256833" lon="-80.15957667"><ele>3.076</ele><time>2026-07-24T14:35:31Z</time><speed>6.399</speed><sat>16</sat></trkpt>
  <trkpt lat="26.42253000" lon="-80.15962500"><ele>3.476</ele><time>2026-07-24T14:35:32Z</time><speed>6.391</speed><sat>15</sat></trkpt>
  <trkpt lat="26.42248667" lon="-80.15967167"><ele>3.975</ele><time>2026-07-24T14:35:33Z</time><speed>6.233</speed><sat>15</sat></trkpt>
  <trkpt lat="26.42244333" lon="-80.15971167"><ele>4.375</ele><time>2026-07-24T14:35:34Z</time><speed>5.940</speed><sat>15</sat></trkpt>
  <trkpt lat="26.42240000" lon="-80.15975000"><ele>4.275</ele><time>2026-07-24T14:35:35Z</time><speed>6.135</speed><sat>15</sat></trkpt>
  <trkpt lat="26.42234667" lon="-80.15977333"><ele>4.275</ele><time>2026-07-24T14:35:36Z</time><speed>5.813</speed><sat>16</sat></trkpt>
  <trkpt lat="26.42229000" lon="-80.15979000"><ele>4.075</ele><time>2026-07-24T14:35:37Z</time><speed>5.998</speed><sat>16</sat></trkpt>
  <trkpt lat="26.42223667" lon="-80.15981167"><ele>4.375</ele><time>2026-07-24T14:35:38Z</time><speed>6.213</speed><sat>16</sat></trkpt>
  <trkpt lat="26.42218167" lon="-80.15982500"><ele>4.575</ele><time>2026-07-24T14:35:39Z</time><speed>6.119</speed><sat>16</sat></trkpt>
  <trkpt lat="26.42213167" lon="-80.15983667"><ele>4.975</ele><time>2026-07-24T14:35:40Z</time><speed>5.809</speed><sat>16</sat></trkpt>
  <trkpt lat="26.42208000" lon="-80.15985000"><ele>4.974</ele><time>2026-07-24T14:35:41Z</time><speed>6.232</speed><sat>16</sat></trkpt>
  <trkpt lat="26.42203167" lon="-80.15986000"><ele>4.774</ele><time>2026-07-24T14:35:42Z</time><speed>6.195</speed><sat>16</sat></trkpt>
  <trkpt lat="26.42198000" lon="-80.15986000"><ele>4.374</ele><time>2026-07-24T14:35:43Z</time><speed>6.185</speed><sat>16</sat></trkpt>
  <trkpt lat="26.42193167" lon="-80.15985833"><ele>4.474</ele><time>2026-07-24T14:35:44Z</time><speed>6.380</speed><sat>16</sat></trkpt>
  <trkpt lat="26.42188167" lon="-80.15985833"><ele>3.874</ele><time>2026-07-24T14:35:45Z</time><speed>5.918</speed><sat>16</sat></trkpt>
  <trkpt lat="26.42182667" lon="-80.15986000"><ele>3.974</ele><time>2026-07-24T14:35:46Z</time><speed>6.272</speed><sat>16</sat></trkpt>
  <trkpt lat="26.42177167" lon="-80.15985333"><ele>3.874</ele><time>2026-07-24T14:35:47Z</time><speed>6.608</speed><sat>16</sat></trkpt>
  <trkpt lat="26.42171167" lon="-80.15984000"><ele>4.174</ele><time>2026-07-24T14:35:48Z</time><speed>6.325</speed><sat>15</sat></trkpt>
  <trkpt lat="26.42166000" lon="-80.15982167"><ele>3.674</ele><time>2026-07-24T14:35:49Z</time><speed>6.069</speed><sat>15</sat></trkpt>
  <trkpt lat="26.42161000" lon="-80.15979500"><ele>4.374</ele><time>2026-07-24T14:35:50Z</time><speed>6.208</speed><sat>15</sat></trkpt>
  <trkpt lat="26.42155833" lon="-80.15977000"><ele>4.674</ele><time>2026-07-24T14:35:51Z</time><speed>5.938</speed><sat>15</sat></trkpt>
  <trkpt lat="26.42151167" lon="-80.15974500"><ele>4.575</ele><time>2026-07-24T14:35:52Z</time><speed>6.171</speed><sat>15</sat></trkpt>
  <trkpt lat="26.42146000" lon="-80.15972167"><ele>4.375</ele><time>2026-07-24T14:35:53Z</time><speed>6.143</speed><sat>15</sat></trkpt>
  <trkpt lat="26.42141333" lon="-80.15969333"><ele>4.075</ele><time>2026-07-24T14:35:54Z</time><speed>6.143</speed><sat>15</sat></trkpt>
  <trkpt lat="26.42136667" lon="-80.15965667"><ele>3.675</ele><time>2026-07-24T14:35:55Z</time><speed>6.057</speed><sat>15</sat></trkpt>
  <trkpt lat="26.42132000" lon="-80.15961833"><ele>3.575</ele><time>2026-07-24T14:35:56Z</time><speed>6.044</speed><sat>15</sat></trkpt>
  <trkpt lat="26.42127333" lon="-80.15957667"><ele>3.975</ele><time>2026-07-24T14:35:57Z</time><speed>6.127</speed><sat>15</sat></trkpt>
  <trkpt lat="26.42122833" lon="-80.15953333"><ele>3.975</ele><time>2026-07-24T14:35:58Z</time><speed>6.138</speed><sat>15</sat></trkpt>
  <trkpt lat="26.42118833" lon="-80.15949167"><ele>4.375</ele><time>2026-07-24T14:35:59Z</time><speed>6.277</speed><sat>15</sat></trkpt>
  <trkpt lat="26.42114500" lon="-80.15944500"><ele>4.576</ele><time>2026-07-24T14:36:00Z</time><speed>6.255</speed><sat>15</sat></trkpt>
  <trkpt lat="26.42110000" lon="-80.15939667"><ele>4.876</ele><time>2026-07-24T14:36:01Z</time><speed>6.237</speed><sat>16</sat></trkpt>
  <trkpt lat="26.42106167" lon="-80.15935333"><ele>5.176</ele><time>2026-07-24T14:36:02Z</time><speed>6.105</speed><sat>16</sat></trkpt>
  <trkpt lat="26.42102667" lon="-80.15931500"><ele>4.776</ele><time>2026-07-24T14:36:03Z</time><speed>6.103</speed><sat>16</sat></trkpt>
  <trkpt lat="26.42098333" lon="-80.15927167"><ele>4.876</ele><time>2026-07-24T14:36:04Z</time><speed>6.226</speed><sat>16</sat></trkpt>
  <trkpt lat="26.42094000" lon="-80.15923000"><ele>4.376</ele><time>2026-07-24T14:36:05Z</time><speed>6.243</speed><sat>15</sat></trkpt>
  <trkpt lat="26.42089167" lon="-80.15918667"><ele>3.977</ele><time>2026-07-24T14:36:06Z</time><speed>6.424</speed><sat>15</sat></trkpt>
  <trkpt lat="26.42085167" lon="-80.15914333"><ele>3.877</ele><time>2026-07-24T14:36:07Z</time><speed>6.566</speed><sat>15</sat></trkpt>
  <trkpt lat="26.42081000" lon="-80.15910000"><ele>4.177</ele><time>2026-07-24T14:36:08Z</time><speed>6.444</speed><sat>15</sat></trkpt>
  <trkpt lat="26.42076833" lon="-80.15906167"><ele>4.377</ele><time>2026-07-24T14:36:09Z</time><speed>6.342</speed><sat>15</sat></trkpt>
  <trkpt lat="26.42072833" lon="-80.15903000"><ele>4.477</ele><time>2026-07-24T14:36:10Z</time><speed>6.015</speed><sat>15</sat></trkpt>
  <trkpt lat="26.42068167" lon="-80.15899667"><ele>3.977</ele><time>2026-07-24T14:36:11Z</time><speed>6.624</speed><sat>15</sat></trkpt>
  <trkpt lat="26.42064167" lon="-80.15896000"><ele>3.777</ele><time>2026-07-24T14:36:12Z</time><speed>6.171</speed><sat>15</sat></trkpt>
  <trkpt lat="26.42059333" lon="-80.15891667"><ele>3.477</ele><time>2026-07-24T14:36:13Z</time><speed>6.387</speed><sat>15</sat></trkpt>
  <trkpt lat="26.42054000" lon="-80.15887000"><ele>4.078</ele><time>2026-07-24T14:36:14Z</time><speed>6.362</speed><sat>16</sat></trkpt>
  <trkpt lat="26.42048500" lon="-80.15882833"><ele>3.878</ele><time>2026-07-24T14:36:15Z</time><speed>6.324</speed><sat>15</sat></trkpt>
  <trkpt lat="26.42043000" lon="-80.15878667"><ele>4.378</ele><time>2026-07-24T14:36:16Z</time><speed>6.355</speed><sat>15</sat></trkpt>
  <trkpt lat="26.42038000" lon="-80.15875167"><ele>4.578</ele><time>2026-07-24T14:36:17Z</time><speed>6.344</speed><sat>16</sat></trkpt>
  <trkpt lat="26.42033333" lon="-80.15871833"><ele>4.878</ele><time>2026-07-24T14:36:18Z</time><speed>5.723</speed><sat>16</sat></trkpt>
  <trkpt lat="26.42028833" lon="-80.15868333"><ele>4.978</ele><time>2026-07-24T14:36:19Z</time><speed>6.070</speed><sat>15</sat></trkpt>
  <trkpt lat="26.42024500" lon="-80.15865667"><ele>5.578</ele><time>2026-07-24T14:36:20Z</time><speed>5.343</speed><sat>15</sat></trkpt>
  <trkpt lat="26.42021167" lon="-80.15863833"><ele>5.578</ele><time>2026-07-24T14:36:21Z</time><speed>4.308</speed><sat>16</sat></trkpt>
  <trkpt lat="26.42019000" lon="-80.15862833"><ele>5.378</ele><time>2026-07-24T14:36:22Z</time><speed>3.410</speed><sat>16</sat></trkpt>
  <trkpt lat="26.42017500" lon="-80.15862333"><ele>5.378</ele><time>2026-07-24T14:36:23Z</time><speed>2.954</speed><sat>16</sat></trkpt>
  <trkpt lat="26.42014333" lon="-80.15861667"><ele>5.178</ele><time>2026-07-24T14:36:24Z</time><speed>2.969</speed><sat>16</sat></trkpt>
  <trkpt lat="26.42011000" lon="-80.15861500"><ele>5.078</ele><time>2026-07-24T14:36:25Z</time><speed>3.411</speed><sat>16</sat></trkpt>
  <trkpt lat="26.42007333" lon="-80.15862500"><ele>4.478</ele><time>2026-07-24T14:36:26Z</time><speed>3.139</speed><sat>16</sat></trkpt>
  <trkpt lat="26.42004000" lon="-80.15867667"><ele>4.478</ele><time>2026-07-24T14:36:27Z</time><speed>5.019</speed><sat>16</sat></trkpt>
  <trkpt lat="26.42000833" lon="-80.15872333"><ele>3.678</ele><time>2026-07-24T14:36:28Z</time><speed>5.730</speed><sat>16</sat></trkpt>
  <trkpt lat="26.41997167" lon="-80.15877500"><ele>3.778</ele><time>2026-07-24T14:36:29Z</time><speed>5.521</speed><sat>16</sat></trkpt>
  <trkpt lat="26.41994000" lon="-80.15882167"><ele>3.077</ele><time>2026-07-24T14:36:30Z</time><speed>5.612</speed><sat>16</sat></trkpt>
  <trkpt lat="26.41990667" lon="-80.15886833"><ele>1.577</ele><time>2026-07-24T14:36:31Z</time><speed>4.960</speed><sat>16</sat></trkpt>
  <trkpt lat="26.41987167" lon="-80.15891167"><ele>1.377</ele><time>2026-07-24T14:36:32Z</time><speed>5.772</speed><sat>16</sat></trkpt>
  <trkpt lat="26.41983000" lon="-80.15896167"><ele>2.677</ele><time>2026-07-24T14:36:33Z</time><speed>5.896</speed><sat>16</sat></trkpt>
  <trkpt lat="26.41979167" lon="-80.15901000"><ele>2.877</ele><time>2026-07-24T14:36:34Z</time><speed>6.056</speed><sat>16</sat></trkpt>
  <trkpt lat="26.41975667" lon="-80.15905500"><ele>3.476</ele><time>2026-07-24T14:36:35Z</time><speed>5.718</speed><sat>16</sat></trkpt>
  <trkpt lat="26.41973000" lon="-80.15909500"><ele>2.876</ele><time>2026-07-24T14:36:36Z</time><speed>5.610</speed><sat>16</sat></trkpt>
  <trkpt lat="26.41970500" lon="-80.15912833"><ele>2.576</ele><time>2026-07-24T14:36:37Z</time><speed>4.268</speed><sat>15</sat></trkpt>
  <trkpt lat="26.41968167" lon="-80.15915167"><ele>2.676</ele><time>2026-07-24T14:36:38Z</time><speed>2.817</speed><sat>16</sat></trkpt>
  <trkpt lat="26.41966833" lon="-80.15917000"><ele>2.776</ele><time>2026-07-24T14:36:39Z</time><speed>0.000</speed><sat>16</sat></trkpt>
  <trkpt lat="26.41966500" lon="-80.15917500"><ele>2.876</ele><time>2026-07-24T14:36:40Z</time><speed>0.000</speed><sat>15</sat></trkpt>
  <trkpt lat="26.41966500" lon="-80.15917667"><ele>3.076</ele><time>2026-07-24T14:36:41Z</time><speed>0.000</speed><sat>15</sat></trkpt>
  <trkpt lat="26.41966500" lon="-80.15917667"><ele>3.076</ele><time>2026-07-24T14:36:42Z</time><speed>0.000</speed><sat>15</sat></trkpt>
  <trkpt lat="26.41966500" lon="-80.15917667"><ele>3.076</ele><time>2026-07-24T14:36:43Z</time><speed>0.000</speed><sat>15</sat></trkpt>
  <trkpt lat="26.41966500" lon="-80.15917667"><ele>3.076</ele><time>2026-07-24T14:36:44Z</time><speed>0.000</speed><sat>15</sat></trkpt>
  <trkpt lat="26.41966500" lon="-80.15917667"><ele>3.076</ele><time>2026-07-24T14:36:45Z</time><speed>0.000</speed><sat>15</sat></trkpt>
  <trkpt lat="26.41966500" lon="-80.15917667"><ele>3.076</ele><time>2026-07-24T14:36:46Z</time><speed>0.000</speed><sat>15</sat></trkpt>
  <trkpt lat="26.41966500" lon="-80.15917667"><ele>3.076</ele><time>2026-07-24T14:36:47Z</time><speed>0.000</speed><sat>15</sat></trkpt>
  <trkpt lat="26.41966500" lon="-80.15917667"><ele>3.076</ele><time>2026-07-24T14:36:48Z</time><speed>0.000</speed><sat>15</sat></trkpt>
  <trkpt lat="26.41966500" lon="-80.15917667"><ele>3.076</ele><time>2026-07-24T14:36:49Z</time><speed>0.000</speed><sat>15</sat></trkpt>
  <trkpt lat="26.41966500" lon="-80.15917667"><ele>3.076</ele><time>2026-07-24T14:36:50Z</time><speed>0.000</speed><sat>15</sat></trkpt>
  <trkpt lat="26.41966500" lon="-80.15917667"><ele>3.076</ele><time>2026-07-24T14:36:51Z</time><speed>0.000</speed><sat>16</sat></trkpt>
  <trkpt lat="26.41966500" lon="-80.15917667"><ele>3.076</ele><time>2026-07-24T14:36:52Z</time><speed>0.000</speed><sat>16</sat></trkpt>
  <trkpt lat="26.41966500" lon="-80.15917667"><ele>3.076</ele><time>2026-07-24T14:36:53Z</time><speed>0.000</speed><sat>16</sat></trkpt>
  <trkpt lat="26.41966500" lon="-80.15917667"><ele>3.076</ele><time>2026-07-24T14:36:54Z</time><speed>0.000</speed><sat>16</sat></trkpt>
  <trkpt lat="26.41966000" lon="-80.15917500"><ele>3.576</ele><time>2026-07-24T14:36:55Z</time><speed>1.747</speed><sat>16</sat></trkpt>
  <trkpt lat="26.41964667" lon="-80.15919500"><ele>3.476</ele><time>2026-07-24T14:36:56Z</time><speed>1.994</speed><sat>16</sat></trkpt>
  <trkpt lat="26.41963333" lon="-80.15921500"><ele>3.576</ele><time>2026-07-24T14:36:57Z</time><speed>2.559</speed><sat>16</sat></trkpt>
  <trkpt lat="26.41961167" lon="-80.15924000"><ele>3.476</ele><time>2026-07-24T14:36:58Z</time><speed>3.210</speed><sat>16</sat></trkpt>
  <trkpt lat="26.41957833" lon="-80.15925833"><ele>3.375</ele><time>2026-07-24T14:36:59Z</time><speed>3.638</speed><sat>16</sat></trkpt>
  <trkpt lat="26.41954500" lon="-80.15926167"><ele>3.675</ele><time>2026-07-24T14:37:00Z</time><speed>4.001</speed><sat>16</sat></trkpt>
  <trkpt lat="26.41951167" lon="-80.15926167"><ele>3.375</ele><time>2026-07-24T14:37:01Z</time><speed>3.920</speed><sat>16</sat></trkpt>
  <trkpt lat="26.41948167" lon="-80.15925667"><ele>3.675</ele><time>2026-07-24T14:37:02Z</time><speed>3.527</speed><sat>16</sat></trkpt>
  <trkpt lat="26.41944833" lon="-80.15924000"><ele>3.675</ele><time>2026-07-24T14:37:03Z</time><speed>4.148</speed><sat>16</sat></trkpt>
  <trkpt lat="26.41941667" lon="-80.15920333"><ele>3.676</ele><time>2026-07-24T14:37:04Z</time><speed>4.575</speed><sat>16</sat></trkpt>
  <trkpt lat="26.41938167" lon="-80.15916500"><ele>4.076</ele><time>2026-07-24T14:37:05Z</time><speed>4.069</speed><sat>16</sat></trkpt>
  <trkpt lat="26.41934667" lon="-80.15913333"><ele>3.976</ele><time>2026-07-24T14:37:06Z</time><speed>4.197</speed><sat>16</sat></trkpt>
  <trkpt lat="26.41931167" lon="-80.15910167"><ele>3.676</ele><time>2026-07-24T14:37:07Z</time><speed>4.441</speed><sat>16</sat></trkpt>
  <trkpt lat="26.41928000" lon="-80.15907500"><ele>3.276</ele><time>2026-07-24T14:37:08Z</time><speed>4.714</speed><sat>16</sat></trkpt>
  <trkpt lat="26.41924500" lon="-80.15904667"><ele>3.276</ele><time>2026-07-24T14:37:09Z</time><speed>4.625</speed><sat>16</sat></trkpt>
  <trkpt lat="26.41920833" lon="-80.15902500"><ele>3.276</ele><time>2026-07-24T14:37:10Z</time><speed>5.090</speed><sat>16</sat></trkpt>
  <trkpt lat="26.41917000" lon="-80.15899667"><ele>3.776</ele><time>2026-07-24T14:37:11Z</time><speed>4.943</speed><sat>16</sat></trkpt>
  <trkpt lat="26.41913167" lon="-80.15896500"><ele>3.576</ele><time>2026-07-24T14:37:12Z</time><speed>4.903</speed><sat>16</sat></trkpt>
  <trkpt lat="26.41909167" lon="-80.15893833"><ele>4.277</ele><time>2026-07-24T14:37:13Z</time><speed>4.821</speed><sat>16</sat></trkpt>
  <trkpt lat="26.41904833" lon="-80.15891167"><ele>5.077</ele><time>2026-07-24T14:37:14Z</time><speed>4.849</speed><sat>16</sat></trkpt>
  <trkpt lat="26.41900833" lon="-80.15888333"><ele>5.977</ele><time>2026-07-24T14:37:15Z</time><speed>5.061</speed><sat>16</sat></trkpt>
  <trkpt lat="26.41897333" lon="-80.15885667"><ele>6.077</ele><time>2026-07-24T14:37:16Z</time><speed>4.880</speed><sat>16</sat></trkpt>
  <trkpt lat="26.41893667" lon="-80.15882667"><ele>6.677</ele><time>2026-07-24T14:37:17Z</time><speed>5.155</speed><sat>16</sat></trkpt>
  <trkpt lat="26.41890167" lon="-80.15879667"><ele>6.977</ele><time>2026-07-24T14:37:18Z</time><speed>5.126</speed><sat>16</sat></trkpt>
  <trkpt lat="26.41886333" lon="-80.15876333"><ele>6.777</ele><time>2026-07-24T14:37:19Z</time><speed>5.094</speed><sat>16</sat></trkpt>
  <trkpt lat="26.41882167" lon="-80.15872667"><ele>6.477</ele><time>2026-07-24T14:37:20Z</time><speed>5.199</speed><sat>16</sat></trkpt>
  <trkpt lat="26.41878333" lon="-80.15869667"><ele>6.477</ele><time>2026-07-24T14:37:21Z</time><speed>5.095</speed><sat>16</sat></trkpt>
  <trkpt lat="26.41874167" lon="-80.15867333"><ele>6.177</ele><time>2026-07-24T14:37:22Z</time><speed>4.833</speed><sat>16</sat></trkpt>
  <trkpt lat="26.41870333" lon="-80.15864167"><ele>5.978</ele><time>2026-07-24T14:37:23Z</time><speed>5.333</speed><sat>16</sat></trkpt>
  <trkpt lat="26.41866667" lon="-80.15861000"><ele>6.378</ele><time>2026-07-24T14:37:24Z</time><speed>5.299</speed><sat>16</sat></trkpt>
  <trkpt lat="26.41862167" lon="-80.15857667"><ele>7.178</ele><time>2026-07-24T14:37:25Z</time><speed>5.327</speed><sat>16</sat></trkpt>
  <trkpt lat="26.41858167" lon="-80.15854667"><ele>7.478</ele><time>2026-07-24T14:37:26Z</time><speed>5.194</speed><sat>16</sat></trkpt>
  <trkpt lat="26.41854833" lon="-80.15851833"><ele>7.678</ele><time>2026-07-24T14:37:27Z</time><speed>5.232</speed><sat>16</sat></trkpt>
  <trkpt lat="26.41850500" lon="-80.15848667"><ele>8.178</ele><time>2026-07-24T14:37:28Z</time><speed>5.200</speed><sat>16</sat></trkpt>
  <trkpt lat="26.41846333" lon="-80.15845333"><ele>7.878</ele><time>2026-07-24T14:37:29Z</time><speed>5.065</speed><sat>16</sat></trkpt>
  <trkpt lat="26.41842500" lon="-80.15842500"><ele>7.478</ele><time>2026-07-24T14:37:30Z</time><speed>5.625</speed><sat>16</sat></trkpt>
  <trkpt lat="26.41838667" lon="-80.15839667"><ele>6.578</ele><time>2026-07-24T14:37:31Z</time><speed>5.097</speed><sat>16</sat></trkpt>
  <trkpt lat="26.41834833" lon="-80.15836667"><ele>5.678</ele><time>2026-07-24T14:37:32Z</time><speed>5.391</speed><sat>16</sat></trkpt>
  <trkpt lat="26.41831000" lon="-80.15833500"><ele>5.479</ele><time>2026-07-24T14:37:33Z</time><speed>5.277</speed><sat>16</sat></trkpt>
  <trkpt lat="26.41827167" lon="-80.15830000"><ele>4.079</ele><time>2026-07-24T14:37:34Z</time><speed>5.312</speed><sat>16</sat></trkpt>
  <trkpt lat="26.41823167" lon="-80.15826167"><ele>3.179</ele><time>2026-07-24T14:37:35Z</time><speed>5.643</speed><sat>16</sat></trkpt>
  <trkpt lat="26.41819500" lon="-80.15822000"><ele>2.379</ele><time>2026-07-24T14:37:36Z</time><speed>5.503</speed><sat>16</sat></trkpt>
  <trkpt lat="26.41815167" lon="-80.15818500"><ele>1.879</ele><time>2026-07-24T14:37:37Z</time><speed>5.540</speed><sat>16</sat></trkpt>
  <trkpt lat="26.41811667" lon="-80.15815000"><ele>1.479</ele><time>2026-07-24T14:37:38Z</time><speed>5.654</speed><sat>16</sat></trkpt>
  <trkpt lat="26.41807500" lon="-80.15811167"><ele>1.179</ele><time>2026-07-24T14:37:39Z</time><speed>5.785</speed><sat>16</sat></trkpt>
  <trkpt lat="26.41803500" lon="-80.15807333"><ele>1.379</ele><time>2026-07-24T14:37:40Z</time><speed>6.038</speed><sat>16</sat></trkpt>
  <trkpt lat="26.41799000" lon="-80.15803500"><ele>1.980</ele><time>2026-07-24T14:37:41Z</time><speed>5.708</speed><sat>16</sat></trkpt>
  <trkpt lat="26.41794500" lon="-80.15800333"><ele>1.880</ele><time>2026-07-24T14:37:42Z</time><speed>5.901</speed><sat>15</sat></trkpt>
  <trkpt lat="26.41789667" lon="-80.15797833"><ele>2.480</ele><time>2026-07-24T14:37:43Z</time><speed>5.812</speed><sat>15</sat></trkpt>
  <trkpt lat="26.41784667" lon="-80.15795167"><ele>3.880</ele><time>2026-07-24T14:37:44Z</time><speed>5.969</speed><sat>15</sat></trkpt>
  <trkpt lat="26.41779833" lon="-80.15793000"><ele>3.880</ele><time>2026-07-24T14:37:45Z</time><speed>6.120</speed><sat>15</sat></trkpt>
  <trkpt lat="26.41774833" lon="-80.15791000"><ele>3.780</ele><time>2026-07-24T14:37:46Z</time><speed>6.128</speed><sat>16</sat></trkpt>
  <trkpt lat="26.41770333" lon="-80.15789333"><ele>3.580</ele><time>2026-07-24T14:37:47Z</time><speed>6.043</speed><sat>16</sat></trkpt>
  <trkpt lat="26.41765500" lon="-80.15787833"><ele>3.780</ele><time>2026-07-24T14:37:48Z</time><speed>5.958</speed><sat>16</sat></trkpt>
  <trkpt lat="26.41760333" lon="-80.15786000"><ele>4.180</ele><time>2026-07-24T14:37:49Z</time><speed>5.860</speed><sat>17</sat></trkpt>
  <trkpt lat="26.41755167" lon="-80.15784333"><ele>5.080</ele><time>2026-07-24T14:37:50Z</time><speed>5.574</speed><sat>17</sat></trkpt>
  <trkpt lat="26.41750167" lon="-80.15782333"><ele>5.180</ele><time>2026-07-24T14:37:51Z</time><speed>5.678</speed><sat>17</sat></trkpt>
  <trkpt lat="26.41745000" lon="-80.15781000"><ele>5.380</ele><time>2026-07-24T14:37:52Z</time><speed>5.676</speed><sat>17</sat></trkpt>
  <trkpt lat="26.41739833" lon="-80.15779167"><ele>6.280</ele><time>2026-07-24T14:37:53Z</time><speed>5.713</speed><sat>17</sat></trkpt>
  <trkpt lat="26.41734833" lon="-80.15777833"><ele>6.280</ele><time>2026-07-24T14:37:54Z</time><speed>5.738</speed><sat>17</sat></trkpt>
  <trkpt lat="26.41729667" lon="-80.15776333"><ele>6.880</ele><time>2026-07-24T14:37:55Z</time><speed>5.723</speed><sat>17</sat></trkpt>
  <trkpt lat="26.41724333" lon="-80.15775167"><ele>7.180</ele><time>2026-07-24T14:37:56Z</time><speed>5.637</speed><sat>17</sat></trkpt>
  <trkpt lat="26.41719333" lon="-80.15774167"><ele>6.880</ele><time>2026-07-24T14:37:57Z</time><speed>5.665</speed><sat>17</sat></trkpt>
  <trkpt lat="26.41714500" lon="-80.15773667"><ele>6.280</ele><time>2026-07-24T14:37:58Z</time><speed>5.406</speed><sat>17</sat></trkpt>
  <trkpt lat="26.41709667" lon="-80.15773333"><ele>5.780</ele><time>2026-07-24T14:37:59Z</time><speed>5.582</speed><sat>17</sat></trkpt>
  <trkpt lat="26.41704833" lon="-80.15773333"><ele>5.480</ele><time>2026-07-24T14:38:00Z</time><speed>5.592</speed><sat>17</sat></trkpt>
  <trkpt lat="26.41700000" lon="-80.15774000"><ele>5.280</ele><time>2026-07-24T14:38:01Z</time><speed>5.354</speed><sat>17</sat></trkpt>
  <trkpt lat="26.41695000" lon="-80.15774833"><ele>5.280</ele><time>2026-07-24T14:38:02Z</time><speed>5.604</speed><sat>17</sat></trkpt>
  <trkpt lat="26.41689167" lon="-80.15775333"><ele>4.980</ele><time>2026-07-24T14:38:03Z</time><speed>5.722</speed><sat>17</sat></trkpt>
  <trkpt lat="26.41684167" lon="-80.15775167"><ele>5.380</ele><time>2026-07-24T14:38:04Z</time><speed>5.637</speed><sat>17</sat></trkpt>
  <trkpt lat="26.41679000" lon="-80.15775333"><ele>5.180</ele><time>2026-07-24T14:38:05Z</time><speed>5.541</speed><sat>17</sat></trkpt>
  <trkpt lat="26.41673833" lon="-80.15775333"><ele>5.180</ele><time>2026-07-24T14:38:06Z</time><speed>5.682</speed><sat>17</sat></trkpt>
  <trkpt lat="26.41668167" lon="-80.15775667"><ele>5.780</ele><time>2026-07-24T14:38:07Z</time><speed>5.442</speed><sat>17</sat></trkpt>
  <trkpt lat="26.41663333" lon="-80.15776333"><ele>5.780</ele><time>2026-07-24T14:38:08Z</time><speed>5.572</speed><sat>17</sat></trkpt>
  <trkpt lat="26.41658167" lon="-80.15777333"><ele>5.180</ele><time>2026-07-24T14:38:09Z</time><speed>5.610</speed><sat>17</sat></trkpt>
  <trkpt lat="26.41652667" lon="-80.15779000"><ele>5.180</ele><time>2026-07-24T14:38:10Z</time><speed>5.742</speed><sat>17</sat></trkpt>
  <trkpt lat="26.41647667" lon="-80.15781167"><ele>5.380</ele><time>2026-07-24T14:38:11Z</time><speed>5.771</speed><sat>17</sat></trkpt>
  <trkpt lat="26.41643333" lon="-80.15783500"><ele>4.680</ele><time>2026-07-24T14:38:12Z</time><speed>5.653</speed><sat>17</sat></trkpt>
  <trkpt lat="26.41638333" lon="-80.15785333"><ele>4.379</ele><time>2026-07-24T14:38:13Z</time><speed>5.520</speed><sat>17</sat></trkpt>
  <trkpt lat="26.41633667" lon="-80.15788167"><ele>4.779</ele><time>2026-07-24T14:38:14Z</time><speed>5.875</speed><sat>17</sat></trkpt>
  <trkpt lat="26.41628667" lon="-80.15790667"><ele>5.579</ele><time>2026-07-24T14:38:15Z</time><speed>5.999</speed><sat>17</sat></trkpt>
  <trkpt lat="26.41624000" lon="-80.15793833"><ele>4.679</ele><time>2026-07-24T14:38:16Z</time><speed>6.107</speed><sat>17</sat></trkpt>
  <trkpt lat="26.41619000" lon="-80.15797167"><ele>4.379</ele><time>2026-07-24T14:38:17Z</time><speed>5.990</speed><sat>17</sat></trkpt>
  <trkpt lat="26.41614000" lon="-80.15800500"><ele>3.679</ele><time>2026-07-24T14:38:18Z</time><speed>6.000</speed><sat>17</sat></trkpt>
  <trkpt lat="26.41609500" lon="-80.15803333"><ele>2.879</ele><time>2026-07-24T14:38:19Z</time><speed>6.004</speed><sat>17</sat></trkpt>
  <trkpt lat="26.41604833" lon="-80.15807167"><ele>2.778</ele><time>2026-07-24T14:38:20Z</time><speed>6.102</speed><sat>17</sat></trkpt>
  <trkpt lat="26.41600167" lon="-80.15810833"><ele>2.978</ele><time>2026-07-24T14:38:21Z</time><speed>6.228</speed><sat>17</sat></trkpt>
  <trkpt lat="26.41595667" lon="-80.15813667"><ele>3.478</ele><time>2026-07-24T14:38:22Z</time><speed>6.062</speed><sat>17</sat></trkpt>
  <trkpt lat="26.41591500" lon="-80.15817000"><ele>4.078</ele><time>2026-07-24T14:38:23Z</time><speed>6.288</speed><sat>17</sat></trkpt>
  <trkpt lat="26.41586333" lon="-80.15820000"><ele>4.978</ele><time>2026-07-24T14:38:24Z</time><speed>6.305</speed><sat>17</sat></trkpt>
  <trkpt lat="26.41581167" lon="-80.15823000"><ele>5.178</ele><time>2026-07-24T14:38:25Z</time><speed>6.074</speed><sat>17</sat></trkpt>
  <trkpt lat="26.41576500" lon="-80.15826500"><ele>5.677</ele><time>2026-07-24T14:38:26Z</time><speed>6.044</speed><sat>17</sat></trkpt>
  <trkpt lat="26.41572167" lon="-80.15830000"><ele>5.177</ele><time>2026-07-24T14:38:27Z</time><speed>6.402</speed><sat>17</sat></trkpt>
  <trkpt lat="26.41567000" lon="-80.15833333"><ele>5.177</ele><time>2026-07-24T14:38:28Z</time><speed>6.482</speed><sat>17</sat></trkpt>
  <trkpt lat="26.41562500" lon="-80.15837667"><ele>5.277</ele><time>2026-07-24T14:38:29Z</time><speed>6.105</speed><sat>17</sat></trkpt>
  <trkpt lat="26.41558333" lon="-80.15841833"><ele>5.477</ele><time>2026-07-24T14:38:30Z</time><speed>6.265</speed><sat>17</sat></trkpt>
  <trkpt lat="26.41554167" lon="-80.15845833"><ele>6.177</ele><time>2026-07-24T14:38:31Z</time><speed>6.414</speed><sat>17</sat></trkpt>
  <trkpt lat="26.41549667" lon="-80.15849833"><ele>6.676</ele><time>2026-07-24T14:38:32Z</time><speed>6.419</speed><sat>17</sat></trkpt>
  <trkpt lat="26.41544667" lon="-80.15854000"><ele>6.876</ele><time>2026-07-24T14:38:33Z</time><speed>6.437</speed><sat>17</sat></trkpt>
  <trkpt lat="26.41539500" lon="-80.15858167"><ele>6.176</ele><time>2026-07-24T14:38:34Z</time><speed>6.467</speed><sat>17</sat></trkpt>
  <trkpt lat="26.41534667" lon="-80.15862167"><ele>5.376</ele><time>2026-07-24T14:38:35Z</time><speed>6.384</speed><sat>17</sat></trkpt>
  <trkpt lat="26.41530333" lon="-80.15866167"><ele>5.376</ele><time>2026-07-24T14:38:36Z</time><speed>6.401</speed><sat>17</sat></trkpt>
  <trkpt lat="26.41525500" lon="-80.15870000"><ele>5.775</ele><time>2026-07-24T14:38:37Z</time><speed>6.362</speed><sat>17</sat></trkpt>
  <trkpt lat="26.41520667" lon="-80.15873500"><ele>5.475</ele><time>2026-07-24T14:38:38Z</time><speed>6.227</speed><sat>17</sat></trkpt>
  <trkpt lat="26.41515500" lon="-80.15877167"><ele>5.275</ele><time>2026-07-24T14:38:39Z</time><speed>6.379</speed><sat>17</sat></trkpt>
  <trkpt lat="26.41511167" lon="-80.15881667"><ele>4.875</ele><time>2026-07-24T14:38:40Z</time><speed>6.360</speed><sat>17</sat></trkpt>
  <trkpt lat="26.41506333" lon="-80.15885000"><ele>4.875</ele><time>2026-07-24T14:38:41Z</time><speed>6.330</speed><sat>17</sat></trkpt>
  <trkpt lat="26.41501833" lon="-80.15888833"><ele>5.174</ele><time>2026-07-24T14:38:42Z</time><speed>6.325</speed><sat>17</sat></trkpt>
  <trkpt lat="26.41497667" lon="-80.15892833"><ele>5.674</ele><time>2026-07-24T14:38:43Z</time><speed>6.188</speed><sat>17</sat></trkpt>
  <trkpt lat="26.41493167" lon="-80.15896500"><ele>5.974</ele><time>2026-07-24T14:38:44Z</time><speed>6.352</speed><sat>17</sat></trkpt>
  <trkpt lat="26.41488833" lon="-80.15900000"><ele>6.074</ele><time>2026-07-24T14:38:45Z</time><speed>6.332</speed><sat>17</sat></trkpt>
  <trkpt lat="26.41484500" lon="-80.15903333"><ele>6.074</ele><time>2026-07-24T14:38:46Z</time><speed>6.137</speed><sat>17</sat></trkpt>
  <trkpt lat="26.41480000" lon="-80.15907000"><ele>6.174</ele><time>2026-07-24T14:38:47Z</time><speed>6.172</speed><sat>17</sat></trkpt>
  <trkpt lat="26.41476167" lon="-80.15911167"><ele>5.373</ele><time>2026-07-24T14:38:48Z</time><speed>5.994</speed><sat>17</sat></trkpt>
  <trkpt lat="26.41471833" lon="-80.15914500"><ele>5.273</ele><time>2026-07-24T14:38:49Z</time><speed>6.135</speed><sat>17</sat></trkpt>
  <trkpt lat="26.41467500" lon="-80.15918333"><ele>5.473</ele><time>2026-07-24T14:38:50Z</time><speed>6.133</speed><sat>17</sat></trkpt>
  <trkpt lat="26.41463000" lon="-80.15921667"><ele>5.073</ele><time>2026-07-24T14:38:51Z</time><speed>6.159</speed><sat>17</sat></trkpt>
  <trkpt lat="26.41457833" lon="-80.15925500"><ele>3.873</ele><time>2026-07-24T14:38:52Z</time><speed>6.015</speed><sat>17</sat></trkpt>
  <trkpt lat="26.41453333" lon="-80.15929500"><ele>3.173</ele><time>2026-07-24T14:38:53Z</time><speed>6.187</speed><sat>17</sat></trkpt>
  <trkpt lat="26.41448333" lon="-80.15932667"><ele>2.972</ele><time>2026-07-24T14:38:54Z</time><speed>6.172</speed><sat>17</sat></trkpt>
  <trkpt lat="26.41443833" lon="-80.15936333"><ele>3.072</ele><time>2026-07-24T14:38:55Z</time><speed>6.083</speed><sat>17</sat></trkpt>
  <trkpt lat="26.41439000" lon="-80.15939833"><ele>3.472</ele><time>2026-07-24T14:38:56Z</time><speed>6.185</speed><sat>17</sat></trkpt>
  <trkpt lat="26.41434167" lon="-80.15943000"><ele>3.372</ele><time>2026-07-24T14:38:57Z</time><speed>6.149</speed><sat>17</sat></trkpt>
  <trkpt lat="26.41429833" lon="-80.15946500"><ele>3.372</ele><time>2026-07-24T14:38:58Z</time><speed>6.034</speed><sat>17</sat></trkpt>
  <trkpt lat="26.41426000" lon="-80.15950333"><ele>3.672</ele><time>2026-07-24T14:38:59Z</time><speed>6.114</speed><sat>17</sat></trkpt>
  <trkpt lat="26.41421667" lon="-80.15953833"><ele>4.371</ele><time>2026-07-24T14:39:00Z</time><speed>6.120</speed><sat>17</sat></trkpt>
  <trkpt lat="26.41417000" lon="-80.15957667"><ele>4.471</ele><time>2026-07-24T14:39:01Z</time><speed>6.133</speed><sat>17</sat></trkpt>
  <trkpt lat="26.41412167" lon="-80.15961333"><ele>4.171</ele><time>2026-07-24T14:39:02Z</time><speed>5.985</speed><sat>17</sat></trkpt>
  <trkpt lat="26.41407333" lon="-80.15964833"><ele>3.971</ele><time>2026-07-24T14:39:03Z</time><speed>6.093</speed><sat>17</sat></trkpt>
  <trkpt lat="26.41403167" lon="-80.15968667"><ele>3.471</ele><time>2026-07-24T14:39:04Z</time><speed>6.115</speed><sat>17</sat></trkpt>
  <trkpt lat="26.41398667" lon="-80.15972167"><ele>4.270</ele><time>2026-07-24T14:39:05Z</time><speed>6.240</speed><sat>17</sat></trkpt>
  <trkpt lat="26.41394333" lon="-80.15975500"><ele>4.570</ele><time>2026-07-24T14:39:06Z</time><speed>6.261</speed><sat>17</sat></trkpt>
  <trkpt lat="26.41389500" lon="-80.15979333"><ele>4.970</ele><time>2026-07-24T14:39:07Z</time><speed>6.296</speed><sat>17</sat></trkpt>
  <trkpt lat="26.41384667" lon="-80.15982833"><ele>5.570</ele><time>2026-07-24T14:39:08Z</time><speed>6.297</speed><sat>17</sat></trkpt>
  <trkpt lat="26.41379833" lon="-80.15986667"><ele>5.770</ele><time>2026-07-24T14:39:09Z</time><speed>6.263</speed><sat>17</sat></trkpt>
  <trkpt lat="26.41375667" lon="-80.15990333"><ele>6.570</ele><time>2026-07-24T14:39:10Z</time><speed>6.168</speed><sat>17</sat></trkpt>
  <trkpt lat="26.41371667" lon="-80.15993833"><ele>6.869</ele><time>2026-07-24T14:39:11Z</time><speed>6.006</speed><sat>17</sat></trkpt>
  <trkpt lat="26.41367333" lon="-80.15997333"><ele>7.769</ele><time>2026-07-24T14:39:12Z</time><speed>5.794</speed><sat>17</sat></trkpt>
  <trkpt lat="26.41362833" lon="-80.16001167"><ele>8.469</ele><time>2026-07-24T14:39:13Z</time><speed>6.210</speed><sat>17</sat></trkpt>
  <trkpt lat="26.41358833" lon="-80.16005500"><ele>8.969</ele><time>2026-07-24T14:39:14Z</time><speed>5.737</speed><sat>17</sat></trkpt>
  <trkpt lat="26.41355000" lon="-80.16009500"><ele>8.469</ele><time>2026-07-24T14:39:15Z</time><speed>5.714</speed><sat>17</sat></trkpt>
  <trkpt lat="26.41352000" lon="-80.16013333"><ele>8.168</ele><time>2026-07-24T14:39:16Z</time><speed>4.954</speed><sat>17</sat></trkpt>
  <trkpt lat="26.41349167" lon="-80.16016833"><ele>8.568</ele><time>2026-07-24T14:39:17Z</time><speed>3.792</speed><sat>17</sat></trkpt>
  <trkpt lat="26.41347833" lon="-80.16019833"><ele>8.568</ele><time>2026-07-24T14:39:18Z</time><speed>3.156</speed><sat>17</sat></trkpt>
  <trkpt lat="26.41346167" lon="-80.16021833"><ele>8.168</ele><time>2026-07-24T14:39:19Z</time><speed>2.444</speed><sat>17</sat></trkpt>
  <trkpt lat="26.41345333" lon="-80.16024000"><ele>7.568</ele><time>2026-07-24T14:39:20Z</time><speed>2.273</speed><sat>17</sat></trkpt>
  <trkpt lat="26.41344000" lon="-80.16026167"><ele>6.768</ele><time>2026-07-24T14:39:21Z</time><speed>3.474</speed><sat>17</sat></trkpt>
  <trkpt lat="26.41342000" lon="-80.16029333"><ele>6.368</ele><time>2026-07-24T14:39:22Z</time><speed>4.196</speed><sat>17</sat></trkpt>
  <trkpt lat="26.41339833" lon="-80.16034167"><ele>6.768</ele><time>2026-07-24T14:39:23Z</time><speed>4.907</speed><sat>17</sat></trkpt>
  <trkpt lat="26.41337833" lon="-80.16039000"><ele>6.867</ele><time>2026-07-24T14:39:24Z</time><speed>4.888</speed><sat>17</sat></trkpt>
  <trkpt lat="26.41335833" lon="-80.16043667"><ele>7.367</ele><time>2026-07-24T14:39:25Z</time><speed>5.227</speed><sat>17</sat></trkpt>
  <trkpt lat="26.41333333" lon="-80.16048500"><ele>7.267</ele><time>2026-07-24T14:39:26Z</time><speed>5.660</speed><sat>17</sat></trkpt>
  <trkpt lat="26.41329833" lon="-80.16052833"><ele>7.967</ele><time>2026-07-24T14:39:27Z</time><speed>5.915</speed><sat>17</sat></trkpt>
  <trkpt lat="26.41326833" lon="-80.16057833"><ele>8.167</ele><time>2026-07-24T14:39:28Z</time><speed>5.793</speed><sat>17</sat></trkpt>
  <trkpt lat="26.41323833" lon="-80.16062833"><ele>7.566</ele><time>2026-07-24T14:39:29Z</time><speed>6.049</speed><sat>17</sat></trkpt>
  <trkpt lat="26.41321333" lon="-80.16067667"><ele>7.666</ele><time>2026-07-24T14:39:30Z</time><speed>5.672</speed><sat>17</sat></trkpt>
  <trkpt lat="26.41318667" lon="-80.16072833"><ele>7.666</ele><time>2026-07-24T14:39:31Z</time><speed>5.894</speed><sat>17</sat></trkpt>
  <trkpt lat="26.41315167" lon="-80.16077667"><ele>6.766</ele><time>2026-07-24T14:39:32Z</time><speed>5.886</speed><sat>17</sat></trkpt>
  <trkpt lat="26.41312667" lon="-80.16082833"><ele>6.465</ele><time>2026-07-24T14:39:33Z</time><speed>5.569</speed><sat>17</sat></trkpt>
  <trkpt lat="26.41310000" lon="-80.16087833"><ele>6.565</ele><time>2026-07-24T14:39:34Z</time><speed>4.989</speed><sat>17</sat></trkpt>
  <trkpt lat="26.41307833" lon="-80.16093167"><ele>6.265</ele><time>2026-07-24T14:39:35Z</time><speed>5.144</speed><sat>17</sat></trkpt>
  <trkpt lat="26.41305167" lon="-80.16098667"><ele>5.765</ele><time>2026-07-24T14:39:36Z</time><speed>6.051</speed><sat>17</sat></trkpt>
  <trkpt lat="26.41302500" lon="-80.16104167"><ele>5.364</ele><time>2026-07-24T14:39:37Z</time><speed>5.969</speed><sat>17</sat></trkpt>
  <trkpt lat="26.41299667" lon="-80.16109500"><ele>5.364</ele><time>2026-07-24T14:39:38Z</time><speed>5.791</speed><sat>17</sat></trkpt>
  <trkpt lat="26.41297333" lon="-80.16115000"><ele>5.864</ele><time>2026-07-24T14:39:39Z</time><speed>5.626</speed><sat>17</sat></trkpt>
  <trkpt lat="26.41295000" lon="-80.16119833"><ele>5.664</ele><time>2026-07-24T14:39:40Z</time><speed>5.404</speed><sat>16</sat></trkpt>
  <trkpt lat="26.41292667" lon="-80.16123833"><ele>4.964</ele><time>2026-07-24T14:39:41Z</time><speed>4.986</speed><sat>16</sat></trkpt>
  <trkpt lat="26.41290000" lon="-80.16127833"><ele>4.163</ele><time>2026-07-24T14:39:42Z</time><speed>4.306</speed><sat>16</sat></trkpt>
  <trkpt lat="26.41288000" lon="-80.16130667"><ele>3.763</ele><time>2026-07-24T14:39:43Z</time><speed>3.492</speed><sat>16</sat></trkpt>
  <trkpt lat="26.41286500" lon="-80.16133000"><ele>3.163</ele><time>2026-07-24T14:39:44Z</time><speed>2.810</speed><sat>16</sat></trkpt>
  <trkpt lat="26.41285667" lon="-80.16135333"><ele>2.363</ele><time>2026-07-24T14:39:45Z</time><speed>2.498</speed><sat>16</sat></trkpt>
  <trkpt lat="26.41284667" lon="-80.16137667"><ele>2.463</ele><time>2026-07-24T14:39:46Z</time><speed>2.246</speed><sat>16</sat></trkpt>
  <trkpt lat="26.41284167" lon="-80.16140000"><ele>2.563</ele><time>2026-07-24T14:39:47Z</time><speed>2.652</speed><sat>16</sat></trkpt>
  <trkpt lat="26.41284167" lon="-80.16143333"><ele>3.163</ele><time>2026-07-24T14:39:48Z</time><speed>3.105</speed><sat>16</sat></trkpt>
  <trkpt lat="26.41286667" lon="-80.16147333"><ele>3.863</ele><time>2026-07-24T14:39:49Z</time><speed>4.056</speed><sat>16</sat></trkpt>
  <trkpt lat="26.41289667" lon="-80.16150500"><ele>4.462</ele><time>2026-07-24T14:39:50Z</time><speed>4.093</speed><sat>16</sat></trkpt>
  <trkpt lat="26.41294167" lon="-80.16153667"><ele>5.062</ele><time>2026-07-24T14:39:51Z</time><speed>4.880</speed><sat>16</sat></trkpt>
  <trkpt lat="26.41298667" lon="-80.16157167"><ele>5.562</ele><time>2026-07-24T14:39:52Z</time><speed>5.071</speed><sat>16</sat></trkpt>
  <trkpt lat="26.41302667" lon="-80.16160500"><ele>6.262</ele><time>2026-07-24T14:39:53Z</time><speed>5.100</speed><sat>16</sat></trkpt>
  <trkpt lat="26.41306167" lon="-80.16163333"><ele>6.362</ele><time>2026-07-24T14:39:54Z</time><speed>5.127</speed><sat>16</sat></trkpt>
  <trkpt lat="26.41309667" lon="-80.16165833"><ele>6.362</ele><time>2026-07-24T14:39:55Z</time><speed>5.154</speed><sat>16</sat></trkpt>
  <trkpt lat="26.41313333" lon="-80.16169167"><ele>6.262</ele><time>2026-07-24T14:39:56Z</time><speed>5.460</speed><sat>16</sat></trkpt>
  <trkpt lat="26.41317333" lon="-80.16172667"><ele>5.962</ele><time>2026-07-24T14:39:57Z</time><speed>5.625</speed><sat>16</sat></trkpt>
  <trkpt lat="26.41321000" lon="-80.16175500"><ele>5.362</ele><time>2026-07-24T14:39:58Z</time><speed>5.496</speed><sat>16</sat></trkpt>
  <trkpt lat="26.41325167" lon="-80.16179333"><ele>4.662</ele><time>2026-07-24T14:39:59Z</time><speed>5.526</speed><sat>16</sat></trkpt>
  <trkpt lat="26.41329667" lon="-80.16183000"><ele>3.761</ele><time>2026-07-24T14:40:00Z</time><speed>5.520</speed><sat>16</sat></trkpt>
  <trkpt lat="26.41333833" lon="-80.16187333"><ele>3.461</ele><time>2026-07-24T14:40:01Z</time><speed>5.912</speed><sat>16</sat></trkpt>
  <trkpt lat="26.41337833" lon="-80.16191167"><ele>3.161</ele><time>2026-07-24T14:40:02Z</time><speed>5.890</speed><sat>16</sat></trkpt>
  <trkpt lat="26.41341167" lon="-80.16195167"><ele>2.761</ele><time>2026-07-24T14:40:03Z</time><speed>5.788</speed><sat>16</sat></trkpt>
  <trkpt lat="26.41344500" lon="-80.16199333"><ele>2.861</ele><time>2026-07-24T14:40:04Z</time><speed>6.092</speed><sat>16</sat></trkpt>
  <trkpt lat="26.41348500" lon="-80.16203333"><ele>2.361</ele><time>2026-07-24T14:40:05Z</time><speed>5.996</speed><sat>16</sat></trkpt>
  <trkpt lat="26.41352000" lon="-80.16207167"><ele>2.261</ele><time>2026-07-24T14:40:06Z</time><speed>5.688</speed><sat>16</sat></trkpt>
  <trkpt lat="26.41355833" lon="-80.16211333"><ele>1.860</ele><time>2026-07-24T14:40:07Z</time><speed>6.027</speed><sat>16</sat></trkpt>
  <trkpt lat="26.41359333" lon="-80.16215500"><ele>1.860</ele><time>2026-07-24T14:40:08Z</time><speed>5.722</speed><sat>16</sat></trkpt>
  <trkpt lat="26.41363667" lon="-80.16219667"><ele>1.760</ele><time>2026-07-24T14:40:09Z</time><speed>5.613</speed><sat>16</sat></trkpt>
  <trkpt lat="26.41367667" lon="-80.16223833"><ele>1.660</ele><time>2026-07-24T14:40:10Z</time><speed>5.903</speed><sat>16</sat></trkpt>
  <trkpt lat="26.41371667" lon="-80.16228833"><ele>1.660</ele><time>2026-07-24T14:40:11Z</time><speed>6.154</speed><sat>16</sat></trkpt>
  <trkpt lat="26.41375500" lon="-80.16233833"><ele>2.760</ele><time>2026-07-24T14:40:12Z</time><speed>6.049</speed><sat>16</sat></trkpt>
  <trkpt lat="26.41379000" lon="-80.16237667"><ele>2.959</ele><time>2026-07-24T14:40:13Z</time><speed>6.087</speed><sat>16</sat></trkpt>
  <trkpt lat="26.41382667" lon="-80.16242500"><ele>3.259</ele><time>2026-07-24T14:40:14Z</time><speed>6.249</speed><sat>16</sat></trkpt>
  <trkpt lat="26.41385500" lon="-80.16247333"><ele>3.359</ele><time>2026-07-24T14:40:15Z</time><speed>5.964</speed><sat>16</sat></trkpt>
  <trkpt lat="26.41388500" lon="-80.16252333"><ele>3.159</ele><time>2026-07-24T14:40:16Z</time><speed>6.186</speed><sat>15</sat></trkpt>
  <trkpt lat="26.41392000" lon="-80.16257667"><ele>3.559</ele><time>2026-07-24T14:40:17Z</time><speed>6.054</speed><sat>15</sat></trkpt>
  <trkpt lat="26.41394667" lon="-80.16262500"><ele>3.458</ele><time>2026-07-24T14:40:18Z</time><speed>6.251</speed><sat>16</sat></trkpt>
  <trkpt lat="26.41398333" lon="-80.16267333"><ele>3.658</ele><time>2026-07-24T14:40:19Z</time><speed>6.264</speed><sat>16</sat></trkpt>
  <trkpt lat="26.41401667" lon="-80.16272333"><ele>3.158</ele><time>2026-07-24T14:40:20Z</time><speed>6.288</speed><sat>16</sat></trkpt>
  <trkpt lat="26.41404667" lon="-80.16277333"><ele>2.258</ele><time>2026-07-24T14:40:21Z</time><speed>6.279</speed><sat>16</sat></trkpt>
  <trkpt lat="26.41407667" lon="-80.16281667"><ele>1.958</ele><time>2026-07-24T14:40:22Z</time><speed>6.274</speed><sat>16</sat></trkpt>
  <trkpt lat="26.41410667" lon="-80.16286667"><ele>1.558</ele><time>2026-07-24T14:40:23Z</time><speed>6.249</speed><sat>16</sat></trkpt>
  <trkpt lat="26.41413333" lon="-80.16292000"><ele>2.157</ele><time>2026-07-24T14:40:24Z</time><speed>6.252</speed><sat>16</sat></trkpt>
  <trkpt lat="26.41416000" lon="-80.16297500"><ele>2.257</ele><time>2026-07-24T14:40:25Z</time><speed>6.404</speed><sat>16</sat></trkpt>
  <trkpt lat="26.41419000" lon="-80.16303167"><ele>2.057</ele><time>2026-07-24T14:40:26Z</time><speed>6.541</speed><sat>16</sat></trkpt>
  <trkpt lat="26.41422167" lon="-80.16308833"><ele>1.957</ele><time>2026-07-24T14:40:27Z</time><speed>6.026</speed><sat>16</sat></trkpt>
  <trkpt lat="26.41424667" lon="-80.16314500"><ele>2.556</ele><time>2026-07-24T14:40:28Z</time><speed>6.212</speed><sat>16</sat></trkpt>
  <trkpt lat="26.41426667" lon="-80.16319833"><ele>3.056</ele><time>2026-07-24T14:40:29Z</time><speed>6.474</speed><sat>16</sat></trkpt>
  <trkpt lat="26.41429000" lon="-80.16324833"><ele>2.956</ele><time>2026-07-24T14:40:30Z</time><speed>6.236</speed><sat>16</sat></trkpt>
  <trkpt lat="26.41431333" lon="-80.16328833"><ele>2.656</ele><time>2026-07-24T14:40:31Z</time><speed>5.122</speed><sat>16</sat></trkpt>
  <trkpt lat="26.41433667" lon="-80.16332333"><ele>2.656</ele><time>2026-07-24T14:40:32Z</time><speed>4.208</speed><sat>16</sat></trkpt>
  <trkpt lat="26.41435167" lon="-80.16335000"><ele>2.756</ele><time>2026-07-24T14:40:33Z</time><speed>2.604</speed><sat>16</sat></trkpt>
  <trkpt lat="26.41435500" lon="-80.16336667"><ele>2.956</ele><time>2026-07-24T14:40:34Z</time><speed>1.962</speed><sat>16</sat></trkpt>
  <trkpt lat="26.41436333" lon="-80.16337833"><ele>3.356</ele><time>2026-07-24T14:40:35Z</time><speed>1.650</speed><sat>16</sat></trkpt>
  <trkpt lat="26.41436833" lon="-80.16338667"><ele>3.456</ele><time>2026-07-24T14:40:36Z</time><speed>1.815</speed><sat>16</sat></trkpt>
  <trkpt lat="26.41438500" lon="-80.16340833"><ele>2.955</ele><time>2026-07-24T14:40:37Z</time><speed>2.768</speed><sat>16</sat></trkpt>
  <trkpt lat="26.41440500" lon="-80.16342833"><ele>2.755</ele><time>2026-07-24T14:40:38Z</time><speed>3.371</speed><sat>16</sat></trkpt>
  <trkpt lat="26.41443500" lon="-80.16345667"><ele>2.655</ele><time>2026-07-24T14:40:39Z</time><speed>3.743</speed><sat>16</sat></trkpt>
  <trkpt lat="26.41447333" lon="-80.16347333"><ele>2.755</ele><time>2026-07-24T14:40:40Z</time><speed>4.358</speed><sat>16</sat></trkpt>
  <trkpt lat="26.41451833" lon="-80.16347000"><ele>2.855</ele><time>2026-07-24T14:40:41Z</time><speed>4.569</speed><sat>16</sat></trkpt>
  <trkpt lat="26.41456333" lon="-80.16345500"><ele>2.455</ele><time>2026-07-24T14:40:42Z</time><speed>4.449</speed><sat>16</sat></trkpt>
  <trkpt lat="26.41460167" lon="-80.16343333"><ele>2.056</ele><time>2026-07-24T14:40:43Z</time><speed>4.470</speed><sat>16</sat></trkpt>
  <trkpt lat="26.41463500" lon="-80.16340333"><ele>1.556</ele><time>2026-07-24T14:40:44Z</time><speed>4.831</speed><sat>16</sat></trkpt>
  <trkpt lat="26.41467167" lon="-80.16337667"><ele>1.456</ele><time>2026-07-24T14:40:45Z</time><speed>6.313</speed><sat>16</sat></trkpt>
  <trkpt lat="26.41470667" lon="-80.16334667"><ele>1.356</ele><time>2026-07-24T14:40:46Z</time><speed>5.252</speed><sat>16</sat></trkpt>
  <trkpt lat="26.41474000" lon="-80.16331833"><ele>1.056</ele><time>2026-07-24T14:40:47Z</time><speed>5.214</speed><sat>16</sat></trkpt>
  <trkpt lat="26.41476833" lon="-80.16328667"><ele>0.656</ele><time>2026-07-24T14:40:48Z</time><speed>4.743</speed><sat>16</sat></trkpt>
  <trkpt lat="26.41480000" lon="-80.16325500"><ele>0.456</ele><time>2026-07-24T14:40:49Z</time><speed>4.266</speed><sat>16</sat></trkpt>
  <trkpt lat="26.41482833" lon="-80.16322667"><ele>-0.244</ele><time>2026-07-24T14:40:50Z</time><speed>4.242</speed><sat>16</sat></trkpt>
  <trkpt lat="26.41485333" lon="-80.16319667"><ele>-1.243</ele><time>2026-07-24T14:40:51Z</time><speed>4.615</speed><sat>16</sat></trkpt>
  <trkpt lat="26.41487833" lon="-80.16316167"><ele>-1.943</ele><time>2026-07-24T14:40:52Z</time><speed>4.612</speed><sat>16</sat></trkpt>
  <trkpt lat="26.41491500" lon="-80.16313167"><ele>-2.543</ele><time>2026-07-24T14:40:53Z</time><speed>4.757</speed><sat>16</sat></trkpt>
  <trkpt lat="26.41495167" lon="-80.16310500"><ele>-2.943</ele><time>2026-07-24T14:40:54Z</time><speed>4.766</speed><sat>16</sat></trkpt>
  <trkpt lat="26.41499333" lon="-80.16308833"><ele>-3.043</ele><time>2026-07-24T14:40:55Z</time><speed>4.781</speed><sat>16</sat></trkpt>
  <trkpt lat="26.41503667" lon="-80.16307167"><ele>-2.943</ele><time>2026-07-24T14:40:56Z</time><speed>4.907</speed><sat>16</sat></trkpt>
  <trkpt lat="26.41507667" lon="-80.16305167"><ele>-2.443</ele><time>2026-07-24T14:40:57Z</time><speed>4.914</speed><sat>16</sat></trkpt>
  <trkpt lat="26.41511833" lon="-80.16303500"><ele>-2.143</ele><time>2026-07-24T14:40:58Z</time><speed>4.997</speed><sat>16</sat></trkpt>
  <trkpt lat="26.41516333" lon="-80.16302833"><ele>-1.643</ele><time>2026-07-24T14:40:59Z</time><speed>5.077</speed><sat>16</sat></trkpt>
  <trkpt lat="26.41520833" lon="-80.16302000"><ele>-1.442</ele><time>2026-07-24T14:41:00Z</time><speed>4.903</speed><sat>16</sat></trkpt>
  <trkpt lat="26.41525333" lon="-80.16302500"><ele>-0.742</ele><time>2026-07-24T14:41:01Z</time><speed>4.869</speed><sat>16</sat></trkpt>
  <trkpt lat="26.41530000" lon="-80.16303333"><ele>-0.242</ele><time>2026-07-24T14:41:02Z</time><speed>4.856</speed><sat>16</sat></trkpt>
  <trkpt lat="26.41534667" lon="-80.16304667"><ele>0.158</ele><time>2026-07-24T14:41:03Z</time><speed>4.979</speed><sat>16</sat></trkpt>
  <trkpt lat="26.41538500" lon="-80.16306000"><ele>0.657</ele><time>2026-07-24T14:41:04Z</time><speed>4.650</speed><sat>16</sat></trkpt>
  <trkpt lat="26.41542500" lon="-80.16307167"><ele>0.957</ele><time>2026-07-24T14:41:05Z</time><speed>4.494</speed><sat>16</sat></trkpt>
  <trkpt lat="26.41546667" lon="-80.16308000"><ele>0.857</ele><time>2026-07-24T14:41:06Z</time><speed>4.501</speed><sat>16</sat></trkpt>
  <trkpt lat="26.41550333" lon="-80.16308333"><ele>1.257</ele><time>2026-07-24T14:41:07Z</time><speed>4.639</speed><sat>16</sat></trkpt>
  <trkpt lat="26.41554000" lon="-80.16307667"><ele>1.057</ele><time>2026-07-24T14:41:08Z</time><speed>4.529</speed><sat>16</sat></trkpt>
  <trkpt lat="26.41558167" lon="-80.16307667"><ele>0.958</ele><time>2026-07-24T14:41:09Z</time><speed>3.988</speed><sat>16</sat></trkpt>
  <trkpt lat="26.41561667" lon="-80.16308000"><ele>1.358</ele><time>2026-07-24T14:41:10Z</time><speed>3.602</speed><sat>16</sat></trkpt>
  <trkpt lat="26.41564667" lon="-80.16309667"><ele>2.057</ele><time>2026-07-24T14:41:11Z</time><speed>3.415</speed><sat>16</sat></trkpt>
  <trkpt lat="26.41567333" lon="-80.16312333"><ele>2.857</ele><time>2026-07-24T14:41:12Z</time><speed>3.013</speed><sat>16</sat></trkpt>
  <trkpt lat="26.41568333" lon="-80.16314333"><ele>3.357</ele><time>2026-07-24T14:41:13Z</time><speed>2.510</speed><sat>16</sat></trkpt>
  <trkpt lat="26.41569333" lon="-80.16317333"><ele>3.357</ele><time>2026-07-24T14:41:14Z</time><speed>2.278</speed><sat>16</sat></trkpt>
  <trkpt lat="26.41569500" lon="-80.16319333"><ele>3.557</ele><time>2026-07-24T14:41:15Z</time><speed>2.009</speed><sat>16</sat></trkpt>
  <trkpt lat="26.41569667" lon="-80.16321333"><ele>3.857</ele><time>2026-07-24T14:41:16Z</time><speed>1.673</speed><sat>16</sat></trkpt>
  <trkpt lat="26.41569500" lon="-80.16322500"><ele>3.757</ele><time>2026-07-24T14:41:17Z</time><speed>1.263</speed><sat>16</sat></trkpt>
  <trkpt lat="26.41569500" lon="-80.16323333"><ele>3.257</ele><time>2026-07-24T14:41:18Z</time><speed>0.000</speed><sat>16</sat></trkpt>
  <trkpt lat="26.41569500" lon="-80.16324333"><ele>3.257</ele><time>2026-07-24T14:41:19Z</time><speed>0.000</speed><sat>16</sat></trkpt>
  <trkpt lat="26.41569667" lon="-80.16325833"><ele>3.057</ele><time>2026-07-24T14:41:20Z</time><speed>1.428</speed><sat>16</sat></trkpt>
  <trkpt lat="26.41570000" lon="-80.16327667"><ele>3.357</ele><time>2026-07-24T14:41:21Z</time><speed>1.790</speed><sat>16</sat></trkpt>
  <trkpt lat="26.41570333" lon="-80.16330000"><ele>4.457</ele><time>2026-07-24T14:41:22Z</time><speed>1.807</speed><sat>16</sat></trkpt>
  <trkpt lat="26.41571333" lon="-80.16331667"><ele>4.557</ele><time>2026-07-24T14:41:23Z</time><speed>1.893</speed><sat>16</sat></trkpt>
  <trkpt lat="26.41572667" lon="-80.16332667"><ele>4.957</ele><time>2026-07-24T14:41:24Z</time><speed>1.590</speed><sat>16</sat></trkpt>
  <trkpt lat="26.41574500" lon="-80.16333333"><ele>5.457</ele><time>2026-07-24T14:41:25Z</time><speed>1.613</speed><sat>16</sat></trkpt>
  <trkpt lat="26.41575500" lon="-80.16333000"><ele>5.657</ele><time>2026-07-24T14:41:26Z</time><speed>1.600</speed><sat>16</sat></trkpt>
  <trkpt lat="26.41576667" lon="-80.16332333"><ele>5.857</ele><time>2026-07-24T14:41:27Z</time><speed>1.453</speed><sat>16</sat></trkpt>
  <trkpt lat="26.41578000" lon="-80.16331833"><ele>5.857</ele><time>2026-07-24T14:41:28Z</time><speed>1.289</speed><sat>16</sat></trkpt>
  <trkpt lat="26.41579000" lon="-80.16331333"><ele>5.957</ele><time>2026-07-24T14:41:29Z</time><speed>1.034</speed><sat>16</sat></trkpt>
  <trkpt lat="26.41580000" lon="-80.16331000"><ele>6.057</ele><time>2026-07-24T14:41:30Z</time><speed>0.000</speed><sat>16</sat></trkpt>
  <trkpt lat="26.41580667" lon="-80.16330833"><ele>6.457</ele><time>2026-07-24T14:41:31Z</time><speed>0.000</speed><sat>16</sat></trkpt>
  <trkpt lat="26.41581500" lon="-80.16330333"><ele>6.257</ele><time>2026-07-24T14:41:32Z</time><speed>1.331</speed><sat>16</sat></trkpt>
  <trkpt lat="26.41581667" lon="-80.16330667"><ele>6.657</ele><time>2026-07-24T14:41:33Z</time><speed>0.000</speed><sat>16</sat></trkpt>
  <trkpt lat="26.41581667" lon="-80.16330500"><ele>6.857</ele><time>2026-07-24T14:41:34Z</time><speed>0.000</speed><sat>16</sat></trkpt>
  <trkpt lat="26.41581667" lon="-80.16330500"><ele>6.957</ele><time>2026-07-24T14:41:35Z</time><speed>0.000</speed><sat>16</sat></trkpt>
  <trkpt lat="26.41581667" lon="-80.16330500"><ele>6.957</ele><time>2026-07-24T14:41:36Z</time><speed>0.000</speed><sat>16</sat></trkpt>
  <trkpt lat="26.41581667" lon="-80.16330500"><ele>6.957</ele><time>2026-07-24T14:41:37Z</time><speed>0.000</speed><sat>16</sat></trkpt>
  <trkpt lat="26.41584000" lon="-80.16329000"><ele>7.657</ele><time>2026-07-24T14:41:38Z</time><speed>1.819</speed><sat>16</sat></trkpt>
  <trkpt lat="26.41585167" lon="-80.16329167"><ele>8.257</ele><time>2026-07-24T14:41:39Z</time><speed>1.097</speed><sat>16</sat></trkpt>
  <trkpt lat="26.41586167" lon="-80.16330833"><ele>9.357</ele><time>2026-07-24T14:41:40Z</time><speed>1.287</speed><sat>16</sat></trkpt>
  <trkpt lat="26.41587000" lon="-80.16332333"><ele>9.857</ele><time>2026-07-24T14:41:41Z</time><speed>1.289</speed><sat>15</sat></trkpt>
  <trkpt lat="26.41587500" lon="-80.16333833"><ele>10.157</ele><time>2026-07-24T14:41:42Z</time><speed>1.295</speed><sat>16</sat></trkpt>
  <trkpt lat="26.41587500" lon="-80.16335500"><ele>10.157</ele><time>2026-07-24T14:41:43Z</time><speed>1.186</speed><sat>15</sat></trkpt>
  <trkpt lat="26.41587333" lon="-80.16336833"><ele>10.056</ele><time>2026-07-24T14:41:44Z</time><speed>0.000</speed><sat>16</sat></trkpt>
  <trkpt lat="26.41587667" lon="-80.16337833"><ele>10.056</ele><time>2026-07-24T14:41:45Z</time><speed>0.000</speed><sat>16</sat></trkpt>
  <trkpt lat="26.41588000" lon="-80.16338333"><ele>10.156</ele><time>2026-07-24T14:41:46Z</time><speed>0.000</speed><sat>16</sat></trkpt>
  <trkpt lat="26.41588000" lon="-80.16338333"><ele>10.156</ele><time>2026-07-24T14:41:47Z</time><speed>0.000</speed><sat>16</sat></trkpt>
  <trkpt lat="26.41588000" lon="-80.16338333"><ele>10.156</ele><time>2026-07-24T14:41:48Z</time><speed>0.000</speed><sat>16</sat></trkpt>
  <trkpt lat="26.41588000" lon="-80.16338333"><ele>10.156</ele><time>2026-07-24T14:41:49Z</time><speed>0.000</speed><sat>16</sat></trkpt>
  <trkpt lat="26.41588000" lon="-80.16338333"><ele>10.156</ele><time>2026-07-24T14:41:50Z</time><speed>0.000</speed><sat>16</sat></trkpt>
  <trkpt lat="26.41588000" lon="-80.16338333"><ele>10.156</ele><time>2026-07-24T14:41:51Z</time><speed>0.000</speed><sat>16</sat></trkpt>
  <trkpt lat="26.41588000" lon="-80.16338333"><ele>10.156</ele><time>2026-07-24T14:41:52Z</time><speed>0.000</speed><sat>16</sat></trkpt>
  <trkpt lat="26.41588000" lon="-80.16338333"><ele>10.156</ele><time>2026-07-24T14:41:53Z</time><speed>0.000</speed><sat>16</sat></trkpt>
  <trkpt lat="26.41588000" lon="-80.16338333"><ele>10.156</ele><time>2026-07-24T14:41:54Z</time><speed>0.000</speed><sat>16</sat></trkpt>
  <trkpt lat="26.41588000" lon="-80.16338333"><ele>10.156</ele><time>2026-07-24T14:41:55Z</time><speed>0.000</speed><sat>16</sat></trkpt>
  <trkpt lat="26.41588000" lon="-80.16338333"><ele>10.156</ele><time>2026-07-24T14:41:56Z</time><speed>0.000</speed><sat>16</sat></trkpt>
  <trkpt lat="26.41588000" lon="-80.16338333"><ele>10.156</ele><time>2026-07-24T14:41:57Z</time><speed>0.000</speed><sat>16</sat></trkpt>
  <trkpt lat="26.41588000" lon="-80.16338333"><ele>10.156</ele><time>2026-07-24T14:41:58Z</time><speed>0.000</speed><sat>16</sat></trkpt>
 </trkseg>
</trk>

</gpx>
 