<?xml version="1.0" encoding="UTF-8"?>
<!-- Created with BasicAirData GPS Logger for Android - ver. 3.3.0 -->
<!-- Track 4 = 2336 TrackPoints + 2 Placemarks -->
<kml xmlns="http://www.opengis.net/kml/2.2">
 <Document>
  <name>GPS Logger 20260718-091510</name>
  <description><![CDATA[ST-1-2_A
2336 Trackpoints + 2 Placemarks]]></description>
  <Style id="TrackStyle">
   <LineStyle>
    <color>ff0000ff</color>
    <width>3</width>
   </LineStyle>
   <PolyStyle>
    <color>7f0000ff</color>
   </PolyStyle>
   <BalloonStyle>
    <text><![CDATA[<p style="color:red;font-weight:bold">$[name]</p><p style="font-size:11px">$[description]</p><p style="font-size:7px">Track Stats based on: Total time | Time in Movement</p>]]></text>
   </BalloonStyle>
  </Style>
  <Style id="PlacemarkStyle">
   <IconStyle>
    <Icon><href>http://maps.google.com/mapfiles/kml/shapes/placemark_circle_highlight.png</href></Icon>
   </IconStyle>
  </Style>

  <Placemark id="1">
   <name>Station 1</name>
   <styleUrl>#PlacemarkStyle</styleUrl>
   <Point>
    <altitudeMode>clampToGround</altitudeMode>
    <coordinates>-80.15274333,26.42360833,9.105</coordinates>
    <extrude>1</extrude>
   </Point>
  </Placemark>

  <Placemark id="2">
   <name>Station 2</name>
   <styleUrl>#PlacemarkStyle</styleUrl>
   <Point>
    <altitudeMode>clampToGround</altitudeMode>
    <coordinates>-80.16668333,26.40988833,11.839</coordinates>
    <extrude>1</extrude>
   </Point>
  </Placemark>

  <Placemark id="20260718-091510">
   <name>Track 20260718-091510</name>
   <description><![CDATA[<b>ST-1-2_A</b><br><br>Distance = 4.35 km<br>Duration = 38:55 | 33:56<br>Altitude Gap = 3 m<br>Max Speed = 12 mph<br>Avg Speed = 4.2 | 4.8 mph<br>Direction = SW <br><br><i>2336 Trackpoints</i>]]></description>
   <styleUrl>#TrackStyle</styleUrl>
   <LineString>
    <extrude>0</extrude>
    <tessellate>0</tessellate>
    <altitudeMode>clampToGround</altitudeMode>
    <coordinates>
     -80.15274333,26.42361667,8.905
     -80.15274500,26.42362000,9.005
     -80.15274833,26.42362000,9.105
     -80.15274833,26.42361333,9.105
     -80.15274333,26.42360833,9.105
     -80.15274167,26.42360333,9.105
     -80.15274667,26.42360500,9.105
     -80.15275000,26.42360667,9.105
     -80.15275167,26.42360500,9.205
     -80.15275667,26.42360500,9.304
     -80.15276667,26.42361500,9.304
     -80.15277500,26.42362333,9.304
     -80.15278000,26.42363000,9.104
     -80.15278333,26.42363833,9.204
     -80.15278833,26.42364167,9.304
     -80.15279000,26.42364000,9.304
     -80.15279000,26.42363833,9.304
     -80.15279167,26.42363667,9.304
     -80.15279333,26.42363833,9.304
     -80.15279333,26.42364000,9.204
     -80.15279667,26.42364167,9.204
     -80.15279333,26.42364167,9.204
     -80.15279167,26.42364333,9.104
     -80.15279167,26.42364333,9.104
     -80.15279167,26.42364333,9.104
     -80.15279167,26.42364333,9.104
     -80.15279167,26.42364333,9.104
     -80.15279167,26.42364333,9.104
     -80.15279167,26.42364333,9.104
     -80.15279167,26.42364333,9.104
     -80.15279167,26.42364333,9.104
     -80.15279167,26.42364333,9.104
     -80.15279167,26.42364333,9.104
     -80.15279167,26.42364333,9.104
     -80.15279167,26.42364333,9.104
     -80.15279167,26.42364333,9.104
     -80.15279167,26.42364333,9.104
     -80.15279167,26.42364333,9.104
     -80.15279167,26.42364333,9.104
     -80.15279167,26.42364333,9.104
     -80.15279167,26.42364333,9.104
     -80.15279167,26.42364333,9.104
     -80.15279167,26.42364333,9.104
     -80.15279167,26.42364333,9.104
     -80.15279167,26.42364333,9.104
     -80.15279167,26.42364333,9.104
     -80.15279167,26.42364333,9.104
     -80.15279167,26.42364333,9.104
     -80.15279167,26.42364333,9.104
     -80.15279167,26.42364333,9.104
     -80.15279167,26.42364333,9.104
     -80.15279167,26.42364333,9.104
     -80.15279167,26.42364333,9.104
     -80.15279167,26.42364333,9.104
     -80.15279167,26.42364333,9.104
     -80.15279167,26.42364333,9.104
     -80.15279167,26.42364333,9.104
     -80.15279167,26.42364333,9.104
     -80.15279167,26.42364333,9.104
     -80.15279167,26.42364333,9.104
     -80.15279167,26.42364333,9.104
     -80.15279167,26.42364333,9.104
     -80.15279167,26.42364333,9.104
     -80.15279167,26.42364333,9.104
     -80.15279167,26.42364333,9.104
     -80.15279167,26.42364333,9.104
     -80.15279167,26.42364333,9.104
     -80.15279167,26.42364333,9.104
     -80.15279167,26.42364333,9.104
     -80.15279167,26.42364333,9.104
     -80.15279167,26.42364333,9.104
     -80.15279167,26.42364333,9.104
     -80.15279167,26.42364333,9.104
     -80.15279167,26.42364333,9.104
     -80.15279167,26.42364333,9.104
     -80.15279167,26.42364333,9.104
     -80.15279167,26.42364333,9.104
     -80.15279167,26.42364333,9.104
     -80.15279167,26.42364333,9.104
     -80.15279167,26.42364333,9.104
     -80.15279167,26.42364333,9.104
     -80.15279167,26.42364333,9.104
     -80.15279667,26.42364500,10.304
     -80.15279500,26.42364333,10.404
     -80.15279500,26.42364333,10.004
     -80.15279333,26.42364333,9.604
     -80.15279333,26.42364333,9.604
     -80.15279333,26.42364333,9.604
     -80.15279333,26.42364333,9.604
     -80.15279333,26.42364333,9.604
     -80.15279333,26.42364333,9.604
     -80.15279333,26.42364333,9.604
     -80.15279333,26.42364333,9.604
     -80.15279333,26.42364333,9.604
     -80.15279333,26.42364333,9.604
     -80.15279333,26.42364333,9.604
     -80.15279333,26.42364333,9.604
     -80.15279333,26.42364333,9.604
     -80.15279333,26.42364333,9.604
     -80.15279333,26.42364333,9.604
     -80.15279333,26.42364333,9.604
     -80.15279333,26.42364333,9.604
     -80.15280833,26.42361000,10.404
     -80.15281000,26.42360667,10.604
     -80.15280667,26.42360167,10.704
     -80.15280167,26.42359667,10.904
     -80.15279833,26.42359000,11.104
     -80.15279667,26.42358000,11.304
     -80.15279500,26.42357167,11.604
     -80.15279500,26.42356333,11.904
     -80.15279833,26.42355500,12.004
     -80.15279333,26.42354667,11.904
     -80.15279167,26.42354167,11.704
     -80.15278667,26.42353500,11.304
     -80.15278333,26.42352500,10.904
     -80.15277833,26.42351667,10.604
     -80.15278333,26.42350833,10.104
     -80.15279000,26.42350167,9.804
     -80.15279167,26.42349333,9.404
     -80.15280333,26.42348500,9.304
     -80.15281500,26.42347833,9.404
     -80.15282667,26.42347500,9.404
     -80.15283833,26.42346833,9.504
     -80.15284833,26.42346000,9.604
     -80.15285333,26.42345500,9.604
     -80.15285667,26.42344833,9.404
     -80.15286500,26.42344167,9.204
     -80.15287167,26.42343500,9.204
     -80.15287833,26.42342833,9.204
     -80.15288667,26.42341833,9.004
     -80.15289167,26.42341333,9.004
     -80.15290167,26.42340833,9.204
     -80.15291000,26.42340167,9.404
     -80.15291667,26.42339667,9.304
     -80.15292500,26.42338500,8.904
     -80.15293500,26.42337500,8.604
     -80.15294500,26.42336833,8.304
     -80.15295833,26.42335667,8.104
     -80.15297000,26.42334667,8.103
     -80.15298167,26.42333667,8.203
     -80.15299167,26.42332833,8.403
     -80.15300667,26.42331833,8.303
     -80.15302167,26.42330667,8.303
     -80.15303333,26.42329833,8.203
     -80.15304500,26.42329333,8.103
     -80.15305667,26.42329167,7.903
     -80.15306833,26.42328667,7.703
     -80.15308333,26.42327667,7.403
     -80.15310333,26.42327667,7.803
     -80.15312000,26.42327500,7.603
     -80.15313667,26.42326333,7.403
     -80.15315333,26.42325667,7.103
     -80.15317000,26.42324500,6.903
     -80.15318833,26.42323833,6.903
     -80.15320333,26.42323333,6.802
     -80.15321667,26.42322167,6.802
     -80.15322667,26.42321333,7.002
     -80.15323667,26.42320333,7.402
     -80.15324333,26.42319500,7.802
     -80.15324667,26.42318500,8.202
     -80.15324333,26.42317167,8.502
     -80.15324167,26.42316167,8.702
     -80.15324167,26.42315333,8.902
     -80.15324333,26.42314667,8.902
     -80.15323833,26.42314167,8.902
     -80.15323333,26.42313000,9.002
     -80.15322833,26.42311833,9.202
     -80.15322333,26.42310333,9.302
     -80.15321500,26.42308333,9.602
     -80.15320833,26.42306167,10.002
     -80.15320667,26.42304333,10.102
     -80.15320667,26.42302667,10.602
     -80.15320167,26.42301000,11.102
     -80.15320500,26.42299500,11.802
     -80.15321000,26.42298000,11.802
     -80.15321167,26.42297000,11.802
     -80.15321167,26.42296000,11.602
     -80.15321500,26.42294500,11.602
     -80.15321167,26.42293333,11.602
     -80.15321167,26.42291667,11.802
     -80.15321833,26.42291000,11.702
     -80.15322000,26.42289500,11.902
     -80.15322333,26.42287667,11.802
     -80.15321833,26.42286167,11.602
     -80.15321167,26.42284500,11.702
     -80.15321000,26.42282833,12.202
     -80.15321000,26.42281167,12.902
     -80.15320333,26.42279500,13.102
     -80.15319833,26.42277833,13.002
     -80.15319500,26.42276333,13.302
     -80.15319667,26.42275667,12.802
     -80.15320167,26.42274500,12.202
     -80.15321000,26.42273167,11.802
     -80.15321667,26.42271000,11.902
     -80.15321833,26.42269833,11.602
     -80.15321000,26.42268667,11.102
     -80.15320000,26.42267333,10.602
     -80.15318833,26.42266667,9.902
     -80.15317167,26.42266167,9.302
     -80.15315333,26.42265833,8.802
     -80.15313667,26.42265500,8.302
     -80.15312167,26.42265000,8.002
     -80.15310333,26.42264500,7.503
     -80.15308833,26.42263833,7.103
     -80.15307167,26.42262833,7.403
     -80.15305500,26.42262000,6.803
     -80.15303833,26.42261333,6.203
     -80.15302167,26.42260500,5.903
     -80.15300333,26.42259667,5.303
     -80.15298667,26.42258667,5.403
     -80.15297000,26.42257500,5.203
     -80.15295333,26.42256333,5.103
     -80.15293667,26.42255500,5.103
     -80.15292167,26.42254667,5.403
     -80.15291000,26.42253667,5.803
     -80.15289333,26.42252500,5.903
     -80.15288000,26.42251333,5.703
     -80.15286500,26.42250333,5.503
     -80.15285167,26.42249000,5.503
     -80.15283500,26.42247667,5.504
     -80.15282000,26.42246500,6.004
     -80.15280500,26.42245500,7.104
     -80.15279167,26.42244167,7.304
     -80.15278333,26.42242833,7.204
     -80.15277333,26.42241333,6.904
     -80.15276500,26.42240167,6.604
     -80.15274167,26.42239167,6.604
     -80.15272500,26.42237667,7.004
     -80.15271500,26.42236167,7.404
     -80.15270167,26.42234833,7.204
     -80.15269000,26.42233667,7.204
     -80.15267667,26.42232500,7.104
     -80.15266167,26.42231333,6.904
     -80.15265000,26.42230333,7.204
     -80.15264000,26.42228833,7.404
     -80.15263000,26.42227167,7.804
     -80.15261833,26.42226000,7.704
     -80.15260667,26.42224500,7.604
     -80.15259833,26.42223000,7.404
     -80.15258500,26.42221167,7.604
     -80.15257333,26.42219667,7.704
     -80.15256500,26.42218167,7.804
     -80.15255667,26.42216333,7.805
     -80.15254833,26.42214667,7.505
     -80.15254167,26.42213167,7.205
     -80.15253500,26.42211667,7.205
     -80.15252667,26.42210167,7.005
     -80.15252000,26.42208667,7.005
     -80.15251333,26.42207167,7.205
     -80.15250667,26.42206000,7.405
     -80.15250000,26.42205000,7.905
     -80.15249333,26.42203833,7.805
     -80.15248833,26.42202167,7.405
     -80.15248500,26.42200500,7.405
     -80.15248000,26.42198833,7.505
     -80.15247667,26.42196667,7.405
     -80.15247333,26.42194667,7.405
     -80.15246833,26.42193167,7.705
     -80.15246667,26.42191500,7.605
     -80.15246667,26.42189833,7.305
     -80.15246333,26.42188167,6.905
     -80.15246167,26.42186500,6.805
     -80.15246000,26.42184667,6.705
     -80.15245833,26.42183000,6.605
     -80.15245667,26.42181167,6.205
     -80.15245500,26.42179333,6.205
     -80.15245333,26.42177333,6.105
     -80.15245000,26.42175500,6.105
     -80.15245000,26.42173833,6.005
     -80.15245000,26.42172333,6.105
     -80.15244833,26.42170500,6.305
     -80.15244833,26.42168833,6.205
     -80.15244500,26.42167333,6.005
     -80.15244667,26.42166000,5.905
     -80.15244333,26.42164000,5.805
     -80.15244500,26.42162167,6.005
     -80.15244500,26.42160667,6.005
     -80.15244500,26.42159000,5.905
     -80.15244667,26.42157167,5.905
     -80.15244500,26.42155500,5.905
     -80.15244667,26.42153833,6.205
     -80.15244833,26.42152000,6.505
     -80.15245333,26.42150333,6.905
     -80.15245500,26.42148833,7.405
     -80.15245833,26.42147500,7.705
     -80.15245500,26.42145833,7.305
     -80.15245167,26.42144000,6.605
     -80.15245000,26.42142167,6.005
     -80.15244833,26.42140333,5.505
     -80.15245000,26.42138500,5.405
     -80.15245333,26.42136833,5.204
     -80.15245167,26.42135167,5.104
     -80.15245167,26.42133500,5.004
     -80.15244833,26.42132167,4.704
     -80.15244333,26.42130500,4.304
     -80.15244500,26.42128500,4.504
     -80.15244500,26.42126500,4.204
     -80.15244500,26.42124667,4.004
     -80.15244333,26.42123167,4.404
     -80.15244000,26.42121333,4.904
     -80.15243667,26.42119833,5.704
     -80.15243500,26.42118000,6.504
     -80.15243667,26.42116500,6.804
     -80.15243667,26.42115000,6.704
     -80.15244167,26.42113500,6.604
     -80.15244167,26.42112000,6.604
     -80.15244333,26.42110500,6.604
     -80.15244333,26.42108833,6.604
     -80.15244333,26.42107000,6.804
     -80.15244333,26.42105333,6.504
     -80.15244000,26.42103667,6.304
     -80.15243833,26.42102000,6.104
     -80.15243667,26.42100333,6.004
     -80.15243833,26.42098333,6.004
     -80.15244000,26.42096333,6.204
     -80.15244167,26.42094333,6.104
     -80.15244167,26.42092833,5.904
     -80.15244000,26.42091167,5.904
     -80.15244000,26.42089500,5.804
     -80.15243667,26.42087667,5.804
     -80.15243333,26.42085833,5.604
     -80.15243333,26.42084000,5.504
     -80.15243167,26.42082333,5.104
     -80.15243000,26.42080500,5.004
     -80.15242833,26.42078833,4.804
     -80.15242667,26.42077167,4.704
     -80.15243000,26.42075333,4.604
     -80.15243167,26.42073667,4.504
     -80.15243000,26.42072000,4.604
     -80.15243000,26.42070167,4.804
     -80.15243000,26.42068667,4.904
     -80.15243000,26.42066833,5.204
     -80.15243167,26.42064833,5.204
     -80.15243500,26.42062500,5.004
     -80.15243833,26.42060667,5.304
     -80.15244000,26.42059000,5.604
     -80.15244167,26.42057333,5.904
     -80.15243833,26.42055667,5.804
     -80.15243667,26.42053833,5.504
     -80.15243167,26.42052333,5.304
     -80.15243000,26.42051167,5.104
     -80.15243000,26.42049833,5.204
     -80.15243333,26.42048500,5.004
     -80.15243333,26.42047000,5.104
     -80.15243333,26.42045333,5.004
     -80.15243667,26.42043333,5.104
     -80.15244000,26.42041833,5.304
     -80.15243833,26.42040167,5.404
     -80.15243833,26.42038333,5.904
     -80.15243833,26.42036500,6.104
     -80.15243833,26.42034500,6.204
     -80.15243667,26.42032833,6.104
     -80.15243667,26.42031000,5.904
     -80.15243500,26.42029500,5.904
     -80.15243500,26.42028000,6.104
     -80.15243333,26.42026333,6.204
     -80.15243167,26.42024833,6.304
     -80.15243000,26.42023500,6.704
     -80.15242833,26.42021667,7.204
     -80.15242833,26.42019833,7.504
     -80.15242833,26.42018333,7.604
     -80.15242667,26.42016667,7.804
     -80.15242333,26.42014833,7.804
     -80.15242000,26.42013167,7.704
     -80.15241833,26.42011500,7.304
     -80.15241833,26.42010000,7.204
     -80.15241833,26.42008500,7.104
     -80.15241667,26.42007167,7.004
     -80.15241667,26.42005667,6.804
     -80.15241667,26.42004000,6.704
     -80.15241667,26.42002333,6.704
     -80.15241667,26.42000667,6.604
     -80.15242000,26.41998833,6.404
     -80.15242333,26.41997000,6.104
     -80.15242833,26.41995167,5.804
     -80.15243167,26.41993333,5.304
     -80.15243333,26.41991500,5.204
     -80.15243667,26.41989667,5.104
     -80.15244333,26.41988333,5.104
     -80.15245000,26.41986500,5.004
     -80.15245667,26.41984833,4.804
     -80.15246333,26.41982833,5.004
     -80.15246833,26.41981167,5.604
     -80.15247167,26.41980000,6.204
     -80.15247500,26.41978333,6.904
     -80.15248167,26.41976500,6.803
     -80.15248500,26.41974667,6.603
     -80.15249167,26.41973167,6.403
     -80.15250167,26.41971667,6.303
     -80.15251167,26.41970333,6.003
     -80.15252333,26.41969167,5.803
     -80.15253167,26.41967500,5.503
     -80.15254333,26.41966167,5.103
     -80.15255167,26.41964667,5.103
     -80.15256000,26.41963000,5.203
     -80.15257000,26.41961333,5.203
     -80.15258333,26.41959667,5.303
     -80.15259667,26.41958167,5.203
     -80.15261167,26.41956833,5.203
     -80.15262667,26.41955667,5.203
     -80.15264000,26.41954833,4.803
     -80.15266000,26.41953833,4.903
     -80.15267833,26.41953000,4.903
     -80.15269333,26.41951833,5.102
     -80.15270667,26.41950500,5.302
     -80.15272167,26.41949500,5.402
     -80.15273833,26.41948500,5.502
     -80.15275500,26.41947167,6.002
     -80.15277000,26.41945833,6.402
     -80.15278667,26.41944667,6.602
     -80.15280333,26.41943500,6.602
     -80.15282000,26.41942667,6.802
     -80.15283500,26.41941500,7.102
     -80.15285167,26.41941000,7.102
     -80.15286833,26.41940333,7.302
     -80.15288333,26.41940000,7.402
     -80.15290167,26.41939333,7.802
     -80.15292500,26.41938667,7.801
     -80.15294500,26.41938500,7.701
     -80.15296167,26.41938167,7.601
     -80.15297500,26.41937667,7.501
     -80.15298833,26.41937167,7.401
     -80.15300167,26.41937000,7.201
     -80.15301833,26.41936500,6.901
     -80.15303167,26.41936167,6.601
     -80.15304667,26.41935833,6.401
     -80.15306333,26.41935333,6.501
     -80.15308167,26.41934833,6.001
     -80.15310333,26.41934167,6.201
     -80.15312333,26.41933500,6.301
     -80.15314167,26.41933500,6.401
     -80.15316000,26.41933333,6.200
     -80.15317833,26.41933500,6.100
     -80.15319667,26.41933500,6.200
     -80.15321833,26.41933500,6.400
     -80.15323833,26.41933500,6.700
     -80.15325833,26.41933500,7.000
     -80.15327667,26.41933333,7.200
     -80.15329167,26.41933500,7.600
     -80.15330667,26.41933667,7.900
     -80.15332333,26.41934000,8.200
     -80.15333833,26.41934333,8.400
     -80.15335500,26.41934667,8.900
     -80.15337333,26.41935000,9.300
     -80.15339167,26.41935667,9.400
     -80.15340833,26.41936167,9.499
     -80.15342333,26.41936667,9.599
     -80.15344000,26.41937167,9.499
     -80.15345833,26.41937667,9.099
     -80.15348000,26.41938500,8.699
     -80.15350000,26.41939500,8.899
     -80.15352000,26.41940833,8.999
     -80.15354000,26.41942000,9.499
     -80.15356167,26.41943333,10.099
     -80.15358167,26.41945000,10.299
     -80.15359333,26.41946167,10.599
     -80.15360667,26.41947333,10.899
     -80.15361833,26.41948000,10.699
     -80.15363167,26.41948833,10.899
     -80.15364333,26.41949333,11.199
     -80.15365333,26.41949500,11.799
     -80.15366667,26.41949833,12.698
     -80.15368500,26.41950500,12.898
     -80.15370333,26.41951500,13.198
     -80.15372167,26.41952333,13.198
     -80.15373667,26.41953000,13.198
     -80.15375333,26.41954000,13.298
     -80.15376667,26.41955000,13.298
     -80.15377833,26.41956167,13.398
     -80.15379333,26.41957500,13.398
     -80.15381000,26.41958833,13.198
     -80.15383000,26.41960167,12.798
     -80.15385167,26.41961333,12.498
     -80.15386833,26.41962333,12.498
     -80.15388333,26.41963333,12.198
     -80.15390000,26.41964333,11.798
     -80.15391500,26.41965500,11.198
     -80.15393167,26.41966500,10.997
     -80.15394833,26.41967167,10.797
     -80.15396333,26.41968167,10.497
     -80.15398167,26.41969167,10.897
     -80.15399833,26.41970167,11.197
     -80.15401333,26.41971167,11.197
     -80.15403667,26.41972167,11.397
     -80.15405167,26.41973333,11.297
     -80.15407000,26.41974500,11.097
     -80.15409000,26.41975500,11.297
     -80.15410500,26.41976333,11.097
     -80.15412167,26.41977333,10.497
     -80.15413833,26.41978000,10.197
     -80.15415333,26.41978667,9.697
     -80.15416833,26.41979833,9.497
     -80.15418500,26.41980667,9.196
     -80.15420167,26.41981833,9.296
     -80.15421667,26.41983167,9.696
     -80.15423667,26.41984000,9.596
     -80.15425333,26.41984667,9.296
     -80.15427000,26.41985333,9.096
     -80.15428500,26.41986167,8.996
     -80.15430000,26.41987167,8.896
     -80.15431667,26.41988000,8.796
     -80.15433667,26.41989333,8.496
     -80.15435167,26.41990167,8.096
     -80.15437000,26.41991167,7.996
     -80.15438667,26.41992333,7.996
     -80.15440000,26.41993333,7.496
     -80.15441500,26.41994167,7.296
     -80.15443000,26.41995167,7.096
     -80.15444833,26.41996167,6.895
     -80.15446500,26.41997333,7.195
     -80.15448000,26.41998333,7.495
     -80.15449500,26.41999667,7.295
     -80.15451500,26.42000833,7.395
     -80.15453500,26.42001833,7.395
     -80.15455000,26.42002500,7.595
     -80.15456833,26.42003333,7.795
     -80.15458500,26.42004333,7.895
     -80.15460333,26.42005500,7.595
     -80.15462333,26.42006500,7.795
     -80.15464333,26.42007667,7.895
     -80.15466167,26.42008667,8.095
     -80.15468000,26.42009500,8.395
     -80.15469833,26.42010500,8.895
     -80.15471500,26.42011333,8.794
     -80.15473167,26.42012167,8.594
     -80.15475000,26.42012833,8.594
     -80.15476667,26.42013833,8.494
     -80.15478500,26.42014667,8.394
     -80.15480333,26.42015667,8.294
     -80.15482167,26.42016667,7.994
     -80.15484167,26.42017500,7.894
     -80.15486000,26.42018333,7.694
     -80.15487667,26.42019500,7.594
     -80.15489667,26.42020333,7.494
     -80.15491500,26.42021333,7.394
     -80.15493167,26.42022333,7.194
     -80.15494833,26.42023167,6.894
     -80.15496500,26.42024000,6.494
     -80.15498333,26.42024833,6.393
     -80.15500167,26.42025667,6.193
     -80.15502000,26.42026667,6.393
     -80.15503833,26.42027500,6.793
     -80.15505667,26.42028167,7.093
     -80.15507667,26.42029000,7.493
     -80.15509500,26.42029667,7.693
     -80.15511333,26.42030167,7.693
     -80.15513333,26.42030833,7.693
     -80.15515167,26.42031500,7.693
     -80.15517167,26.42032000,7.793
     -80.15519333,26.42032667,8.093
     -80.15521167,26.42033500,7.793
     -80.15523167,26.42034167,7.892
     -80.15525000,26.42034500,7.892
     -80.15527000,26.42035167,7.992
     -80.15529000,26.42036000,7.692
     -80.15531000,26.42036833,7.792
     -80.15533000,26.42037333,7.692
     -80.15535333,26.42038167,7.392
     -80.15537333,26.42038833,7.792
     -80.15539500,26.42039167,8.292
     -80.15541833,26.42039833,8.692
     -80.15544000,26.42040500,8.892
     -80.15545833,26.42041167,8.992
     -80.15548333,26.42041833,9.091
     -80.15550500,26.42042333,9.591
     -80.15552667,26.42043000,9.891
     -80.15554500,26.42043667,9.891
     -80.15556667,26.42044333,10.091
     -80.15558667,26.42044667,10.891
     -80.15561000,26.42045167,11.191
     -80.15562833,26.42045667,11.391
     -80.15565000,26.42046167,11.091
     -80.15567500,26.42046500,10.991
     -80.15570000,26.42047167,10.691
     -80.15572000,26.42047833,10.291
     -80.15574000,26.42048667,9.590
     -80.15576167,26.42049333,9.190
     -80.15578333,26.42049833,9.090
     -80.15580333,26.42050333,8.990
     -80.15582333,26.42051167,8.790
     -80.15584667,26.42051667,8.590
     -80.15586667,26.42052167,8.090
     -80.15588833,26.42052667,7.790
     -80.15591000,26.42053000,7.590
     -80.15593333,26.42053333,7.690
     -80.15595500,26.42053667,7.590
     -80.15597667,26.42054167,7.490
     -80.15599500,26.42054500,7.289
     -80.15601500,26.42054833,6.989
     -80.15603333,26.42055000,6.789
     -80.15605500,26.42055167,6.689
     -80.15607333,26.42055500,6.389
     -80.15609500,26.42055833,6.089
     -80.15611500,26.42055833,6.089
     -80.15613500,26.42056167,5.889
     -80.15616000,26.42056167,5.889
     -80.15618333,26.42056000,5.989
     -80.15620500,26.42056000,6.289
     -80.15622333,26.42056000,6.589
     -80.15624500,26.42056167,6.688
     -80.15626333,26.42056333,6.788
     -80.15628333,26.42056667,6.988
     -80.15630333,26.42057000,7.288
     -80.15632167,26.42057167,7.888
     -80.15634333,26.42057333,8.488
     -80.15636500,26.42057500,8.588
     -80.15638833,26.42057667,8.688
     -80.15640833,26.42057500,8.788
     -80.15643000,26.42057667,8.988
     -80.15645000,26.42057500,9.388
     -80.15647000,26.42057667,9.388
     -80.15648667,26.42057667,9.387
     -80.15650667,26.42057833,9.387
     -80.15652833,26.42058333,9.287
     -80.15654500,26.42058500,9.287
     -80.15656500,26.42058500,9.287
     -80.15658667,26.42058667,9.387
     -80.15661000,26.42059000,9.387
     -80.15663333,26.42059333,9.587
     -80.15665500,26.42059333,10.087
     -80.15667500,26.42059667,10.487
     -80.15669667,26.42060167,10.587
     -80.15671667,26.42060333,10.587
     -80.15673667,26.42060167,10.386
     -80.15675500,26.42060167,10.086
     -80.15677667,26.42059833,9.586
     -80.15679667,26.42059667,9.486
     -80.15681833,26.42059667,9.086
     -80.15684000,26.42059333,8.886
     -80.15686167,26.42059167,8.686
     -80.15688500,26.42058833,8.686
     -80.15690833,26.42058500,8.686
     -80.15693167,26.42058333,8.786
     -80.15695500,26.42058167,8.686
     -80.15697667,26.42058000,8.485
     -80.15699667,26.42057667,8.785
     -80.15701833,26.42057500,8.885
     -80.15704000,26.42057000,8.785
     -80.15706000,26.42056833,8.685
     -80.15708167,26.42056833,8.585
     -80.15710333,26.42056667,8.785
     -80.15712500,26.42056333,8.685
     -80.15714500,26.42056333,8.585
     -80.15716333,26.42056167,8.185
     -80.15718500,26.42055833,8.085
     -80.15720500,26.42055500,8.084
     -80.15722333,26.42055000,7.884
     -80.15724333,26.42054333,7.684
     -80.15726333,26.42053833,7.784
     -80.15728500,26.42053500,7.484
     -80.15731000,26.42053333,7.184
     -80.15733500,26.42053167,6.584
     -80.15735667,26.42052833,6.484
     -80.15738167,26.42052500,6.384
     -80.15740333,26.42052167,6.284
     -80.15742167,26.42052000,6.384
     -80.15744000,26.42051333,6.283
     -80.15745833,26.42051000,6.083
     -80.15748000,26.42050500,6.183
     -80.15749833,26.42050167,6.283
     -80.15751833,26.42049833,6.283
     -80.15753667,26.42049500,6.283
     -80.15755667,26.42049167,6.383
     -80.15757500,26.42048667,6.183
     -80.15759500,26.42048000,6.083
     -80.15761500,26.42047167,6.283
     -80.15763667,26.42046667,6.183
     -80.15765500,26.42046167,6.183
     -80.15767500,26.42045833,6.482
     -80.15769333,26.42045333,6.882
     -80.15771333,26.42045167,7.082
     -80.15773333,26.42044833,7.382
     -80.15775667,26.42044500,7.582
     -80.15777833,26.42044167,7.382
     -80.15780000,26.42044000,7.482
     -80.15782167,26.42043500,7.382
     -80.15784167,26.42042833,7.082
     -80.15786167,26.42042167,6.882
     -80.15788167,26.42041667,6.882
     -80.15790167,26.42041167,6.982
     -80.15792167,26.42040333,7.181
     -80.15794000,26.42039667,7.481
     -80.15795833,26.42039000,7.881
     -80.15797667,26.42038500,8.281
     -80.15799500,26.42037667,8.581
     -80.15801167,26.42037000,8.981
     -80.15803167,26.42036333,9.081
     -80.15805000,26.42035667,9.381
     -80.15806667,26.42034833,9.281
     -80.15808833,26.42034167,9.681
     -80.15810833,26.42033667,9.681
     -80.15812833,26.42033167,9.181
     -80.15814667,26.42032500,8.580
     -80.15816833,26.42032000,8.080
     -80.15818667,26.42031333,7.780
     -80.15820667,26.42030667,7.280
     -80.15822833,26.42030000,7.480
     -80.15824500,26.42029167,7.480
     -80.15826333,26.42028667,7.280
     -80.15828167,26.42028000,7.380
     -80.15830333,26.42026667,7.680
     -80.15832000,26.42025500,7.680
     -80.15834000,26.42024167,7.580
     -80.15836000,26.42023333,7.580
     -80.15838500,26.42022167,7.679
     -80.15840500,26.42021333,7.679
     -80.15842833,26.42020500,7.979
     -80.15845000,26.42019500,8.079
     -80.15846333,26.42018500,8.379
     -80.15847333,26.42017833,8.679
     -80.15848667,26.42017000,8.879
     -80.15849500,26.42016333,9.079
     -80.15850333,26.42015667,8.779
     -80.15851000,26.42015500,8.379
     -80.15851167,26.42015500,8.379
     -80.15851333,26.42015333,8.279
     -80.15851667,26.42014833,8.579
     -80.15852167,26.42014333,8.979
     -80.15853167,26.42013833,9.379
     -80.15854333,26.42013333,9.579
     -80.15855500,26.42013000,9.879
     -80.15857000,26.42012667,9.879
     -80.15858667,26.42012167,10.279
     -80.15860000,26.42011333,10.178
     -80.15861667,26.42010167,10.078
     -80.15863333,26.42009000,9.578
     -80.15864667,26.42007667,9.178
     -80.15866167,26.42006667,8.778
     -80.15867667,26.42005500,8.678
     -80.15869000,26.42004500,8.678
     -80.15870500,26.42003333,8.678
     -80.15871833,26.42002333,8.878
     -80.15873333,26.42001167,9.178
     -80.15874667,26.42000167,9.478
     -80.15876167,26.41999000,9.578
     -80.15878000,26.41997667,9.278
     -80.15879500,26.41996500,9.178
     -80.15881333,26.41995333,8.878
     -80.15883000,26.41994333,9.177
     -80.15884500,26.41993167,8.877
     -80.15886167,26.41992000,8.877
     -80.15887667,26.41990833,8.777
     -80.15889000,26.41989500,8.977
     -80.15890667,26.41988167,9.277
     -80.15892000,26.41986667,9.277
     -80.15893500,26.41985333,9.377
     -80.15895000,26.41984167,8.977
     -80.15896833,26.41983167,8.877
     -80.15898167,26.41982000,9.077
     -80.15899500,26.41980667,8.977
     -80.15901000,26.41979500,8.677
     -80.15902333,26.41978000,8.377
     -80.15904000,26.41976667,7.976
     -80.15905333,26.41975667,7.276
     -80.15906667,26.41974500,6.676
     -80.15908333,26.41973167,6.776
     -80.15909500,26.41970833,6.076
     -80.15910833,26.41969500,5.576
     -80.15912500,26.41968500,5.376
     -80.15914000,26.41967333,5.276
     -80.15915000,26.41966500,5.176
     -80.15916000,26.41965667,5.276
     -80.15917000,26.41965167,5.476
     -80.15917833,26.41964667,5.676
     -80.15918833,26.41964333,5.776
     -80.15920000,26.41963833,5.976
     -80.15921333,26.41963500,6.376
     -80.15923000,26.41963500,6.376
     -80.15924833,26.41963667,6.676
     -80.15926333,26.41964167,6.775
     -80.15927667,26.41965000,6.775
     -80.15929167,26.41965833,6.675
     -80.15930667,26.41966833,6.775
     -80.15932333,26.41967833,6.875
     -80.15933667,26.41969000,7.175
     -80.15935167,26.41970167,7.275
     -80.15936333,26.41971667,7.475
     -80.15937500,26.41972500,7.375
     -80.15939167,26.41973667,7.075
     -80.15941000,26.41975167,6.775
     -80.15942833,26.41976500,6.475
     -80.15944667,26.41978000,6.075
     -80.15946167,26.41979667,5.975
     -80.15947833,26.41981167,5.875
     -80.15949333,26.41982833,5.875
     -80.15950667,26.41984167,5.775
     -80.15952000,26.41985333,5.975
     -80.15953500,26.41986500,6.074
     -80.15955000,26.41987833,5.974
     -80.15956500,26.41989000,6.474
     -80.15957833,26.41990500,6.874
     -80.15959500,26.41991833,7.374
     -80.15961167,26.41993167,8.274
     -80.15962667,26.41994167,8.374
     -80.15964500,26.41995167,8.174
     -80.15966167,26.41996500,8.074
     -80.15967667,26.41997000,8.474
     -80.15969167,26.41998000,8.774
     -80.15970833,26.41999333,9.074
     -80.15972333,26.42000167,9.174
     -80.15973667,26.42001000,9.174
     -80.15975000,26.42002000,9.374
     -80.15976667,26.42002833,9.374
     -80.15978333,26.42004000,9.174
     -80.15980167,26.42005333,9.574
     -80.15982167,26.42006333,9.673
     -80.15983833,26.42006833,9.373
     -80.15985500,26.42007833,9.073
     -80.15987167,26.42009167,8.673
     -80.15988667,26.42010000,8.473
     -80.15990333,26.42011167,8.373
     -80.15992000,26.42012500,8.373
     -80.15994000,26.42013500,8.673
     -80.15995833,26.42014500,8.573
     -80.15998500,26.42015833,8.373
     -80.16000667,26.42017500,7.973
     -80.16002833,26.42018667,7.473
     -80.16004667,26.42020000,7.373
     -80.16006167,26.42021000,7.773
     -80.16007500,26.42022000,8.272
     -80.16009167,26.42023167,8.572
     -80.16011167,26.42024000,8.372
     -80.16013000,26.42025000,8.372
     -80.16014833,26.42025500,8.572
     -80.16016833,26.42026333,8.672
     -80.16018833,26.42027333,8.572
     -80.16020667,26.42028333,8.572
     -80.16022667,26.42029500,8.372
     -80.16024500,26.42030667,8.672
     -80.16026500,26.42031500,8.872
     -80.16028833,26.42032333,8.572
     -80.16030667,26.42033667,8.472
     -80.16032500,26.42034500,8.572
     -80.16034333,26.42035667,8.871
     -80.16036500,26.42036500,9.271
     -80.16038500,26.42037167,9.871
     -80.16040667,26.42038000,9.871
     -80.16042500,26.42038500,10.271
     -80.16044500,26.42039167,10.371
     -80.16046167,26.42039833,10.371
     -80.16048167,26.42040500,9.971
     -80.16050500,26.42041167,9.571
     -80.16052500,26.42042167,9.171
     -80.16054667,26.42043000,8.771
     -80.16056667,26.42043667,8.571
     -80.16058333,26.42044500,8.671
     -80.16060000,26.42045833,8.470
     -80.16061500,26.42046833,8.570
     -80.16063333,26.42048167,8.870
     -80.16065500,26.42049167,8.970
     -80.16067167,26.42049833,8.870
     -80.16069000,26.42050333,9.170
     -80.16071167,26.42051167,9.170
     -80.16073333,26.42052000,8.870
     -80.16076167,26.42053000,8.370
     -80.16078167,26.42053667,8.270
     -80.16080000,26.42054167,7.970
     -80.16082000,26.42055000,7.670
     -80.16084000,26.42056000,7.570
     -80.16085833,26.42056833,7.069
     -80.16087833,26.42057667,6.569
     -80.16090000,26.42058333,6.569
     -80.16092167,26.42059000,6.469
     -80.16094167,26.42059500,6.669
     -80.16096000,26.42060167,6.969
     -80.16097500,26.42061000,7.469
     -80.16099333,26.42061833,7.669
     -80.16101167,26.42062500,7.569
     -80.16103167,26.42063167,7.969
     -80.16105167,26.42063667,8.469
     -80.16107333,26.42064000,8.769
     -80.16109167,26.42064667,8.869
     -80.16111167,26.42065167,8.868
     -80.16112833,26.42066000,8.568
     -80.16115167,26.42066833,8.368
     -80.16117333,26.42067333,8.068
     -80.16119000,26.42068167,8.368
     -80.16120667,26.42069000,8.368
     -80.16122667,26.42069500,8.268
     -80.16124667,26.42070000,8.468
     -80.16126833,26.42070667,8.268
     -80.16128833,26.42071333,8.368
     -80.16131000,26.42071667,8.668
     -80.16133500,26.42071667,8.868
     -80.16135833,26.42071833,9.467
     -80.16137833,26.42072000,9.767
     -80.16139333,26.42072167,9.967
     -80.16140833,26.42071833,9.967
     -80.16143000,26.42072500,9.867
     -80.16145333,26.42073167,9.767
     -80.16147667,26.42074000,9.367
     -80.16149333,26.42074333,9.167
     -80.16151167,26.42074833,8.767
     -80.16153000,26.42075500,8.367
     -80.16154833,26.42075833,8.067
     -80.16157000,26.42076167,7.667
     -80.16159333,26.42077000,7.467
     -80.16161333,26.42077667,6.866
     -80.16163167,26.42078000,6.566
     -80.16165167,26.42078167,6.366
     -80.16167000,26.42078167,6.066
     -80.16169000,26.42078500,6.066
     -80.16170833,26.42079000,5.966
     -80.16172833,26.42079500,5.766
     -80.16174833,26.42079667,5.866
     -80.16177000,26.42080167,6.166
     -80.16179167,26.42080333,6.366
     -80.16181333,26.42080667,6.566
     -80.16183333,26.42080833,6.466
     -80.16185333,26.42081000,6.465
     -80.16187333,26.42081167,6.365
     -80.16189500,26.42081000,5.765
     -80.16192167,26.42081000,5.565
     -80.16194333,26.42080833,5.665
     -80.16196333,26.42081167,5.365
     -80.16198667,26.42081500,5.465
     -80.16200833,26.42081833,5.765
     -80.16202667,26.42082000,6.065
     -80.16204833,26.42082500,6.465
     -80.16206833,26.42082833,6.665
     -80.16208833,26.42083333,6.765
     -80.16211000,26.42083333,6.864
     -80.16212667,26.42083500,6.764
     -80.16214667,26.42083667,6.864
     -80.16216167,26.42083500,6.864
     -80.16217833,26.42083667,6.964
     -80.16219667,26.42084000,7.264
     -80.16222000,26.42084500,7.864
     -80.16224333,26.42084667,7.864
     -80.16226500,26.42084667,7.764
     -80.16228833,26.42084833,7.564
     -80.16230833,26.42085167,7.464
     -80.16233000,26.42085167,7.164
     -80.16234833,26.42085000,6.863
     -80.16236667,26.42085000,6.863
     -80.16238500,26.42085000,6.663
     -80.16240333,26.42085167,6.563
     -80.16242167,26.42085167,6.863
     -80.16244500,26.42084833,6.863
     -80.16246500,26.42084667,7.163
     -80.16248667,26.42084833,7.463
     -80.16250667,26.42084833,7.463
     -80.16252667,26.42084667,7.363
     -80.16254667,26.42084833,7.563
     -80.16256667,26.42084833,7.563
     -80.16258500,26.42085000,7.662
     -80.16260500,26.42085000,7.562
     -80.16262333,26.42085000,7.462
     -80.16264333,26.42084667,7.162
     -80.16266333,26.42084500,6.862
     -80.16268167,26.42084333,6.962
     -80.16270167,26.42084167,7.462
     -80.16272167,26.42084167,7.762
     -80.16273833,26.42084333,7.762
     -80.16275833,26.42084167,7.862
     -80.16277833,26.42083833,7.862
     -80.16279667,26.42083500,7.562
     -80.16281500,26.42083167,7.062
     -80.16283167,26.42083000,7.061
     -80.16285333,26.42082833,6.961
     -80.16287500,26.42082667,7.361
     -80.16289667,26.42082333,7.861
     -80.16292167,26.42082167,8.061
     -80.16294333,26.42081833,8.061
     -80.16296167,26.42081333,8.661
     -80.16298667,26.42080833,9.061
     -80.16300833,26.42080667,9.361
     -80.16302500,26.42080667,9.461
     -80.16304333,26.42080667,9.561
     -80.16306000,26.42080833,9.561
     -80.16307667,26.42080833,9.360
     -80.16309000,26.42080667,9.860
     -80.16310000,26.42080500,10.160
     -80.16311167,26.42080333,10.160
     -80.16312333,26.42080000,10.360
     -80.16313500,26.42079667,10.560
     -80.16314833,26.42079500,10.360
     -80.16316167,26.42079333,10.560
     -80.16317333,26.42079333,10.660
     -80.16318333,26.42079333,10.860
     -80.16319167,26.42079167,10.660
     -80.16320500,26.42079000,10.360
     -80.16321500,26.42079167,10.060
     -80.16322667,26.42079000,9.860
     -80.16323833,26.42078667,9.560
     -80.16325333,26.42078333,9.660
     -80.16326500,26.42078000,9.860
     -80.16328167,26.42078000,9.860
     -80.16329167,26.42077667,9.960
     -80.16330333,26.42077167,10.359
     -80.16331833,26.42076667,10.259
     -80.16333000,26.42076000,10.259
     -80.16334333,26.42075833,9.959
     -80.16336000,26.42075500,9.759
     -80.16338167,26.42075000,9.859
     -80.16339833,26.42074667,9.759
     -80.16341500,26.42074500,9.859
     -80.16343167,26.42074333,9.659
     -80.16344667,26.42073833,9.659
     -80.16346000,26.42073333,9.759
     -80.16347500,26.42073000,9.759
     -80.16349667,26.42072833,9.359
     -80.16351667,26.42072333,9.159
     -80.16353667,26.42071667,9.058
     -80.16355667,26.42071167,8.558
     -80.16357667,26.42071000,8.258
     -80.16359500,26.42071167,8.158
     -80.16361167,26.42070333,8.358
     -80.16363000,26.42069667,8.658
     -80.16365000,26.42069333,9.058
     -80.16367000,26.42069000,9.658
     -80.16369333,26.42068500,9.858
     -80.16372167,26.42068333,9.858
     -80.16374500,26.42068000,9.758
     -80.16377000,26.42067833,10.358
     -80.16379500,26.42067833,11.057
     -80.16381667,26.42067333,11.357
     -80.16383333,26.42067167,11.657
     -80.16385500,26.42066500,12.257
     -80.16387833,26.42065833,12.257
     -80.16389833,26.42065000,12.357
     -80.16391833,26.42064167,12.357
     -80.16393833,26.42063333,12.757
     -80.16395833,26.42062333,12.857
     -80.16398333,26.42061667,12.757
     -80.16400500,26.42060833,12.457
     -80.16402500,26.42060167,12.256
     -80.16404500,26.42059500,11.956
     -80.16406333,26.42059000,11.656
     -80.16408500,26.42058667,11.856
     -80.16410833,26.42058167,11.456
     -80.16412667,26.42057333,11.256
     -80.16414333,26.42056667,10.756
     -80.16416500,26.42056167,10.756
     -80.16418667,26.42055500,10.556
     -80.16420667,26.42054833,10.556
     -80.16422667,26.42054333,9.956
     -80.16424500,26.42053667,9.355
     -80.16426333,26.42053000,9.155
     -80.16428167,26.42052333,9.055
     -80.16430167,26.42051667,8.755
     -80.16432167,26.42051167,8.655
     -80.16434000,26.42050333,8.455
     -80.16436167,26.42049667,8.655
     -80.16438333,26.42049500,8.855
     -80.16440167,26.42049167,8.955
     -80.16442167,26.42048500,9.255
     -80.16443833,26.42048167,9.455
     -80.16445667,26.42047667,9.655
     -80.16447500,26.42047333,9.954
     -80.16449500,26.42047000,10.154
     -80.16451333,26.42046500,10.354
     -80.16453500,26.42046000,10.354
     -80.16455000,26.42044833,10.754
     -80.16456667,26.42044000,10.654
     -80.16458333,26.42043333,10.254
     -80.16460500,26.42042333,10.554
     -80.16462167,26.42041333,10.254
     -80.16464000,26.42040500,9.754
     -80.16466000,26.42040500,9.254
     -80.16468000,26.42040167,9.354
     -80.16469833,26.42040333,9.354
     -80.16471833,26.42040000,9.453
     -80.16473667,26.42039333,9.153
     -80.16475167,26.42038833,8.653
     -80.16476500,26.42038333,8.153
     -80.16477833,26.42037667,7.253
     -80.16479333,26.42036833,7.453
     -80.16480833,26.42036167,7.853
     -80.16482500,26.42035667,8.453
     -80.16484167,26.42035500,8.953
     -80.16485833,26.42035000,9.353
     -80.16487667,26.42034333,9.353
     -80.16489500,26.42033667,9.853
     -80.16491333,26.42033167,9.953
     -80.16493000,26.42032667,9.953
     -80.16494667,26.42032167,10.152
     -80.16496500,26.42031500,10.252
     -80.16498167,26.42031167,10.052
     -80.16499667,26.42030667,9.952
     -80.16501167,26.42030000,10.152
     -80.16502333,26.42029333,10.252
     -80.16503667,26.42028500,10.352
     -80.16505333,26.42027500,10.352
     -80.16507333,26.42026833,10.152
     -80.16508833,26.42026333,10.252
     -80.16510500,26.42026000,10.252
     -80.16512167,26.42025500,10.252
     -80.16514000,26.42025000,10.252
     -80.16515667,26.42024333,10.152
     -80.16517333,26.42023500,10.051
     -80.16519167,26.42022667,9.951
     -80.16520667,26.42022167,9.851
     -80.16522333,26.42022000,9.751
     -80.16524333,26.42021667,9.551
     -80.16526333,26.42021000,9.851
     -80.16528167,26.42020000,9.851
     -80.16529833,26.42019333,10.151
     -80.16531333,26.42018833,10.451
     -80.16533333,26.42018167,10.451
     -80.16534833,26.42017500,9.951
     -80.16536500,26.42016833,10.051
     -80.16538333,26.42016333,10.051
     -80.16540500,26.42015667,10.250
     -80.16542167,26.42014833,10.550
     -80.16543667,26.42014000,10.750
     -80.16545500,26.42013167,10.550
     -80.16547333,26.42012167,10.450
     -80.16548667,26.42011333,10.450
     -80.16549833,26.42010667,10.750
     -80.16551500,26.42009667,10.850
     -80.16553167,26.42008833,11.050
     -80.16554833,26.42008333,11.050
     -80.16556500,26.42007667,11.150
     -80.16558000,26.42007000,11.250
     -80.16559500,26.42006167,11.350
     -80.16561000,26.42005333,11.350
     -80.16562500,26.42004500,11.350
     -80.16564000,26.42003667,11.249
     -80.16565667,26.42003000,11.549
     -80.16567167,26.42002333,11.549
     -80.16568667,26.42001667,11.349
     -80.16570167,26.42000833,11.449
     -80.16571667,26.42000000,11.849
     -80.16573333,26.41999167,12.149
     -80.16574833,26.41998333,12.449
     -80.16576333,26.41997500,12.549
     -80.16577667,26.41996667,12.449
     -80.16579000,26.41996000,12.649
     -80.16580667,26.41995333,12.749
     -80.16582333,26.41994500,12.749
     -80.16584000,26.41993500,12.749
     -80.16585333,26.41992667,12.649
     -80.16587000,26.41991667,12.548
     -80.16588500,26.41991000,12.448
     -80.16589667,26.41990333,12.148
     -80.16591167,26.41990000,11.848
     -80.16592500,26.41989167,11.748
     -80.16594167,26.41988500,11.548
     -80.16595833,26.41987833,11.448
     -80.16597000,26.41986833,11.448
     -80.16598333,26.41986000,11.048
     -80.16600000,26.41985167,10.748
     -80.16601500,26.41984167,10.748
     -80.16603000,26.41983333,10.848
     -80.16604500,26.41982500,10.648
     -80.16605833,26.41981667,10.448
     -80.16607000,26.41980833,10.548
     -80.16608333,26.41979833,10.947
     -80.16609667,26.41978833,11.147
     -80.16611000,26.41977833,11.347
     -80.16612167,26.41976500,11.347
     -80.16613167,26.41975500,11.747
     -80.16614333,26.41974333,11.947
     -80.16615667,26.41973500,12.147
     -80.16617000,26.41972667,12.247
     -80.16618167,26.41971833,12.447
     -80.16619167,26.41970833,12.547
     -80.16620667,26.41970000,12.547
     -80.16622167,26.41969167,12.647
     -80.16623833,26.41968333,12.747
     -80.16625167,26.41967500,12.747
     -80.16626500,26.41966667,12.847
     -80.16628000,26.41966000,12.547
     -80.16629500,26.41965000,12.547
     -80.16631000,26.41964000,12.246
     -80.16632500,26.41963000,12.046
     -80.16634000,26.41961833,11.746
     -80.16635500,26.41960667,11.246
     -80.16636833,26.41959667,11.446
     -80.16638167,26.41958667,11.846
     -80.16639500,26.41957833,12.146
     -80.16641000,26.41956833,12.246
     -80.16642333,26.41955833,12.646
     -80.16643833,26.41955000,12.646
     -80.16645333,26.41953833,12.546
     -80.16646667,26.41952667,12.646
     -80.16648167,26.41951833,12.646
     -80.16649500,26.41950667,12.946
     -80.16651000,26.41949500,13.146
     -80.16652167,26.41948500,13.446
     -80.16653833,26.41947333,13.345
     -80.16655000,26.41946333,13.345
     -80.16656000,26.41945167,13.445
     -80.16657333,26.41944000,12.445
     -80.16658500,26.41943333,12.245
     -80.16659833,26.41942167,11.845
     -80.16660833,26.41941000,11.645
     -80.16661833,26.41940000,10.945
     -80.16663167,26.41938833,10.945
     -80.16664333,26.41937500,11.045
     -80.16665833,26.41936500,10.845
     -80.16667167,26.41935333,11.045
     -80.16668500,26.41934167,11.445
     -80.16669833,26.41933167,11.645
     -80.16671167,26.41932000,11.545
     -80.16672167,26.41930833,11.745
     -80.16673333,26.41929667,11.845
     -80.16674167,26.41928167,12.344
     -80.16675167,26.41926500,12.844
     -80.16676167,26.41925333,12.644
     -80.16677000,26.41924167,12.344
     -80.16678000,26.41923167,12.244
     -80.16678833,26.41922167,12.344
     -80.16680333,26.41921000,13.144
     -80.16681667,26.41919333,13.744
     -80.16682667,26.41918167,14.744
     -80.16684000,26.41916833,15.044
     -80.16685333,26.41916000,14.244
     -80.16686833,26.41915333,14.244
     -80.16688167,26.41914333,14.244
     -80.16689500,26.41913167,14.044
     -80.16690667,26.41912000,13.844
     -80.16692000,26.41911000,13.744
     -80.16693333,26.41909833,13.444
     -80.16695000,26.41908667,13.244
     -80.16696333,26.41907333,12.943
     -80.16697667,26.41906000,12.843
     -80.16698833,26.41904833,12.443
     -80.16699833,26.41903667,11.743
     -80.16701167,26.41902500,11.243
     -80.16702500,26.41901333,11.243
     -80.16703667,26.41900167,11.043
     -80.16704500,26.41898833,11.043
     -80.16705333,26.41897333,10.343
     -80.16706500,26.41895833,9.943
     -80.16707500,26.41894500,9.643
     -80.16708667,26.41893333,9.743
     -80.16709833,26.41892000,9.843
     -80.16711167,26.41891000,10.243
     -80.16712167,26.41890000,10.443
     -80.16713000,26.41888833,10.743
     -80.16713833,26.41887500,10.443
     -80.16714667,26.41886333,10.143
     -80.16715667,26.41884833,9.543
     -80.16716167,26.41883667,8.943
     -80.16717167,26.41882500,8.442
     -80.16718167,26.41881167,7.742
     -80.16719000,26.41880000,7.342
     -80.16720000,26.41878833,7.242
     -80.16721167,26.41877667,7.342
     -80.16722000,26.41876333,7.842
     -80.16722833,26.41875000,8.042
     -80.16723667,26.41873667,8.142
     -80.16724833,26.41872667,8.242
     -80.16725500,26.41871667,8.242
     -80.16726333,26.41870667,8.042
     -80.16727333,26.41869500,8.342
     -80.16728000,26.41868167,8.642
     -80.16728833,26.41866833,8.942
     -80.16729833,26.41865667,9.342
     -80.16730667,26.41864167,9.542
     -80.16731500,26.41862667,9.842
     -80.16732500,26.41861167,10.242
     -80.16733500,26.41859667,10.442
     -80.16734500,26.41858333,10.542
     -80.16735167,26.41856667,10.342
     -80.16736167,26.41855333,10.442
     -80.16737167,26.41854000,10.441
     -80.16737833,26.41852667,10.641
     -80.16738667,26.41851000,10.941
     -80.16739500,26.41849500,11.041
     -80.16740500,26.41848000,11.041
     -80.16741333,26.41846833,10.941
     -80.16741833,26.41845500,10.641
     -80.16742667,26.41844167,10.641
     -80.16743500,26.41842833,10.141
     -80.16744500,26.41841500,9.841
     -80.16745167,26.41840167,9.841
     -80.16746000,26.41838833,9.841
     -80.16746667,26.41837500,9.541
     -80.16747333,26.41836167,9.541
     -80.16747833,26.41834833,9.441
     -80.16748333,26.41833333,9.241
     -80.16749167,26.41831833,8.841
     -80.16749833,26.41830167,8.441
     -80.16750333,26.41828833,8.241
     -80.16750833,26.41827667,8.041
     -80.16751333,26.41826167,7.841
     -80.16752167,26.41824500,7.941
     -80.16752833,26.41823000,8.141
     -80.16753000,26.41821500,8.341
     -80.16753333,26.41820000,8.441
     -80.16753667,26.41818667,8.441
     -80.16754500,26.41817167,8.441
     -80.16755000,26.41815833,8.441
     -80.16755167,26.41814500,8.141
     -80.16755833,26.41813333,8.040
     -80.16756333,26.41812000,8.140
     -80.16756833,26.41810333,8.440
     -80.16757333,26.41808667,8.740
     -80.16757833,26.41806833,9.040
     -80.16758000,26.41805333,9.440
     -80.16758333,26.41804167,9.240
     -80.16758833,26.41802833,9.340
     -80.16759667,26.41801500,9.640
     -80.16760333,26.41800167,9.440
     -80.16760500,26.41798833,9.840
     -80.16760500,26.41797000,10.240
     -80.16760500,26.41795333,10.340
     -80.16760167,26.41793667,10.440
     -80.16759833,26.41791667,10.840
     -80.16759667,26.41789833,10.740
     -80.16759167,26.41788333,11.140
     -80.16759167,26.41786500,11.140
     -80.16759667,26.41784833,11.740
     -80.16759833,26.41782833,12.240
     -80.16760167,26.41781167,12.240
     -80.16760333,26.41779500,12.340
     -80.16761167,26.41778000,12.340
     -80.16761167,26.41776500,12.140
     -80.16761167,26.41774667,12.040
     -80.16761333,26.41772833,11.940
     -80.16761000,26.41771500,11.640
     -80.16760667,26.41770000,11.540
     -80.16760667,26.41768500,11.740
     -80.16760500,26.41766833,11.840
     -80.16760500,26.41765500,11.740
     -80.16760667,26.41764000,11.740
     -80.16760667,26.41762667,11.940
     -80.16760500,26.41761333,11.640
     -80.16760667,26.41759667,11.340
     -80.16760667,26.41758000,11.340
     -80.16761333,26.41756667,11.040
     -80.16761167,26.41755167,10.740
     -80.16761167,26.41753667,10.640
     -80.16761333,26.41752000,10.940
     -80.16761500,26.41750500,10.940
     -80.16761667,26.41749333,10.840
     -80.16761500,26.41748000,10.640
     -80.16761500,26.41746500,10.740
     -80.16761333,26.41745167,10.740
     -80.16761333,26.41743500,10.740
     -80.16761500,26.41742000,10.540
     -80.16761500,26.41740333,10.540
     -80.16761500,26.41738667,10.840
     -80.16761333,26.41737000,11.040
     -80.16761167,26.41735167,10.840
     -80.16761667,26.41733667,10.740
     -80.16761667,26.41732000,10.940
     -80.16762000,26.41730333,11.540
     -80.16761667,26.41728667,11.540
     -80.16761833,26.41727167,11.340
     -80.16762000,26.41725667,11.040
     -80.16761833,26.41724167,11.240
     -80.16761833,26.41722500,11.540
     -80.16761833,26.41720833,11.740
     -80.16761667,26.41719500,11.740
     -80.16761333,26.41718000,11.540
     -80.16761000,26.41716333,11.740
     -80.16760667,26.41714667,12.040
     -80.16761000,26.41713167,11.940
     -80.16761333,26.41711333,12.240
     -80.16761167,26.41709333,12.640
     -80.16760667,26.41705833,12.940
     -80.16760500,26.41702333,12.740
     -80.16760167,26.41698500,12.540
     -80.16759833,26.41694500,12.140
     -80.16759000,26.41690167,11.740
     -80.16757833,26.41686667,11.540
     -80.16756667,26.41683667,11.340
     -80.16755833,26.41680167,11.140
     -80.16754833,26.41676833,11.140
     -80.16753667,26.41674000,10.440
     -80.16752667,26.41671500,10.440
     -80.16752167,26.41669500,10.040
     -80.16751333,26.41667833,9.940
     -80.16750833,26.41666667,10.040
     -80.16750333,26.41665833,9.340
     -80.16749833,26.41665500,9.040
     -80.16749333,26.41664667,8.640
     -80.16748833,26.41663667,8.640
     -80.16748500,26.41662500,8.840
     -80.16748167,26.41661333,8.640
     -80.16747667,26.41660000,8.540
     -80.16747000,26.41658667,8.540
     -80.16746500,26.41657000,7.940
     -80.16745667,26.41655833,8.140
     -80.16744667,26.41654500,8.440
     -80.16744000,26.41653000,8.940
     -80.16743667,26.41651667,9.140
     -80.16743000,26.41650667,9.440
     -80.16742000,26.41649500,9.440
     -80.16741333,26.41648000,9.440
     -80.16740667,26.41646500,9.640
     -80.16740000,26.41645000,9.940
     -80.16739333,26.41643167,10.240
     -80.16738833,26.41641667,10.340
     -80.16738000,26.41640167,10.040
     -80.16737333,26.41638667,10.340
     -80.16736500,26.41637167,10.240
     -80.16735500,26.41635667,10.440
     -80.16734333,26.41634333,10.940
     -80.16733500,26.41633000,11.040
     -80.16733000,26.41631667,10.940
     -80.16732167,26.41630167,11.040
     -80.16731333,26.41629167,11.040
     -80.16730500,26.41628000,10.840
     -80.16729667,26.41626667,10.641
     -80.16729167,26.41625167,10.341
     -80.16729500,26.41623500,10.341
     -80.16729667,26.41622000,10.140
     -80.16730500,26.41620333,9.740
     -80.16731667,26.41619000,9.840
     -80.16732667,26.41617667,9.940
     -80.16733833,26.41616333,10.440
     -80.16735000,26.41615333,10.340
     -80.16736333,26.41614333,9.940
     -80.16737500,26.41613167,9.940
     -80.16738500,26.41612000,9.940
     -80.16740167,26.41610833,9.840
     -80.16741667,26.41609833,9.540
     -80.16743000,26.41608833,9.240
     -80.16744500,26.41607667,9.340
     -80.16745833,26.41606667,9.640
     -80.16747667,26.41605833,9.840
     -80.16749667,26.41605000,10.140
     -80.16751167,26.41604000,10.740
     -80.16752833,26.41603167,11.039
     -80.16754167,26.41602167,11.439
     -80.16755667,26.41601167,11.439
     -80.16757000,26.41600333,11.239
     -80.16758500,26.41599167,11.239
     -80.16760000,26.41598333,11.239
     -80.16761333,26.41597167,11.739
     -80.16763167,26.41596333,12.039
     -80.16764833,26.41595500,12.339
     -80.16766167,26.41594667,12.339
     -80.16768000,26.41593833,12.439
     -80.16769667,26.41593000,12.639
     -80.16771167,26.41592167,12.439
     -80.16772667,26.41591000,12.439
     -80.16774000,26.41590000,12.438
     -80.16775667,26.41589000,12.738
     -80.16777167,26.41587833,13.038
     -80.16778667,26.41587000,13.038
     -80.16780167,26.41586000,13.138
     -80.16781833,26.41585500,12.738
     -80.16783333,26.41584333,12.538
     -80.16784833,26.41583667,12.338
     -80.16786500,26.41583167,11.838
     -80.16787667,26.41582333,11.538
     -80.16789167,26.41581333,11.438
     -80.16790833,26.41580333,11.738
     -80.16792333,26.41579833,11.638
     -80.16793833,26.41579167,11.438
     -80.16795333,26.41578167,11.338
     -80.16797167,26.41577333,11.337
     -80.16798667,26.41576333,11.437
     -80.16800000,26.41575167,11.437
     -80.16801667,26.41574500,11.437
     -80.16803167,26.41573667,11.237
     -80.16805000,26.41572667,11.137
     -80.16806500,26.41571333,11.737
     -80.16807833,26.41570167,12.237
     -80.16809167,26.41568833,12.437
     -80.16810667,26.41567833,13.037
     -80.16812000,26.41566833,13.737
     -80.16813333,26.41565833,14.237
     -80.16814833,26.41564667,14.737
     -80.16816333,26.41563833,15.237
     -80.16817667,26.41563000,15.737
     -80.16819167,26.41561833,15.836
     -80.16820333,26.41561000,16.036
     -80.16821833,26.41560167,16.236
     -80.16823167,26.41559167,16.336
     -80.16824833,26.41558667,16.436
     -80.16826333,26.41557833,16.636
     -80.16827833,26.41556833,16.736
     -80.16829167,26.41556000,16.536
     -80.16830833,26.41555000,16.336
     -80.16832333,26.41554000,15.636
     -80.16833833,26.41553167,15.136
     -80.16835167,26.41552333,14.836
     -80.16836667,26.41551333,14.936
     -80.16838000,26.41550167,15.036
     -80.16839500,26.41549167,14.636
     -80.16841333,26.41548333,14.735
     -80.16843667,26.41547833,14.735
     -80.16845500,26.41547667,14.735
     -80.16847333,26.41548000,14.435
     -80.16849167,26.41548500,13.735
     -80.16851000,26.41549500,13.235
     -80.16852833,26.41550500,12.935
     -80.16854500,26.41551667,12.535
     -80.16855833,26.41553000,12.135
     -80.16857167,26.41554167,11.935
     -80.16858167,26.41555667,12.235
     -80.16858667,26.41557000,12.235
     -80.16859833,26.41558167,12.235
     -80.16861000,26.41559333,12.035
     -80.16862167,26.41560500,11.535
     -80.16863333,26.41561833,11.535
     -80.16864500,26.41563167,11.335
     -80.16866000,26.41564500,11.435
     -80.16867500,26.41565833,11.734
     -80.16869000,26.41566833,11.534
     -80.16870500,26.41567667,11.334
     -80.16871833,26.41568500,10.434
     -80.16873333,26.41569333,9.934
     -80.16874667,26.41570333,9.534
     -80.16876500,26.41571333,9.134
     -80.16878000,26.41572167,8.834
     -80.16879500,26.41572833,8.434
     -80.16881000,26.41573333,8.034
     -80.16882667,26.41573667,8.134
     -80.16884167,26.41574000,8.434
     -80.16886000,26.41574167,8.534
     -80.16888167,26.41574333,8.734
     -80.16890000,26.41574833,9.534
     -80.16891500,26.41575500,10.234
     -80.16893000,26.41576000,10.833
     -80.16894667,26.41576167,11.033
     -80.16896500,26.41576667,11.433
     -80.16898000,26.41577167,11.733
     -80.16899667,26.41577500,11.833
     -80.16901333,26.41577833,12.933
     -80.16903167,26.41578000,14.233
     -80.16904667,26.41578500,14.933
     -80.16905833,26.41578833,15.133
     -80.16907333,26.41579000,14.933
     -80.16908833,26.41579167,14.733
     -80.16910500,26.41579333,14.833
     -80.16912333,26.41579333,14.733
     -80.16913833,26.41579333,14.433
     -80.16915333,26.41579500,14.233
     -80.16916833,26.41579667,14.333
     -80.16918500,26.41579500,14.132
     -80.16920000,26.41579333,13.532
     -80.16921333,26.41579500,13.032
     -80.16923000,26.41579667,12.532
     -80.16925000,26.41579667,12.532
     -80.16927000,26.41579667,12.632
     -80.16928833,26.41579833,12.532
     -80.16931000,26.41580000,12.732
     -80.16932833,26.41580167,12.832
     -80.16934667,26.41579833,13.132
     -80.16936667,26.41579833,13.132
     -80.16938500,26.41579667,13.332
     -80.16940500,26.41579667,13.732
     -80.16942833,26.41579833,13.831
     -80.16945000,26.41579667,14.331
     -80.16947167,26.41579500,14.631
     -80.16949167,26.41579167,14.731
     -80.16951167,26.41579167,14.631
     -80.16953167,26.41579167,14.531
     -80.16954833,26.41579000,14.431
     -80.16956500,26.41578833,14.031
     -80.16958167,26.41578667,13.731
     -80.16959500,26.41578833,13.231
     -80.16960833,26.41578833,12.831
     -80.16961833,26.41578833,12.431
     -80.16963000,26.41578167,12.531
     -80.16964000,26.41578167,12.531
     -80.16965000,26.41578167,12.631
     -80.16965667,26.41578167,12.831
     -80.16966333,26.41578333,12.830
     -80.16967000,26.41578333,12.830
     -80.16967500,26.41578333,13.030
     -80.16968333,26.41578333,13.230
     -80.16969000,26.41578333,13.430
     -80.16969833,26.41578333,13.730
     -80.16970833,26.41578167,14.130
     -80.16971667,26.41578333,13.730
     -80.16972167,26.41578167,13.630
     -80.16972667,26.41577667,13.230
     -80.16973500,26.41577667,12.830
     -80.16973667,26.41577500,12.930
     -80.16974000,26.41577000,13.030
     -80.16974167,26.41576667,13.130
     -80.16974500,26.41576500,13.230
     -80.16974500,26.41576667,13.230
     -80.16975000,26.41576667,13.230
     -80.16975667,26.41576500,13.230
     -80.16976500,26.41576167,13.630
     -80.16977500,26.41576167,13.930
     -80.16978333,26.41576167,14.230
     -80.16979333,26.41576167,14.530
     -80.16980333,26.41576333,14.730
     -80.16981500,26.41576667,14.930
     -80.16982333,26.41576833,14.930
     -80.16983667,26.41577333,15.030
     -80.16985000,26.41578000,14.630
     -80.16985833,26.41578500,14.130
     -80.16986500,26.41578500,13.930
     -80.16987000,26.41578167,13.630
     -80.16987333,26.41578000,13.330
     -80.16988000,26.41578000,13.030
     -80.16989500,26.41577667,12.930
     -80.16991333,26.41577167,12.729
     -80.16993500,26.41576667,12.529
     -80.16995500,26.41576667,12.129
     -80.16996833,26.41576333,11.829
     -80.16998333,26.41576500,11.729
     -80.17000000,26.41577333,11.729
     -80.17001167,26.41577833,11.929
     -80.17002333,26.41577667,12.229
     -80.17003000,26.41577500,12.029
     -80.17003667,26.41576667,11.729
     -80.17003667,26.41576000,11.629
     -80.17003000,26.41575500,11.829
     -80.17002500,26.41575500,11.929
     -80.17002500,26.41575333,12.229
     -80.17002667,26.41575333,12.229
     -80.17002833,26.41575167,12.429
     -80.17002833,26.41575167,12.529
     -80.17003000,26.41574833,12.529
     -80.17003333,26.41574833,12.429
     -80.17003333,26.41574833,12.429
     -80.17003333,26.41574833,12.429
     -80.17003333,26.41574833,12.429
     -80.17003333,26.41574833,12.429
     -80.17003333,26.41574833,12.429
     -80.17003333,26.41574833,12.429
     -80.17003333,26.41574833,12.429
     -80.17003333,26.41574833,12.429
     -80.17003333,26.41574833,12.429
     -80.17003333,26.41574833,12.429
     -80.17003333,26.41574833,12.429
     -80.17003333,26.41574833,12.429
     -80.17003333,26.41574833,12.429
     -80.17003333,26.41574833,12.429
     -80.17003333,26.41574833,12.429
     -80.17003333,26.41574833,12.429
     -80.17003333,26.41574833,12.429
     -80.17003333,26.41574833,12.429
     -80.17003333,26.41574833,12.429
     -80.17003333,26.41574833,12.429
     -80.17003333,26.41574833,12.429
     -80.17003333,26.41574833,12.429
     -80.17003333,26.41574833,12.429
     -80.17003333,26.41574833,12.429
     -80.17003333,26.41574667,11.429
     -80.17001833,26.41574000,11.329
     -80.17000333,26.41573833,11.329
     -80.16998333,26.41574333,11.329
     -80.16996667,26.41574833,11.029
     -80.16995500,26.41575333,10.829
     -80.16994333,26.41575667,10.629
     -80.16993000,26.41575833,10.429
     -80.16991833,26.41575833,10.229
     -80.16990500,26.41576333,10.029
     -80.16989167,26.41577000,10.330
     -80.16987833,26.41577500,10.630
     -80.16986167,26.41578167,10.630
     -80.16984667,26.41578667,11.230
     -80.16983833,26.41578500,12.130
     -80.16982667,26.41578500,12.630
     -80.16981167,26.41578333,12.830
     -80.16980000,26.41578333,12.930
     -80.16978667,26.41578667,13.230
     -80.16977167,26.41579000,13.430
     -80.16975833,26.41579167,13.630
     -80.16973667,26.41579500,13.930
     -80.16970333,26.41579333,14.130
     -80.16967000,26.41579333,14.030
     -80.16964000,26.41579000,13.831
     -80.16960833,26.41578500,13.631
     -80.16957833,26.41578167,13.231
     -80.16955000,26.41578333,12.931
     -80.16951833,26.41578333,12.431
     -80.16949167,26.41579167,11.431
     -80.16947000,26.41578833,11.231
     -80.16945167,26.41579333,10.631
     -80.16942833,26.41579667,9.931
     -80.16940667,26.41579667,9.532
     -80.16938333,26.41580167,9.532
     -80.16936000,26.41579833,10.032
     -80.16934167,26.41579833,10.532
     -80.16932000,26.41579667,11.132
     -80.16929500,26.41579667,11.332
     -80.16926833,26.41579667,11.232
     -80.16924167,26.41579167,11.432
     -80.16921167,26.41579167,11.332
     -80.16918333,26.41579167,11.532
     -80.16916000,26.41579167,11.833
     -80.16913833,26.41579167,12.233
     -80.16911000,26.41578833,12.233
     -80.16908667,26.41579000,12.333
     -80.16906167,26.41579000,12.333
     -80.16903500,26.41579167,13.333
     -80.16901167,26.41579000,13.733
     -80.16898833,26.41578500,13.633
     -80.16896167,26.41577833,13.733
     -80.16892833,26.41576667,13.334
     -80.16890333,26.41575667,12.834
     -80.16887167,26.41575000,12.234
     -80.16884333,26.41574000,12.134
     -80.16881333,26.41572833,12.034
     -80.16878833,26.41571167,11.034
     -80.16876500,26.41569167,10.534
     -80.16873833,26.41567167,10.034
     -80.16871667,26.41565833,9.234
     -80.16869333,26.41564333,9.234
     -80.16867167,26.41562833,9.234
     -80.16865333,26.41561000,9.535
     -80.16863333,26.41559000,10.135
     -80.16861500,26.41557500,10.835
     -80.16859667,26.41556167,11.135
     -80.16858000,26.41554833,11.635
     -80.16856500,26.41553333,11.435
     -80.16855000,26.41552000,11.535
     -80.16853833,26.41551167,11.435
     -80.16852500,26.41550167,11.035
     -80.16850333,26.41549167,11.035
     -80.16847833,26.41548500,11.135
     -80.16846000,26.41548167,11.335
     -80.16843667,26.41548500,11.835
     -80.16841833,26.41549000,12.835
     -80.16840000,26.41549667,13.436
     -80.16838000,26.41550833,13.836
     -80.16836167,26.41551667,14.236
     -80.16834500,26.41552333,13.736
     -80.16832667,26.41553500,13.636
     -80.16830833,26.41554500,13.336
     -80.16829000,26.41554833,12.836
     -80.16827500,26.41555500,12.536
     -80.16826000,26.41556167,12.036
     -80.16824667,26.41557000,11.636
     -80.16823333,26.41557833,11.436
     -80.16821833,26.41558333,11.536
     -80.16819833,26.41559167,11.736
     -80.16818167,26.41560000,11.436
     -80.16816333,26.41560833,11.337
     -80.16814667,26.41561500,11.237
     -80.16813333,26.41562833,10.437
     -80.16811667,26.41564167,10.137
     -80.16810333,26.41565333,10.137
     -80.16808667,26.41566167,10.037
     -80.16807500,26.41567167,10.237
     -80.16806333,26.41567667,10.337
     -80.16805000,26.41568500,10.537
     -80.16804000,26.41569667,10.737
     -80.16803000,26.41570833,10.737
     -80.16803000,26.41572500,10.837
     -80.16803667,26.41573667,11.137
     -80.16804000,26.41574500,11.437
     -80.16804167,26.41575000,11.337
     -80.16804000,26.41575167,11.337
     -80.16803667,26.41574167,11.337
     -80.16803500,26.41573833,11.137
     -80.16802500,26.41572833,11.537
     -80.16801167,26.41571833,12.237
     -80.16800167,26.41571333,12.537
     -80.16800000,26.41570833,12.537
     -80.16799833,26.41571000,12.637
     -80.16799833,26.41571000,12.737
     -80.16800333,26.41571000,12.737
     -80.16802000,26.41570833,12.737
     -80.16804833,26.41570333,13.137
     -80.16807833,26.41568667,13.337
     -80.16811000,26.41567333,13.337
     -80.16814167,26.41565500,13.637
     -80.16817333,26.41563333,13.637
     -80.16820667,26.41561333,13.636
     -80.16824000,26.41559833,13.836
     -80.16827167,26.41558333,13.636
     -80.16829333,26.41556500,13.736
     -80.16832000,26.41554333,14.236
     -80.16834500,26.41552333,13.536
     -80.16837333,26.41550667,13.136
     -80.16840000,26.41549167,13.236
     -80.16842833,26.41547667,13.035
     -80.16845667,26.41546000,12.735
     -80.16848500,26.41544500,12.535
     -80.16851167,26.41542833,12.735
     -80.16853667,26.41541333,12.435
     -80.16856333,26.41539667,11.635
     -80.16859000,26.41538333,11.335
     -80.16861500,26.41536833,11.435
     -80.16864167,26.41535333,12.034
     -80.16866833,26.41533833,12.334
     -80.16869167,26.41532500,12.334
     -80.16871667,26.41531000,12.334
     -80.16874000,26.41529500,12.134
     -80.16876167,26.41528000,11.934
     -80.16878667,26.41526667,11.934
     -80.16881167,26.41524833,12.334
     -80.16883833,26.41523000,12.434
     -80.16886333,26.41521333,12.333
     -80.16888667,26.41519667,12.133
     -80.16891500,26.41518000,12.333
     -80.16894333,26.41516667,12.233
     -80.16896833,26.41515167,12.333
     -80.16899333,26.41513500,12.433
     -80.16901833,26.41512000,12.133
     -80.16904333,26.41510667,11.933
     -80.16906667,26.41509500,11.233
     -80.16908833,26.41508000,10.632
     -80.16910833,26.41506667,10.032
     -80.16912500,26.41505500,9.032
     -80.16913833,26.41504167,9.232
     -80.16915333,26.41503000,9.032
     -80.16916833,26.41502000,9.032
     -80.16918333,26.41501333,9.332
     -80.16919500,26.41500833,9.332
     -80.16920667,26.41500500,8.932
     -80.16921500,26.41500167,8.732
     -80.16922167,26.41500000,8.332
     -80.16922667,26.41500000,7.832
     -80.16923333,26.41500333,7.632
     -80.16924167,26.41500833,7.332
     -80.16925000,26.41501167,7.232
     -80.16926000,26.41502333,7.632
     -80.16927000,26.41503000,7.932
     -80.16928167,26.41503833,8.132
     -80.16929000,26.41504333,8.532
     -80.16929500,26.41504833,8.932
     -80.16930500,26.41505167,9.532
     -80.16931667,26.41505500,10.132
     -80.16932333,26.41506000,10.731
     -80.16933000,26.41506500,11.031
     -80.16932833,26.41506667,10.931
     -80.16932833,26.41506833,11.031
     -80.16933000,26.41506833,11.131
     -80.16933167,26.41506833,11.231
     -80.16933667,26.41506833,11.331
     -80.16934000,26.41507000,11.531
     -80.16934833,26.41507500,11.731
     -80.16935333,26.41508167,11.731
     -80.16936000,26.41509000,11.431
     -80.16936333,26.41509500,11.331
     -80.16936333,26.41509667,11.331
     -80.16936500,26.41509667,11.231
     -80.16936500,26.41509667,11.231
     -80.16936667,26.41509833,11.231
     -80.16936500,26.41510000,11.131
     -80.16936500,26.41510167,11.231
     -80.16936667,26.41510000,11.131
     -80.16936667,26.41510000,11.131
     -80.16936667,26.41510000,11.131
     -80.16936667,26.41510000,11.131
     -80.16936667,26.41510000,11.131
     -80.16936667,26.41510000,11.131
     -80.16936667,26.41510000,11.131
     -80.16936667,26.41510000,11.131
     -80.16936667,26.41510000,11.131
     -80.16936667,26.41510000,11.131
     -80.16936667,26.41510000,11.131
     -80.16936667,26.41510000,11.131
     -80.16936667,26.41510000,11.131
     -80.16938500,26.41511333,10.331
     -80.16939500,26.41512000,10.231
     -80.16940167,26.41512667,10.231
     -80.16941167,26.41513500,10.431
     -80.16942333,26.41514333,10.831
     -80.16943333,26.41515167,10.831
     -80.16944333,26.41516000,10.831
     -80.16944667,26.41517000,10.631
     -80.16944833,26.41518000,10.431
     -80.16945167,26.41518667,10.631
     -80.16945667,26.41519000,10.831
     -80.16946167,26.41519667,10.931
     -80.16946833,26.41520333,11.231
     -80.16947500,26.41521000,11.531
     -80.16948167,26.41521167,11.831
     -80.16948833,26.41521667,12.331
     -80.16949667,26.41522167,12.631
     -80.16950167,26.41522667,12.831
     -80.16950500,26.41522833,12.831
     -80.16950500,26.41523167,12.731
     -80.16950500,26.41523167,12.731
     -80.16950333,26.41523167,12.831
     -80.16950333,26.41523000,12.731
     -80.16950500,26.41523000,12.631
     -80.16950667,26.41523000,12.431
     -80.16950833,26.41523000,12.331
     -80.16950833,26.41523000,12.331
     -80.16950833,26.41523000,12.331
     -80.16950833,26.41523000,12.331
     -80.16950833,26.41523000,12.331
     -80.16950833,26.41523000,12.331
     -80.16950833,26.41523000,12.331
     -80.16950833,26.41523000,12.331
     -80.16950833,26.41523000,12.331
     -80.16950833,26.41523000,12.331
     -80.16950833,26.41523000,12.331
     -80.16950833,26.41523000,12.331
     -80.16950833,26.41523000,12.331
     -80.16950833,26.41523000,12.331
     -80.16950833,26.41523000,12.331
     -80.16950833,26.41523000,12.331
     -80.16950833,26.41523000,12.331
     -80.16950833,26.41523000,12.331
     -80.16950833,26.41523000,12.331
     -80.16950833,26.41523000,12.331
     -80.16950833,26.41523000,12.331
     -80.16950833,26.41523000,12.331
     -80.16950833,26.41523000,12.331
     -80.16950833,26.41523000,12.331
     -80.16950833,26.41523000,12.331
     -80.16950833,26.41523000,12.331
     -80.16950833,26.41523000,12.331
     -80.16950833,26.41523000,12.331
     -80.16950833,26.41523000,12.331
     -80.16950833,26.41523000,12.331
     -80.16950833,26.41523000,12.331
     -80.16950833,26.41523000,12.331
     -80.16950833,26.41523000,12.331
     -80.16950833,26.41523000,12.331
     -80.16950833,26.41523000,12.331
     -80.16950833,26.41523000,12.331
     -80.16950833,26.41523000,12.331
     -80.16950833,26.41523000,12.331
     -80.16950833,26.41523000,12.331
     -80.16950833,26.41523000,12.331
     -80.16950833,26.41523000,12.331
     -80.16950833,26.41523000,12.331
     -80.16950833,26.41523000,12.331
     -80.16950833,26.41523000,12.331
     -80.16950833,26.41523000,12.331
     -80.16950833,26.41523000,12.331
     -80.16950833,26.41523000,12.331
     -80.16950833,26.41523000,12.331
     -80.16950833,26.41523000,12.331
     -80.16950833,26.41523000,12.331
     -80.16950833,26.41523000,12.331
     -80.16950833,26.41523000,12.331
     -80.16950833,26.41523000,12.331
     -80.16950833,26.41523000,12.331
     -80.16950833,26.41523000,12.331
     -80.16950833,26.41523000,12.331
     -80.16950833,26.41523000,12.331
     -80.16950833,26.41523000,12.331
     -80.16950833,26.41523000,12.331
     -80.16950833,26.41523000,12.331
     -80.16950833,26.41523000,12.331
     -80.16950833,26.41523000,12.331
     -80.16950833,26.41523000,12.331
     -80.16950833,26.41523000,12.331
     -80.16950833,26.41523000,12.331
     -80.16950833,26.41523000,12.331
     -80.16950833,26.41523000,12.331
     -80.16950833,26.41523000,12.331
     -80.16950833,26.41523000,12.331
     -80.16950833,26.41523000,12.331
     -80.16950833,26.41523000,12.331
     -80.16950833,26.41523000,12.331
     -80.16950833,26.41523000,12.331
     -80.16950833,26.41523000,12.331
     -80.16950833,26.41523000,12.331
     -80.16950833,26.41523000,12.331
     -80.16950833,26.41523000,12.331
     -80.16950833,26.41523000,12.331
     -80.16950833,26.41523000,12.331
     -80.16950833,26.41523000,12.331
     -80.16949667,26.41522500,6.231
     -80.16950333,26.41523000,6.331
     -80.16951333,26.41523333,6.431
     -80.16952333,26.41523833,7.031
     -80.16954167,26.41524333,7.731
     -80.16956500,26.41525333,8.331
     -80.16959000,26.41526000,8.930
     -80.16961167,26.41526667,9.330
     -80.16963333,26.41527500,9.830
     -80.16966000,26.41528333,9.930
     -80.16968667,26.41528667,10.130
     -80.16971167,26.41529000,10.130
     -80.16974000,26.41529000,10.130
     -80.16977000,26.41529167,10.130
     -80.16980167,26.41528667,10.130
     -80.16983500,26.41527833,10.530
     -80.16986667,26.41527167,11.029
     -80.16989333,26.41526500,11.129
     -80.16991500,26.41526167,11.829
     -80.16994333,26.41525833,12.029
     -80.16997167,26.41525167,11.929
     -80.16999500,26.41524500,11.429
     -80.17002000,26.41524000,10.629
     -80.17004333,26.41523167,10.729
     -80.17006500,26.41522000,11.329
     -80.17008833,26.41521333,11.128
     -80.17012000,26.41520333,10.828
     -80.17015000,26.41519500,10.628
     -80.17017333,26.41518833,10.628
     -80.17019833,26.41519000,10.328
     -80.17022000,26.41519167,10.028
     -80.17024833,26.41519500,9.528
     -80.17027833,26.41519167,8.928
     -80.17031833,26.41518333,9.127
     -80.17035167,26.41518000,8.527
     -80.17038333,26.41517833,7.827
     -80.17040500,26.41517833,7.327
     -80.17042500,26.41517500,7.027
     -80.17046000,26.41516000,7.427
     -80.17048833,26.41515500,8.427
     -80.17051833,26.41515500,8.927
     -80.17055167,26.41515667,9.026
     -80.17058500,26.41515167,9.026
     -80.17061833,26.41514667,9.126
     -80.17064500,26.41513667,8.826
     -80.17067000,26.41512500,8.826
     -80.17068500,26.41511833,8.726
     -80.17070667,26.41509833,9.326
     -80.17072333,26.41507500,9.426
     -80.17073667,26.41505333,9.826
     -80.17074833,26.41503500,10.426
     -80.17075167,26.41501333,10.626
     -80.17074667,26.41499333,10.726
     -80.17074333,26.41498000,10.626
     -80.17074500,26.41496667,11.026
     -80.17074833,26.41495000,11.326
     -80.17075333,26.41493500,11.726
     -80.17076000,26.41492500,11.325
     -80.17076333,26.41491000,10.325
     -80.17076167,26.41489667,9.725
     -80.17076333,26.41488333,8.925
     -80.17076667,26.41486833,8.525
     -80.17076667,26.41485333,8.125
     -80.17076667,26.41483833,8.325
     -80.17076833,26.41482167,8.625
     -80.17076833,26.41481000,8.725
     -80.17077000,26.41480000,8.725
     -80.17076833,26.41479000,8.225
     -80.17077333,26.41477833,8.425
     -80.17077667,26.41476500,8.425
     -80.17078167,26.41475333,8.225
     -80.17078500,26.41473833,8.325
     -80.17079000,26.41472167,8.325
     -80.17079667,26.41469667,8.125
     -80.17079833,26.41467167,7.825
     -80.17080000,26.41464333,7.125
     -80.17080000,26.41460833,7.025
     -80.17080333,26.41457500,6.825
     -80.17080833,26.41454000,6.725
     -80.17081167,26.41450167,6.525
     -80.17081333,26.41446167,6.225
     -80.17081667,26.41442167,5.725
     -80.17081833,26.41438000,5.525
     -80.17082000,26.41433333,5.025
     -80.17081500,26.41428667,4.925
     -80.17081500,26.41424000,4.925
     -80.17082000,26.41418833,4.925
     -80.17080833,26.41413667,7.025
     -80.17080333,26.41408833,8.025
     -80.17080500,26.41404333,7.725
     -80.17081000,26.41399667,7.425
     -80.17080833,26.41394833,7.525
     -80.17080167,26.41389833,7.525
     -80.17080000,26.41385000,7.225
     -80.17080667,26.41380667,5.925
     -80.17080333,26.41376167,5.925
     -80.17080167,26.41371500,6.125
     -80.17080000,26.41367167,6.025
     -80.17079833,26.41363000,5.925
     -80.17079167,26.41358333,5.925
     -80.17079667,26.41354000,5.025
     -80.17079833,26.41349667,4.325
     -80.17079333,26.41344667,4.225
     -80.17079167,26.41340000,4.125
     -80.17080167,26.41335667,3.324
     -80.17080333,26.41331167,3.224
     -80.17080500,26.41326833,3.424
     -80.17080500,26.41322667,3.524
     -80.17080167,26.41318500,3.524
     -80.17079500,26.41314500,3.324
     -80.17079167,26.41310500,3.224
     -80.17078333,26.41306333,3.624
     -80.17077333,26.41302167,3.724
     -80.17076333,26.41297833,4.024
     -80.17075167,26.41293333,4.424
     -80.17075167,26.41289500,4.424
     -80.17074833,26.41285500,4.424
     -80.17075167,26.41281667,4.324
     -80.17075500,26.41278000,4.024
     -80.17075833,26.41274333,3.824
     -80.17076333,26.41270833,3.724
     -80.17077000,26.41266833,3.424
     -80.17077667,26.41263000,3.324
     -80.17078500,26.41259500,2.824
     -80.17078167,26.41255333,2.924
     -80.17078667,26.41251500,2.224
     -80.17078333,26.41247333,1.724
     -80.17077833,26.41243167,1.424
     -80.17077500,26.41238833,0.824
     -80.17076167,26.41234167,1.124
     -80.17075333,26.41230167,1.424
     -80.17076167,26.41226167,1.024
     -80.17077000,26.41222333,0.624
     -80.17077000,26.41218333,0.824
     -80.17076667,26.41213833,2.124
     -80.17075833,26.41209167,2.124
     -80.17075667,26.41205333,2.324
     -80.17076333,26.41201667,1.924
     -80.17076167,26.41197667,2.524
     -80.17077667,26.41195000,2.524
     -80.17078500,26.41192333,2.324
     -80.17077833,26.41189167,2.224
     -80.17077333,26.41186167,2.424
     -80.17077167,26.41183167,2.224
     -80.17077500,26.41180167,2.024
     -80.17076000,26.41176833,2.224
     -80.17074667,26.41173167,1.324
     -80.17073500,26.41170167,0.724
     -80.17073000,26.41166667,0.824
     -80.17072333,26.41162500,1.024
     -80.17071833,26.41158000,1.224
     -80.17071167,26.41154000,1.424
     -80.17071000,26.41150333,1.524
     -80.17071000,26.41146500,1.324
     -80.17071167,26.41142833,1.624
     -80.17071333,26.41139500,2.824
     -80.17071667,26.41136500,3.424
     -80.17072000,26.41133500,3.924
     -80.17073500,26.41130833,3.824
     -80.17073500,26.41127500,4.124
     -80.17073667,26.41124167,3.524
     -80.17073667,26.41120667,3.423
     -80.17073000,26.41116833,3.424
     -80.17071667,26.41112833,3.924
     -80.17070500,26.41108667,4.524
     -80.17069667,26.41105000,5.224
     -80.17068667,26.41101667,5.724
     -80.17067833,26.41098333,6.924
     -80.17067667,26.41095000,7.824
     -80.17067500,26.41092333,8.824
     -80.17067833,26.41089333,9.124
     -80.17068333,26.41086167,10.324
     -80.17068000,26.41083000,11.024
     -80.17068167,26.41080000,11.023
     -80.17067833,26.41076833,10.823
     -80.17067167,26.41073167,10.823
     -80.17066667,26.41069333,10.523
     -80.17066500,26.41065500,10.223
     -80.17066667,26.41061500,9.823
     -80.17067167,26.41057500,9.623
     -80.17067667,26.41053333,9.023
     -80.17067833,26.41049333,9.123
     -80.17067667,26.41045333,8.723
     -80.17067667,26.41041667,8.223
     -80.17067000,26.41038500,8.323
     -80.17066333,26.41035167,8.023
     -80.17066333,26.41031500,8.023
     -80.17066500,26.41028000,7.823
     -80.17067167,26.41025000,7.823
     -80.17068167,26.41021667,7.823
     -80.17069500,26.41018833,7.423
     -80.17070333,26.41016000,7.123
     -80.17071500,26.41013333,6.523
     -80.17072833,26.41010167,6.123
     -80.17073167,26.41006500,5.823
     -80.17073500,26.41003167,5.623
     -80.17074167,26.41000167,5.123
     -80.17074500,26.40995833,5.323
     -80.17075000,26.40992500,4.623
     -80.17074333,26.40989167,3.923
     -80.17074000,26.40985833,3.723
     -80.17074333,26.40982833,3.123
     -80.17074167,26.40979500,2.623
     -80.17074667,26.40976333,1.823
     -80.17074667,26.40972833,1.423
     -80.17074167,26.40969500,1.023
     -80.17073167,26.40966333,1.123
     -80.17071833,26.40964333,0.723
     -80.17070167,26.40963167,0.323
     -80.17068167,26.40962000,0.623
     -80.17065833,26.40961500,-0.277
     -80.17062000,26.40961333,0.323
     -80.17057000,26.40960333,1.723
     -80.17053833,26.40961000,2.323
     -80.17049167,26.40961333,3.524
     -80.17044500,26.40960667,4.424
     -80.17040167,26.40960333,4.524
     -80.17035333,26.40960333,5.324
     -80.17030833,26.40960167,5.424
     -80.17026500,26.40960000,5.325
     -80.17022167,26.40959833,5.625
     -80.17018167,26.40959333,6.625
     -80.17014333,26.40958833,7.225
     -80.17010833,26.40958500,7.325
     -80.17007500,26.40958000,7.825
     -80.17003667,26.40958167,8.225
     -80.17000167,26.40958500,8.526
     -80.16996833,26.40958667,8.626
     -80.16994000,26.40959000,8.726
     -80.16991167,26.40959000,8.926
     -80.16989000,26.40959167,9.026
     -80.16987500,26.40959000,9.426
     -80.16985667,26.40959167,9.626
     -80.16984000,26.40959000,9.626
     -80.16982333,26.40959167,9.726
     -80.16981167,26.40959000,9.926
     -80.16979833,26.40958667,10.226
     -80.16978000,26.40958833,10.627
     -80.16976500,26.40958667,10.727
     -80.16975167,26.40958333,10.827
     -80.16973833,26.40958167,11.027
     -80.16972667,26.40957833,11.027
     -80.16971500,26.40957167,10.627
     -80.16969500,26.40956667,9.927
     -80.16967167,26.40956167,9.227
     -80.16964500,26.40956167,8.827
     -80.16961500,26.40956167,8.327
     -80.16958000,26.40956333,7.927
     -80.16954833,26.40956667,7.527
     -80.16951500,26.40957333,7.228
     -80.16947833,26.40958000,7.528
     -80.16944000,26.40958667,7.628
     -80.16940333,26.40959000,7.628
     -80.16936667,26.40959333,7.628
     -80.16932833,26.40959333,7.428
     -80.16929000,26.40959167,7.529
     -80.16925333,26.40959000,7.629
     -80.16921667,26.40959500,8.029
     -80.16917833,26.40959667,8.029
     -80.16913833,26.40960333,8.229
     -80.16909667,26.40961000,8.529
     -80.16905500,26.40961667,8.730
     -80.16901000,26.40962500,9.530
     -80.16896667,26.40963000,10.730
     -80.16892333,26.40963500,11.130
     -80.16888500,26.40963833,11.230
     -80.16884333,26.40964167,10.930
     -80.16880167,26.40963833,10.231
     -80.16876167,26.40963667,9.731
     -80.16872167,26.40963333,9.331
     -80.16868167,26.40963167,9.231
     -80.16864167,26.40962333,8.731
     -80.16860333,26.40961500,8.231
     -80.16856500,26.40960833,7.832
     -80.16852500,26.40960500,7.432
     -80.16848833,26.40959500,7.132
     -80.16845000,26.40958667,6.932
     -80.16841000,26.40958333,6.632
     -80.16837333,26.40957833,6.632
     -80.16833833,26.40958000,7.232
     -80.16830000,26.40958500,7.633
     -80.16826333,26.40958167,8.033
     -80.16822833,26.40957833,8.333
     -80.16819000,26.40957500,8.633
     -80.16815167,26.40957167,9.033
     -80.16811500,26.40956500,9.333
     -80.16808333,26.40956333,9.634
     -80.16804833,26.40956500,9.934
     -80.16801667,26.40957000,10.534
     -80.16798500,26.40957833,10.734
     -80.16795333,26.40959000,11.034
     -80.16792000,26.40960500,11.434
     -80.16789167,26.40962333,11.934
     -80.16786000,26.40964000,11.734
     -80.16783333,26.40965833,11.935
     -80.16780500,26.40967333,11.635
     -80.16777000,26.40968333,11.235
     -80.16773333,26.40969000,10.635
     -80.16770167,26.40969000,10.135
     -80.16766667,26.40969167,9.935
     -80.16762833,26.40969500,10.235
     -80.16758833,26.40970000,10.336
     -80.16755333,26.40970333,10.436
     -80.16751833,26.40970167,10.136
     -80.16748333,26.40970167,10.636
     -80.16745000,26.40969833,10.336
     -80.16741667,26.40969667,10.136
     -80.16738667,26.40969500,10.336
     -80.16736167,26.40969167,11.437
     -80.16733667,26.40967833,11.537
     -80.16731333,26.40966500,11.537
     -80.16729000,26.40965333,12.237
     -80.16726333,26.40964000,11.537
     -80.16723167,26.40962833,11.337
     -80.16719333,26.40962167,11.237
     -80.16715833,26.40961333,10.837
     -80.16712333,26.40961167,10.837
     -80.16708833,26.40961000,10.738
     -80.16705500,26.40960667,10.838
     -80.16701667,26.40961167,10.938
     -80.16698500,26.40961667,10.938
     -80.16695500,26.40962167,11.138
     -80.16692500,26.40962667,11.138
     -80.16690000,26.40963000,11.138
     -80.16688000,26.40964500,10.839
     -80.16685833,26.40965000,11.239
     -80.16684333,26.40966167,11.639
     -80.16683000,26.40968000,12.139
     -80.16681667,26.40969833,12.739
     -80.16680333,26.40971333,13.139
     -80.16679167,26.40972833,13.439
     -80.16678000,26.40974000,12.639
     -80.16676833,26.40975000,12.239
     -80.16675667,26.40976167,11.339
     -80.16674667,26.40977500,11.439
     -80.16673833,26.40979000,11.139
     -80.16673167,26.40980333,10.439
     -80.16672667,26.40981500,10.539
     -80.16672167,26.40982667,10.439
     -80.16671833,26.40983833,10.539
     -80.16671333,26.40984333,10.939
     -80.16671167,26.40984833,10.939
     -80.16670667,26.40985500,11.239
     -80.16670333,26.40985833,11.339
     -80.16670167,26.40986333,11.339
     -80.16670167,26.40986833,11.339
     -80.16669667,26.40987500,11.139
     -80.16669000,26.40987833,11.039
     -80.16668500,26.40988167,11.039
     -80.16668167,26.40988333,11.139
     -80.16668333,26.40988333,11.339
     -80.16668333,26.40988500,11.439
     -80.16668333,26.40988833,11.839
     -80.16668333,26.40988833,11.839
     -80.16668333,26.40988833,11.839
     -80.16668333,26.40988833,11.839
     -80.16668333,26.40988833,11.839
     -80.16668333,26.40988833,11.839
     -80.16668333,26.40988833,11.839
     -80.16668333,26.40988833,11.839
     -80.16668333,26.40988833,11.839
     -80.16668333,26.40988833,11.839
     -80.16668333,26.40988833,11.839
     -80.16668333,26.40988833,11.839
     -80.16668333,26.40988833,11.839
     -80.16668333,26.40988833,11.839
     -80.16668333,26.40988833,11.839
     -80.16668333,26.40988833,11.839
     -80.16668333,26.40988833,11.839
     -80.16668333,26.40988833,11.839
     -80.16668333,26.40988833,11.839
     -80.16668333,26.40988833,11.839
     -80.16668333,26.40988833,11.839
     -80.16668333,26.40988833,11.839
     -80.16668333,26.40988833,11.839
     -80.16668333,26.40988833,11.839
     -80.16668333,26.40988833,11.839
     -80.16668333,26.40988833,11.839
     -80.16668333,26.40988833,11.839
     -80.16668333,26.40988833,11.839
     -80.16668333,26.40988833,11.839
     -80.16668333,26.40988833,11.839
     -80.16668333,26.40988833,11.839
     -80.16668333,26.40988833,11.839
     -80.16668333,26.40988833,11.839
     -80.16668333,26.40988833,11.839
     -80.16668333,26.40988833,11.839
     -80.16668333,26.40988833,11.839
     -80.16668333,26.40988833,11.839
     -80.16668333,26.40988833,11.839
    </coordinates>
   </LineString>
  </Placemark>

 </Document>
</kml>
 