<?xml version="1.0" encoding="UTF-8"?>
<!-- Created with BasicAirData GPS Logger for Android - ver. 3.3.0 -->
<!-- Track 18 = 1352 TrackPoints + 5 Placemarks -->
<kml xmlns="http://www.opengis.net/kml/2.2">
 <Document>
  <name>GPS Logger 20260724-135456</name>
  <description><![CDATA[ST4-Gate
1352 Trackpoints + 5 Placemarks]]></description>
  <Style id="TrackStyle">
   <LineStyle>
    <color>ff0000ff</color>
    <width>3</width>
   </LineStyle>
   <PolyStyle>
    <color>7f0000ff</color>
   </PolyStyle>
   <BalloonStyle>
    <text><![CDATA[<p style="color:red;font-weight:bold">$[name]</p><p style="font-size:11px">$[description]</p><p style="font-size:7px">Track Stats based on: Total time | Time in Movement</p>]]></text>
   </BalloonStyle>
  </Style>
  <Style id="PlacemarkStyle">
   <IconStyle>
    <Icon><href>http://maps.google.com/mapfiles/kml/shapes/placemark_circle_highlight.png</href></Icon>
   </IconStyle>
  </Style>

  <Placemark id="1">
   <name>Station 4</name>
   <styleUrl>#PlacemarkStyle</styleUrl>
   <Point>
    <altitudeMode>clampToGround</altitudeMode>
    <coordinates>-80.16669333,26.40988333,12.739</coordinates>
    <extrude>1</extrude>
   </Point>
  </Placemark>

  <Placemark id="2">
   <name>Int19</name>
   <styleUrl>#PlacemarkStyle</styleUrl>
   <Point>
    <altitudeMode>clampToGround</altitudeMode>
    <coordinates>-80.16585333,26.41094333,18.743</coordinates>
    <extrude>1</extrude>
   </Point>
  </Placemark>

  <Placemark id="3">
   <name>Int20</name>
   <styleUrl>#PlacemarkStyle</styleUrl>
   <Point>
    <altitudeMode>clampToGround</altitudeMode>
    <coordinates>-80.16404000,26.41258000,13.152</coordinates>
    <extrude>1</extrude>
   </Point>
  </Placemark>

  <Placemark id="4">
   <name>Intxxx</name>
   <styleUrl>#PlacemarkStyle</styleUrl>
   <Point>
    <altitudeMode>clampToGround</altitudeMode>
    <coordinates>-80.16154000,26.41264500,12.562</coordinates>
    <extrude>1</extrude>
   </Point>
  </Placemark>

  <Placemark id="5">
   <name>Gate</name>
   <styleUrl>#PlacemarkStyle</styleUrl>
   <Point>
    <altitudeMode>clampToGround</altitudeMode>
    <coordinates>-80.16109667,26.41065000,25.963</coordinates>
    <extrude>1</extrude>
   </Point>
  </Placemark>

  <Placemark id="20260724-135456">
   <name>Track 20260724-135456</name>
   <description><![CDATA[<b>ST4-Gate</b><br><br>Distance = 2.01 km<br>Duration = 22:31 | 13:17<br>Altitude Gap = 13 m<br>Max Speed = 9 mph<br>Avg Speed = 3.3 | 5.7 mph<br>Direction = E <br><br><i>1352 Trackpoints</i>]]></description>
   <styleUrl>#TrackStyle</styleUrl>
   <LineString>
    <extrude>0</extrude>
    <tessellate>0</tessellate>
    <altitudeMode>clampToGround</altitudeMode>
    <coordinates>
     -80.16669333,26.40988333,12.739
     -80.16669333,26.40988333,12.739
     -80.16669333,26.40988333,12.739
     -80.16669333,26.40988333,12.739
     -80.16669333,26.40988333,12.739
     -80.16669333,26.40988333,12.739
     -80.16669333,26.40988333,12.739
     -80.16669333,26.40988333,12.739
     -80.16669333,26.40988333,12.739
     -80.16669333,26.40988333,12.739
     -80.16669333,26.40988333,12.739
     -80.16669333,26.40988333,12.739
     -80.16669333,26.40988333,12.739
     -80.16669333,26.40988333,12.739
     -80.16669333,26.40988333,12.739
     -80.16669333,26.40988333,12.739
     -80.16669333,26.40988333,12.739
     -80.16669333,26.40988333,12.739
     -80.16669333,26.40988333,12.739
     -80.16669333,26.40988333,12.739
     -80.16669333,26.40988333,12.739
     -80.16669333,26.40988333,12.739
     -80.16669333,26.40988333,12.739
     -80.16669333,26.40988333,12.739
     -80.16669333,26.40988333,12.739
     -80.16669333,26.40988333,12.739
     -80.16669333,26.40988333,12.739
     -80.16669333,26.40988333,12.739
     -80.16669333,26.40988333,12.739
     -80.16669333,26.40988333,12.739
     -80.16670333,26.40986667,12.239
     -80.16670167,26.40986500,12.339
     -80.16670000,26.40986500,12.239
     -80.16670333,26.40986333,12.039
     -80.16670333,26.40986333,11.839
     -80.16670333,26.40986333,11.839
     -80.16670333,26.40986333,11.839
     -80.16670333,26.40986333,11.839
     -80.16670333,26.40986333,11.839
     -80.16670333,26.40986333,11.839
     -80.16670333,26.40986333,11.839
     -80.16670333,26.40986333,11.839
     -80.16670333,26.40986333,11.839
     -80.16670333,26.40986333,11.839
     -80.16667667,26.40986833,11.039
     -80.16667000,26.40986667,10.840
     -80.16666500,26.40986500,10.740
     -80.16665333,26.40986500,10.640
     -80.16664500,26.40986333,10.440
     -80.16663500,26.40986333,10.240
     -80.16662333,26.40986500,10.140
     -80.16661500,26.40986500,9.640
     -80.16660000,26.40986500,9.440
     -80.16658833,26.40986333,9.140
     -80.16657500,26.40985500,8.840
     -80.16655833,26.40984500,8.540
     -80.16654500,26.40983667,8.140
     -80.16653833,26.40982333,7.640
     -80.16653500,26.40981167,7.140
     -80.16653333,26.40979667,6.840
     -80.16652833,26.40978167,6.840
     -80.16652333,26.40976500,7.040
     -80.16651667,26.40975000,7.140
     -80.16651333,26.40973167,7.340
     -80.16650333,26.40971500,7.940
     -80.16649333,26.40969833,8.240
     -80.16648333,26.40968333,8.040
     -80.16647000,26.40967167,8.140
     -80.16645500,26.40966500,7.940
     -80.16643833,26.40966333,7.640
     -80.16641833,26.40965667,7.440
     -80.16639833,26.40965833,7.441
     -80.16637667,26.40965833,7.341
     -80.16635833,26.40965833,7.341
     -80.16634167,26.40965333,6.841
     -80.16632333,26.40965167,6.341
     -80.16630167,26.40965167,6.041
     -80.16628333,26.40965000,5.741
     -80.16626333,26.40964667,5.441
     -80.16624333,26.40964500,5.441
     -80.16622167,26.40964333,5.641
     -80.16620000,26.40964333,5.841
     -80.16618000,26.40964333,5.841
     -80.16615667,26.40964500,6.042
     -80.16613667,26.40964333,6.342
     -80.16611500,26.40964167,6.542
     -80.16609167,26.40964333,6.142
     -80.16606833,26.40964500,5.942
     -80.16604667,26.40964833,5.542
     -80.16602667,26.40964833,4.942
     -80.16600333,26.40964833,4.842
     -80.16597833,26.40965000,4.942
     -80.16596000,26.40964833,4.842
     -80.16593667,26.40965167,4.842
     -80.16591333,26.40965333,5.143
     -80.16589333,26.40965167,5.343
     -80.16587167,26.40965333,4.943
     -80.16585167,26.40965167,4.643
     -80.16583333,26.40964500,4.443
     -80.16581333,26.40964500,4.443
     -80.16579333,26.40964667,4.643
     -80.16577333,26.40965000,4.743
     -80.16575000,26.40965500,5.143
     -80.16572833,26.40966000,5.343
     -80.16570333,26.40966667,5.943
     -80.16567833,26.40967333,6.143
     -80.16565333,26.40967833,6.244
     -80.16563667,26.40967667,5.744
     -80.16561000,26.40968000,5.844
     -80.16558833,26.40968667,6.344
     -80.16556833,26.40968167,6.644
     -80.16554667,26.40967167,6.744
     -80.16552333,26.40966000,6.644
     -80.16550167,26.40965000,6.244
     -80.16548667,26.40964000,5.744
     -80.16546833,26.40963500,5.344
     -80.16544833,26.40963333,4.944
     -80.16542833,26.40963167,4.544
     -80.16540833,26.40963000,4.245
     -80.16538667,26.40963333,4.245
     -80.16536167,26.40963833,4.145
     -80.16533667,26.40963833,4.145
     -80.16531167,26.40963833,4.345
     -80.16528500,26.40963667,4.645
     -80.16525833,26.40963667,4.945
     -80.16523500,26.40963500,5.445
     -80.16521000,26.40963333,5.845
     -80.16518667,26.40963333,6.245
     -80.16516500,26.40963500,6.446
     -80.16514000,26.40963500,6.546
     -80.16511333,26.40963667,6.746
     -80.16508833,26.40963667,6.746
     -80.16506500,26.40963667,6.746
     -80.16504000,26.40963667,6.146
     -80.16501333,26.40963500,5.946
     -80.16498500,26.40963333,5.846
     -80.16495833,26.40963500,5.546
     -80.16493167,26.40963833,5.447
     -80.16490667,26.40964167,5.647
     -80.16488167,26.40964500,5.647
     -80.16485833,26.40964500,5.547
     -80.16483333,26.40964500,5.547
     -80.16480833,26.40964667,5.847
     -80.16478333,26.40964833,6.047
     -80.16476000,26.40965000,5.847
     -80.16473667,26.40965167,5.647
     -80.16471167,26.40965500,5.247
     -80.16468667,26.40965500,4.748
     -80.16466667,26.40965167,4.548
     -80.16464333,26.40964833,5.048
     -80.16462000,26.40964500,5.148
     -80.16459833,26.40964167,5.148
     -80.16457667,26.40964000,5.648
     -80.16455333,26.40963833,6.048
     -80.16453167,26.40963667,6.248
     -80.16451000,26.40963667,6.148
     -80.16449000,26.40963500,5.948
     -80.16446667,26.40963833,6.148
     -80.16444667,26.40963833,6.149
     -80.16442333,26.40963833,6.149
     -80.16439833,26.40963833,6.349
     -80.16437333,26.40963833,6.649
     -80.16434833,26.40963833,6.849
     -80.16432167,26.40964000,7.149
     -80.16430000,26.40964000,7.049
     -80.16427500,26.40964167,7.249
     -80.16425000,26.40964167,7.249
     -80.16422667,26.40964167,7.049
     -80.16420333,26.40964167,7.050
     -80.16417667,26.40964333,7.250
     -80.16415333,26.40964167,7.450
     -80.16413000,26.40963667,7.450
     -80.16410667,26.40963167,7.550
     -80.16408333,26.40962833,7.450
     -80.16406000,26.40962667,7.250
     -80.16403500,26.40962500,7.050
     -80.16401000,26.40962167,6.850
     -80.16398500,26.40961833,6.550
     -80.16396500,26.40961333,6.251
     -80.16394333,26.40960667,6.051
     -80.16392167,26.40960000,5.951
     -80.16390000,26.40959833,5.651
     -80.16387667,26.40959500,5.551
     -80.16385167,26.40959000,5.551
     -80.16382667,26.40958500,5.851
     -80.16380333,26.40958500,5.951
     -80.16378167,26.40958833,5.651
     -80.16375833,26.40959000,5.551
     -80.16373500,26.40959167,5.651
     -80.16371167,26.40959333,5.552
     -80.16369000,26.40959333,5.552
     -80.16366833,26.40959500,5.652
     -80.16364667,26.40959833,5.552
     -80.16362500,26.40959833,5.752
     -80.16360167,26.40959167,5.852
     -80.16357667,26.40958333,5.952
     -80.16355000,26.40957333,5.852
     -80.16353500,26.40956000,5.652
     -80.16350833,26.40954833,5.952
     -80.16348667,26.40953500,5.952
     -80.16346500,26.40952500,6.053
     -80.16344167,26.40951333,5.653
     -80.16342000,26.40950000,5.253
     -80.16340333,26.40949333,4.853
     -80.16338833,26.40949000,4.553
     -80.16337167,26.40948667,4.253
     -80.16335500,26.40948333,4.153
     -80.16333500,26.40948167,4.253
     -80.16331333,26.40948500,4.453
     -80.16329500,26.40948833,4.153
     -80.16327833,26.40949167,3.953
     -80.16326167,26.40949333,4.053
     -80.16324167,26.40949333,4.153
     -80.16321833,26.40950167,4.154
     -80.16319000,26.40951000,4.354
     -80.16316500,26.40951500,5.154
     -80.16314667,26.40951333,5.054
     -80.16312833,26.40950833,4.854
     -80.16311000,26.40950833,5.054
     -80.16308833,26.40950667,4.854
     -80.16306833,26.40950500,4.854
     -80.16304667,26.40950500,4.654
     -80.16302333,26.40950333,4.654
     -80.16299333,26.40950833,5.054
     -80.16297000,26.40950833,5.355
     -80.16294500,26.40950500,5.455
     -80.16291833,26.40950000,5.255
     -80.16289167,26.40949500,5.155
     -80.16286833,26.40949000,4.655
     -80.16284333,26.40948833,4.755
     -80.16282167,26.40949000,4.655
     -80.16279500,26.40949667,4.855
     -80.16276667,26.40950167,5.355
     -80.16274167,26.40949833,5.856
     -80.16272000,26.40949333,5.756
     -80.16269667,26.40949167,5.356
     -80.16267500,26.40949000,4.856
     -80.16264667,26.40949333,4.256
     -80.16262167,26.40950000,4.156
     -80.16259833,26.40950333,4.056
     -80.16257000,26.40950333,4.356
     -80.16254500,26.40950333,4.256
     -80.16252000,26.40950333,4.356
     -80.16249833,26.40950167,4.457
     -80.16247000,26.40950167,5.157
     -80.16244500,26.40950167,5.357
     -80.16242000,26.40950167,5.157
     -80.16239333,26.40950167,4.857
     -80.16236333,26.40950000,4.657
     -80.16233833,26.40950000,4.557
     -80.16231000,26.40950333,4.657
     -80.16228667,26.40951333,4.857
     -80.16226167,26.40952333,5.157
     -80.16224333,26.40953500,5.058
     -80.16222333,26.40954667,5.258
     -80.16220333,26.40956333,5.458
     -80.16218667,26.40958000,5.258
     -80.16217000,26.40960000,5.458
     -80.16215167,26.40961167,5.058
     -80.16213000,26.40962500,5.058
     -80.16210833,26.40963500,5.158
     -80.16208333,26.40963667,4.758
     -80.16206500,26.40963500,4.758
     -80.16204333,26.40963167,4.958
     -80.16202500,26.40962167,5.159
     -80.16200500,26.40961500,5.359
     -80.16198167,26.40961000,5.659
     -80.16195500,26.40960833,5.859
     -80.16193167,26.40960667,5.959
     -80.16190667,26.40960333,6.059
     -80.16188000,26.40960500,6.159
     -80.16185333,26.40961000,6.259
     -80.16183167,26.40962167,6.159
     -80.16180833,26.40963667,6.659
     -80.16179167,26.40965167,6.860
     -80.16177500,26.40966000,6.560
     -80.16176000,26.40967167,6.960
     -80.16174333,26.40968167,7.060
     -80.16172833,26.40969333,7.360
     -80.16171833,26.40970000,7.960
     -80.16171333,26.40970500,8.260
     -80.16171000,26.40970500,8.260
     -80.16171000,26.40970833,8.460
     -80.16170833,26.40971000,8.360
     -80.16170667,26.40971167,8.560
     -80.16170667,26.40971000,8.260
     -80.16170833,26.40970500,7.760
     -80.16170667,26.40970333,7.260
     -80.16170333,26.40970333,6.860
     -80.16169667,26.40971333,6.860
     -80.16168667,26.40972333,7.160
     -80.16167500,26.40973333,7.460
     -80.16166333,26.40974333,7.560
     -80.16165667,26.40975333,7.460
     -80.16165000,26.40976500,7.160
     -80.16164667,26.40977833,7.160
     -80.16164333,26.40979167,7.360
     -80.16163833,26.40980500,7.460
     -80.16163667,26.40981500,7.660
     -80.16163667,26.40982500,7.460
     -80.16163667,26.40983833,7.060
     -80.16163833,26.40985333,6.660
     -80.16164167,26.40987000,6.160
     -80.16164000,26.40989000,5.860
     -80.16164000,26.40991000,6.060
     -80.16164333,26.40992667,6.060
     -80.16164500,26.40994167,6.160
     -80.16164500,26.40995833,6.260
     -80.16164500,26.40997500,6.260
     -80.16164500,26.40999167,6.560
     -80.16164667,26.41001000,6.560
     -80.16164667,26.41003167,6.060
     -80.16165000,26.41005333,5.660
     -80.16164833,26.41007333,5.460
     -80.16164500,26.41009167,5.260
     -80.16164000,26.41010833,4.760
     -80.16163500,26.41012500,4.360
     -80.16163667,26.41014667,4.160
     -80.16164000,26.41016667,4.560
     -80.16164000,26.41018500,4.860
     -80.16164000,26.41020333,4.760
     -80.16164000,26.41022833,5.160
     -80.16163833,26.41024667,5.060
     -80.16163833,26.41026333,4.360
     -80.16163833,26.41028167,3.860
     -80.16164000,26.41030667,3.660
     -80.16164000,26.41032500,3.161
     -80.16163500,26.41035333,3.061
     -80.16163167,26.41038833,2.861
     -80.16163167,26.41042167,2.961
     -80.16163333,26.41045167,3.161
     -80.16163333,26.41048000,3.461
     -80.16163000,26.41050333,3.261
     -80.16162667,26.41052833,3.161
     -80.16163000,26.41055500,3.061
     -80.16163333,26.41057833,3.161
     -80.16163667,26.41060000,3.061
     -80.16163667,26.41061833,3.261
     -80.16163500,26.41064333,3.461
     -80.16164000,26.41066333,3.461
     -80.16164167,26.41068333,3.761
     -80.16164667,26.41070500,3.961
     -80.16165333,26.41072333,3.661
     -80.16165833,26.41074667,3.361
     -80.16166167,26.41076500,3.361
     -80.16166167,26.41078167,3.361
     -80.16166500,26.41080167,3.161
     -80.16167500,26.41082833,3.061
     -80.16168333,26.41085500,2.661
     -80.16168833,26.41087833,2.561
     -80.16169333,26.41090167,2.761
     -80.16169667,26.41092667,3.161
     -80.16170167,26.41095000,3.561
     -80.16170167,26.41097000,3.861
     -80.16170667,26.41099333,4.261
     -80.16170833,26.41101500,4.361
     -80.16170667,26.41103167,4.861
     -80.16170833,26.41105000,5.061
     -80.16170667,26.41106833,4.961
     -80.16170500,26.41109333,4.961
     -80.16170000,26.41111167,4.761
     -80.16170167,26.41113333,4.561
     -80.16170333,26.41115333,4.461
     -80.16171000,26.41118000,4.261
     -80.16172000,26.41120500,4.361
     -80.16173167,26.41122833,4.361
     -80.16174667,26.41125167,4.661
     -80.16176000,26.41128167,4.761
     -80.16176667,26.41130167,4.761
     -80.16177000,26.41132167,4.961
     -80.16176833,26.41133667,5.161
     -80.16177500,26.41135167,5.761
     -80.16177833,26.41136833,6.261
     -80.16178333,26.41138333,6.861
     -80.16178667,26.41139833,7.161
     -80.16179000,26.41141667,7.260
     -80.16179500,26.41143333,7.560
     -80.16179833,26.41145000,7.660
     -80.16180333,26.41146667,7.660
     -80.16180667,26.41148167,7.360
     -80.16181000,26.41150000,7.360
     -80.16181000,26.41151667,6.860
     -80.16181333,26.41153167,6.360
     -80.16181667,26.41154833,6.260
     -80.16181833,26.41156833,6.160
     -80.16181667,26.41158833,6.460
     -80.16182000,26.41161000,6.360
     -80.16183000,26.41163000,6.460
     -80.16183500,26.41164833,6.460
     -80.16184167,26.41167000,6.560
     -80.16184667,26.41169167,6.560
     -80.16184833,26.41170833,6.260
     -80.16185333,26.41172833,6.560
     -80.16185833,26.41175000,6.760
     -80.16186167,26.41177167,7.360
     -80.16186667,26.41179333,7.660
     -80.16187000,26.41181333,8.460
     -80.16187000,26.41183500,9.260
     -80.16187500,26.41185333,9.360
     -80.16188500,26.41187167,9.360
     -80.16188667,26.41189000,9.260
     -80.16189333,26.41189833,9.060
     -80.16191333,26.41190667,9.060
     -80.16194167,26.41191333,9.060
     -80.16197000,26.41191500,8.960
     -80.16199167,26.41191500,9.060
     -80.16201667,26.41191167,9.560
     -80.16204333,26.41191000,9.760
     -80.16206333,26.41191333,8.960
     -80.16208500,26.41191167,8.560
     -80.16210833,26.41191333,7.759
     -80.16213500,26.41190500,7.859
     -80.16215833,26.41190833,7.859
     -80.16217833,26.41190667,7.559
     -80.16220000,26.41190667,7.559
     -80.16222000,26.41190500,7.659
     -80.16224333,26.41190167,7.959
     -80.16227500,26.41190000,8.459
     -80.16230667,26.41189667,8.959
     -80.16234167,26.41189500,10.058
     -80.16237333,26.41189167,11.058
     -80.16240333,26.41188833,12.058
     -80.16243000,26.41188167,12.658
     -80.16245833,26.41188000,13.258
     -80.16248667,26.41187667,14.158
     -80.16251333,26.41187500,14.958
     -80.16253500,26.41187667,15.258
     -80.16255667,26.41188000,14.858
     -80.16258000,26.41188667,14.658
     -80.16260500,26.41188667,13.657
     -80.16263500,26.41188667,13.057
     -80.16266333,26.41188667,12.957
     -80.16269000,26.41188667,12.957
     -80.16272000,26.41189000,12.557
     -80.16274500,26.41189167,12.157
     -80.16276833,26.41189333,12.657
     -80.16279333,26.41189167,13.057
     -80.16281833,26.41189333,13.057
     -80.16284333,26.41189667,12.756
     -80.16286833,26.41189833,12.456
     -80.16289500,26.41190167,12.056
     -80.16291833,26.41190500,11.756
     -80.16294500,26.41191167,11.656
     -80.16296833,26.41191333,11.756
     -80.16299167,26.41191500,11.856
     -80.16301500,26.41191667,11.956
     -80.16303833,26.41192000,11.556
     -80.16305667,26.41192167,11.056
     -80.16307833,26.41192333,10.155
     -80.16309833,26.41192500,9.455
     -80.16312000,26.41192167,8.955
     -80.16314500,26.41191333,9.455
     -80.16317167,26.41190000,10.155
     -80.16319833,26.41188500,11.055
     -80.16322333,26.41187000,11.655
     -80.16325000,26.41186000,11.855
     -80.16327500,26.41184333,11.955
     -80.16329667,26.41183167,12.055
     -80.16331333,26.41182000,11.854
     -80.16333333,26.41180833,11.854
     -80.16335500,26.41179667,12.254
     -80.16337167,26.41178667,12.154
     -80.16339333,26.41177500,12.254
     -80.16341833,26.41176333,12.454
     -80.16344167,26.41175500,12.254
     -80.16346833,26.41174833,11.954
     -80.16349667,26.41173833,12.254
     -80.16352333,26.41173000,12.154
     -80.16355500,26.41172000,12.753
     -80.16358167,26.41171167,12.953
     -80.16360833,26.41170167,13.153
     -80.16363333,26.41169167,13.353
     -80.16365500,26.41168167,13.253
     -80.16367833,26.41167167,13.153
     -80.16370333,26.41166000,13.053
     -80.16372167,26.41164833,12.453
     -80.16373833,26.41162667,12.553
     -80.16375667,26.41160667,13.052
     -80.16377333,26.41158667,13.652
     -80.16379000,26.41156500,13.952
     -80.16380500,26.41154333,14.152
     -80.16382333,26.41152500,14.152
     -80.16384000,26.41150833,13.752
     -80.16385833,26.41149000,13.152
     -80.16388167,26.41147167,12.552
     -80.16390500,26.41145167,12.352
     -80.16392667,26.41144333,12.752
     -80.16394833,26.41143667,12.752
     -80.16397333,26.41142833,12.952
     -80.16400333,26.41142000,13.251
     -80.16403333,26.41141500,13.851
     -80.16405833,26.41141000,14.351
     -80.16408167,26.41140833,14.651
     -80.16411000,26.41140500,14.751
     -80.16413667,26.41140333,15.051
     -80.16416167,26.41139833,15.151
     -80.16419167,26.41139500,14.751
     -80.16422333,26.41138833,14.250
     -80.16425333,26.41138000,13.550
     -80.16428333,26.41137000,13.350
     -80.16431500,26.41136000,13.450
     -80.16433833,26.41135333,13.450
     -80.16436167,26.41134333,13.850
     -80.16438333,26.41133500,13.450
     -80.16440500,26.41132667,13.150
     -80.16442667,26.41131833,12.550
     -80.16445167,26.41131167,12.749
     -80.16447500,26.41130500,13.249
     -80.16449833,26.41130000,13.349
     -80.16452167,26.41129333,13.049
     -80.16454167,26.41128667,12.649
     -80.16456500,26.41128167,12.249
     -80.16459333,26.41127333,11.949
     -80.16462000,26.41126667,11.749
     -80.16464500,26.41125833,11.549
     -80.16466833,26.41125333,11.549
     -80.16469167,26.41124667,11.348
     -80.16471500,26.41124167,10.948
     -80.16473333,26.41123167,10.148
     -80.16475000,26.41122333,9.548
     -80.16476500,26.41121333,8.948
     -80.16478167,26.41120667,8.648
     -80.16480167,26.41120167,8.748
     -80.16482167,26.41119167,9.048
     -80.16484333,26.41118667,9.548
     -80.16486833,26.41118500,9.848
     -80.16489167,26.41118167,9.848
     -80.16491167,26.41117167,9.847
     -80.16493833,26.41116833,10.047
     -80.16496333,26.41116333,10.347
     -80.16498667,26.41115833,10.447
     -80.16500833,26.41115000,11.047
     -80.16502833,26.41114000,11.547
     -80.16505000,26.41113167,11.647
     -80.16507167,26.41112500,11.547
     -80.16509000,26.41111667,11.747
     -80.16511500,26.41111000,11.247
     -80.16513833,26.41110167,11.247
     -80.16516167,26.41109000,11.446
     -80.16518667,26.41108167,11.646
     -80.16521167,26.41107167,11.646
     -80.16524000,26.41106500,11.546
     -80.16526333,26.41105833,11.546
     -80.16528667,26.41105167,11.246
     -80.16531333,26.41104333,11.246
     -80.16534000,26.41103500,10.946
     -80.16536833,26.41102500,10.646
     -80.16539500,26.41101667,10.545
     -80.16542000,26.41100833,10.545
     -80.16544333,26.41100167,10.645
     -80.16546833,26.41099500,10.545
     -80.16549167,26.41098500,10.645
     -80.16551333,26.41098000,10.645
     -80.16553833,26.41097667,11.345
     -80.16555500,26.41097667,12.445
     -80.16556667,26.41097833,13.445
     -80.16557667,26.41097833,13.445
     -80.16558500,26.41098167,13.545
     -80.16559500,26.41098333,13.545
     -80.16560333,26.41098167,13.345
     -80.16561167,26.41098000,13.444
     -80.16561333,26.41098000,13.144
     -80.16561333,26.41097833,13.344
     -80.16561333,26.41097500,13.644
     -80.16561333,26.41097000,13.944
     -80.16561333,26.41096500,14.544
     -80.16561333,26.41096167,14.944
     -80.16561167,26.41096000,15.344
     -80.16561167,26.41096000,15.844
     -80.16561167,26.41096000,15.844
     -80.16561167,26.41096000,15.844
     -80.16561167,26.41096000,15.844
     -80.16561167,26.41096000,15.844
     -80.16561167,26.41096000,15.844
     -80.16561167,26.41096000,15.844
     -80.16561167,26.41096000,15.844
     -80.16561167,26.41096000,15.844
     -80.16561167,26.41096000,15.844
     -80.16561167,26.41096000,15.844
     -80.16561167,26.41096000,15.844
     -80.16561167,26.41096000,15.844
     -80.16561167,26.41096000,15.844
     -80.16561167,26.41096000,15.844
     -80.16561167,26.41096000,15.844
     -80.16561167,26.41096000,15.844
     -80.16561167,26.41096000,15.844
     -80.16561167,26.41096000,15.844
     -80.16561167,26.41096000,15.844
     -80.16561167,26.41096000,15.844
     -80.16561167,26.41096000,15.844
     -80.16561167,26.41096000,15.844
     -80.16561167,26.41096000,15.844
     -80.16561167,26.41096000,15.844
     -80.16561167,26.41096000,15.844
     -80.16564000,26.41096500,19.444
     -80.16565667,26.41096000,19.344
     -80.16567500,26.41095667,19.144
     -80.16569167,26.41095167,19.144
     -80.16571000,26.41094833,19.144
     -80.16572833,26.41094333,19.044
     -80.16574667,26.41094167,18.844
     -80.16576333,26.41093833,18.544
     -80.16577833,26.41093667,18.444
     -80.16579167,26.41093667,18.044
     -80.16580500,26.41093667,17.644
     -80.16581500,26.41093833,17.144
     -80.16582167,26.41094167,17.244
     -80.16582833,26.41094167,17.244
     -80.16583167,26.41094333,17.544
     -80.16583667,26.41094667,18.044
     -80.16583667,26.41094333,18.344
     -80.16583333,26.41094167,18.444
     -80.16583500,26.41094167,18.444
     -80.16583667,26.41094333,18.444
     -80.16584167,26.41094167,18.544
     -80.16584833,26.41094333,18.444
     -80.16585333,26.41094333,18.743
     -80.16585333,26.41094333,18.743
     -80.16585333,26.41094333,18.743
     -80.16585333,26.41094333,18.743
     -80.16585333,26.41094333,18.743
     -80.16585333,26.41094333,18.743
     -80.16585333,26.41094333,18.743
     -80.16585333,26.41094333,18.743
     -80.16585333,26.41094333,18.743
     -80.16585333,26.41094333,18.743
     -80.16585333,26.41094333,18.743
     -80.16585333,26.41094333,18.743
     -80.16585333,26.41094333,18.743
     -80.16585333,26.41094333,18.743
     -80.16585333,26.41094333,18.743
     -80.16585333,26.41094333,18.743
     -80.16589000,26.41094667,20.843
     -80.16590167,26.41095167,21.143
     -80.16591000,26.41095167,21.143
     -80.16591500,26.41096833,21.343
     -80.16591167,26.41098833,20.743
     -80.16590500,26.41100833,20.943
     -80.16589833,26.41102833,20.743
     -80.16589500,26.41105167,20.643
     -80.16589167,26.41107667,20.343
     -80.16588833,26.41110000,19.743
     -80.16588167,26.41112500,19.343
     -80.16587667,26.41114667,19.443
     -80.16586833,26.41116667,19.044
     -80.16586333,26.41118667,18.644
     -80.16586000,26.41121000,18.644
     -80.16585667,26.41123833,18.544
     -80.16584833,26.41126833,18.244
     -80.16584167,26.41129667,17.844
     -80.16583333,26.41132667,17.444
     -80.16582500,26.41135667,16.944
     -80.16581500,26.41138500,16.344
     -80.16580833,26.41141333,16.344
     -80.16580000,26.41144167,16.544
     -80.16579167,26.41147000,15.944
     -80.16578167,26.41149833,15.344
     -80.16577333,26.41152667,15.044
     -80.16576500,26.41155500,15.044
     -80.16575167,26.41158333,15.444
     -80.16573833,26.41161000,16.044
     -80.16572500,26.41163667,16.344
     -80.16571167,26.41166167,15.544
     -80.16570000,26.41168833,15.445
     -80.16568667,26.41171667,15.645
     -80.16567167,26.41174500,15.245
     -80.16565667,26.41177333,15.345
     -80.16563833,26.41180000,14.845
     -80.16561833,26.41183000,14.845
     -80.16559833,26.41185833,14.545
     -80.16557667,26.41188500,14.745
     -80.16556000,26.41191333,14.945
     -80.16554167,26.41194500,15.045
     -80.16552667,26.41197500,14.845
     -80.16551000,26.41200167,14.345
     -80.16549333,26.41202667,13.546
     -80.16547000,26.41204333,13.046
     -80.16545167,26.41206333,12.946
     -80.16542667,26.41208667,12.946
     -80.16540167,26.41211000,12.746
     -80.16537500,26.41213667,12.546
     -80.16534667,26.41216167,12.046
     -80.16532000,26.41219000,11.746
     -80.16529500,26.41221333,11.246
     -80.16526833,26.41224000,11.147
     -80.16524000,26.41226000,10.147
     -80.16520500,26.41228167,9.847
     -80.16517167,26.41229833,9.747
     -80.16513500,26.41231833,9.747
     -80.16509833,26.41233500,9.747
     -80.16506167,26.41235000,10.048
     -80.16502667,26.41236333,9.948
     -80.16499167,26.41237667,10.048
     -80.16496167,26.41239167,10.348
     -80.16492833,26.41240500,10.248
     -80.16489500,26.41241167,10.248
     -80.16486333,26.41242333,10.548
     -80.16482833,26.41243833,10.849
     -80.16480000,26.41245167,10.949
     -80.16476333,26.41246833,10.749
     -80.16472500,26.41248167,11.349
     -80.16468667,26.41249000,11.849
     -80.16464167,26.41249667,14.049
     -80.16460833,26.41250667,14.149
     -80.16457333,26.41251667,14.550
     -80.16453833,26.41252500,14.750
     -80.16450167,26.41253500,14.950
     -80.16446667,26.41254500,15.150
     -80.16443000,26.41255833,15.850
     -80.16438667,26.41256500,15.850
     -80.16435167,26.41256833,15.651
     -80.16431667,26.41257167,15.651
     -80.16428500,26.41257333,15.451
     -80.16425333,26.41257333,15.351
     -80.16422333,26.41257500,15.451
     -80.16419167,26.41257667,15.451
     -80.16416167,26.41257833,14.651
     -80.16413333,26.41257833,13.951
     -80.16410667,26.41257833,12.952
     -80.16407833,26.41258167,13.752
     -80.16405500,26.41257833,13.452
     -80.16404500,26.41257000,13.152
     -80.16404167,26.41257000,13.052
     -80.16404167,26.41257333,13.052
     -80.16404000,26.41258000,13.152
     -80.16404167,26.41258500,12.952
     -80.16403833,26.41258833,13.252
     -80.16403333,26.41259167,13.552
     -80.16402667,26.41259000,13.652
     -80.16401667,26.41258667,13.552
     -80.16400833,26.41258167,13.352
     -80.16400333,26.41258167,13.452
     -80.16399667,26.41258500,14.152
     -80.16399333,26.41258667,14.952
     -80.16399333,26.41258667,14.952
     -80.16399333,26.41258667,14.952
     -80.16399333,26.41258667,14.952
     -80.16399333,26.41258667,14.952
     -80.16399333,26.41258667,14.952
     -80.16399333,26.41258667,14.952
     -80.16399333,26.41258667,14.952
     -80.16399333,26.41258667,14.952
     -80.16394667,26.41257500,19.652
     -80.16392667,26.41257167,18.852
     -80.16390167,26.41256833,18.552
     -80.16387667,26.41257000,18.653
     -80.16385000,26.41257000,19.153
     -80.16382167,26.41257000,19.653
     -80.16379167,26.41256667,20.253
     -80.16376000,26.41256333,20.353
     -80.16372833,26.41255667,20.653
     -80.16369667,26.41254833,20.753
     -80.16366333,26.41254167,20.153
     -80.16363167,26.41252833,19.054
     -80.16360000,26.41251500,18.854
     -80.16356833,26.41250500,18.654
     -80.16354000,26.41250167,18.254
     -80.16350500,26.41249500,18.054
     -80.16347167,26.41248667,17.854
     -80.16343833,26.41247833,17.754
     -80.16340333,26.41247000,17.854
     -80.16336833,26.41246333,17.355
     -80.16333500,26.41245667,16.255
     -80.16330000,26.41245667,15.655
     -80.16326667,26.41244667,15.355
     -80.16323500,26.41244167,14.955
     -80.16320000,26.41243500,14.255
     -80.16316500,26.41243500,13.555
     -80.16312833,26.41243000,12.856
     -80.16309333,26.41242167,12.656
     -80.16305500,26.41241500,12.756
     -80.16302000,26.41241000,12.556
     -80.16298333,26.41241000,12.356
     -80.16294500,26.41240667,11.656
     -80.16291167,26.41240833,10.356
     -80.16287833,26.41240333,9.057
     -80.16284333,26.41239667,8.257
     -80.16280667,26.41239167,7.357
     -80.16276667,26.41239333,7.057
     -80.16273333,26.41239500,7.257
     -80.16269000,26.41239333,7.057
     -80.16264667,26.41239333,7.458
     -80.16261000,26.41239333,7.458
     -80.16256833,26.41239167,7.158
     -80.16252667,26.41239333,7.158
     -80.16248500,26.41239167,6.858
     -80.16244667,26.41239333,6.458
     -80.16240167,26.41239833,6.659
     -80.16236000,26.41240833,6.659
     -80.16232000,26.41241000,6.159
     -80.16228000,26.41241333,5.859
     -80.16223833,26.41241667,5.759
     -80.16219833,26.41242000,5.359
     -80.16215667,26.41242333,4.960
     -80.16211167,26.41242833,5.160
     -80.16207000,26.41243333,5.060
     -80.16202833,26.41244333,5.060
     -80.16199333,26.41245500,4.860
     -80.16196167,26.41247167,5.460
     -80.16193167,26.41248667,5.461
     -80.16190667,26.41250167,5.861
     -80.16186667,26.41251333,6.661
     -80.16182667,26.41252667,7.661
     -80.16178667,26.41253833,8.661
     -80.16175333,26.41254833,8.861
     -80.16172000,26.41255500,9.061
     -80.16168500,26.41256333,9.162
     -80.16165667,26.41256833,8.762
     -80.16163167,26.41257833,8.862
     -80.16160500,26.41259167,8.762
     -80.16158333,26.41260000,8.562
     -80.16156833,26.41260000,8.762
     -80.16155333,26.41260833,9.162
     -80.16154500,26.41261167,9.262
     -80.16154333,26.41262000,9.862
     -80.16154167,26.41262667,10.462
     -80.16153833,26.41263167,10.962
     -80.16153833,26.41263833,11.262
     -80.16153833,26.41264333,11.762
     -80.16154000,26.41264500,12.162
     -80.16154000,26.41264500,12.562
     -80.16154000,26.41264667,13.162
     -80.16154000,26.41264833,13.562
     -80.16154000,26.41264833,13.562
     -80.16154000,26.41264833,13.562
     -80.16154000,26.41264833,13.562
     -80.16154000,26.41264833,13.562
     -80.16154000,26.41264833,13.562
     -80.16154000,26.41264833,13.562
     -80.16154000,26.41264833,13.562
     -80.16152667,26.41265167,16.362
     -80.16151167,26.41265000,16.462
     -80.16149667,26.41265000,16.562
     -80.16149167,26.41264000,16.662
     -80.16148500,26.41262667,16.962
     -80.16147667,26.41261500,16.262
     -80.16146833,26.41259833,15.962
     -80.16145833,26.41258167,15.463
     -80.16144167,26.41256667,15.263
     -80.16142667,26.41255167,15.163
     -80.16141333,26.41253500,15.463
     -80.16140333,26.41251833,15.463
     -80.16139000,26.41249667,15.463
     -80.16138333,26.41247333,15.463
     -80.16137667,26.41244833,15.463
     -80.16137500,26.41242833,15.763
     -80.16137000,26.41240500,15.763
     -80.16135833,26.41238167,15.863
     -80.16134667,26.41235667,16.463
     -80.16133333,26.41233167,16.563
     -80.16132000,26.41230667,16.463
     -80.16130833,26.41228167,16.263
     -80.16130167,26.41226167,16.363
     -80.16129833,26.41224333,16.463
     -80.16129333,26.41222833,15.963
     -80.16128667,26.41219833,15.463
     -80.16127333,26.41217000,15.163
     -80.16126500,26.41214167,14.363
     -80.16125500,26.41211333,13.563
     -80.16124667,26.41208333,12.463
     -80.16123500,26.41205500,11.763
     -80.16122833,26.41202333,10.963
     -80.16122667,26.41199667,10.763
     -80.16122167,26.41197000,9.763
     -80.16121667,26.41193667,9.163
     -80.16121000,26.41190333,8.563
     -80.16120000,26.41186833,8.663
     -80.16119000,26.41183500,8.963
     -80.16118667,26.41180500,8.563
     -80.16117833,26.41177167,8.563
     -80.16117500,26.41173667,8.163
     -80.16117167,26.41170500,8.063
     -80.16117000,26.41167000,7.663
     -80.16116833,26.41163833,7.263
     -80.16116333,26.41160500,6.963
     -80.16115833,26.41157333,6.863
     -80.16116000,26.41153833,6.863
     -80.16115833,26.41150167,7.163
     -80.16115833,26.41146667,7.663
     -80.16115833,26.41143167,8.063
     -80.16115833,26.41140167,8.063
     -80.16116000,26.41136833,7.963
     -80.16116000,26.41134167,7.563
     -80.16116000,26.41131000,7.663
     -80.16115667,26.41127833,7.963
     -80.16115500,26.41124667,7.863
     -80.16115333,26.41121333,7.963
     -80.16115333,26.41118000,8.063
     -80.16115333,26.41114667,8.163
     -80.16115333,26.41111333,8.263
     -80.16115500,26.41108000,8.763
     -80.16115667,26.41104333,9.163
     -80.16115500,26.41100833,9.563
     -80.16115500,26.41097667,9.963
     -80.16115500,26.41094500,9.963
     -80.16115667,26.41091500,9.863
     -80.16115833,26.41088667,9.463
     -80.16116167,26.41085500,9.363
     -80.16116333,26.41082500,9.163
     -80.16116500,26.41079333,8.963
     -80.16117000,26.41076333,8.663
     -80.16117667,26.41073667,8.063
     -80.16117833,26.41071000,7.663
     -80.16118333,26.41068667,7.563
     -80.16118833,26.41066500,8.463
     -80.16119333,26.41064667,9.063
     -80.16120333,26.41064000,9.862
     -80.16121167,26.41063500,10.462
     -80.16121500,26.41063667,11.562
     -80.16121667,26.41063667,13.162
     -80.16121000,26.41063833,14.262
     -80.16121000,26.41063667,15.362
     -80.16121333,26.41063333,16.162
     -80.16121667,26.41063167,16.662
     -80.16121500,26.41062667,16.962
     -80.16121500,26.41062167,17.462
     -80.16121333,26.41061500,17.462
     -80.16121167,26.41061000,17.162
     -80.16120833,26.41060833,17.062
     -80.16120333,26.41060667,17.062
     -80.16120333,26.41060667,17.062
     -80.16120333,26.41060667,17.062
     -80.16120333,26.41060667,17.062
     -80.16120333,26.41060667,17.062
     -80.16120333,26.41060667,17.062
     -80.16120333,26.41060667,17.062
     -80.16120333,26.41060667,17.062
     -80.16120333,26.41060667,17.062
     -80.16120333,26.41060667,17.062
     -80.16120333,26.41060667,17.062
     -80.16120333,26.41060667,17.062
     -80.16120333,26.41060667,17.062
     -80.16120333,26.41060667,17.062
     -80.16120333,26.41060667,17.062
     -80.16120333,26.41060667,17.062
     -80.16120333,26.41060667,17.062
     -80.16120333,26.41060667,17.062
     -80.16120333,26.41060667,17.062
     -80.16120333,26.41060667,17.062
     -80.16120333,26.41060667,17.062
     -80.16120333,26.41060667,17.062
     -80.16120333,26.41060667,17.062
     -80.16120333,26.41060667,17.062
     -80.16120333,26.41060667,17.062
     -80.16120333,26.41060667,17.062
     -80.16120333,26.41060667,17.062
     -80.16120333,26.41060667,17.062
     -80.16120333,26.41060667,17.062
     -80.16120333,26.41060667,17.062
     -80.16120333,26.41060667,17.062
     -80.16120333,26.41060667,17.062
     -80.16116500,26.41056833,17.063
     -80.16115833,26.41056500,17.163
     -80.16114833,26.41056833,17.363
     -80.16113833,26.41057333,17.463
     -80.16112500,26.41057833,17.663
     -80.16111000,26.41058167,17.963
     -80.16109833,26.41058833,18.363
     -80.16108667,26.41059833,18.663
     -80.16108167,26.41060333,18.963
     -80.16107667,26.41061167,18.863
     -80.16107833,26.41062000,18.563
     -80.16107833,26.41063167,18.463
     -80.16108167,26.41064500,18.763
     -80.16108167,26.41065500,19.263
     -80.16108333,26.41066333,19.563
     -80.16108500,26.41066500,19.963
     -80.16108833,26.41066667,20.063
     -80.16108667,26.41067000,19.963
     -80.16108667,26.41067000,20.263
     -80.16108667,26.41067167,20.563
     -80.16108833,26.41067500,20.963
     -80.16109000,26.41067667,21.363
     -80.16109167,26.41068000,21.363
     -80.16109000,26.41068333,21.563
     -80.16109000,26.41068333,21.563
     -80.16109000,26.41068333,21.563
     -80.16109000,26.41068333,21.563
     -80.16109000,26.41068333,21.563
     -80.16109000,26.41068333,21.563
     -80.16109000,26.41068333,21.563
     -80.16109000,26.41068333,21.563
     -80.16109000,26.41068333,21.563
     -80.16109000,26.41068333,21.563
     -80.16109000,26.41068333,21.563
     -80.16109000,26.41068333,21.563
     -80.16109000,26.41068333,21.563
     -80.16109000,26.41068333,21.563
     -80.16109000,26.41068333,21.563
     -80.16109000,26.41068333,21.563
     -80.16109000,26.41068333,21.563
     -80.16109000,26.41068333,21.563
     -80.16109000,26.41068333,21.563
     -80.16109000,26.41068333,21.563
     -80.16109000,26.41068333,21.563
     -80.16109000,26.41068333,21.563
     -80.16109000,26.41068333,21.563
     -80.16109000,26.41068333,21.563
     -80.16109000,26.41068333,21.563
     -80.16109000,26.41068333,21.563
     -80.16109000,26.41068333,21.563
     -80.16109000,26.41068333,21.563
     -80.16109000,26.41068333,21.563
     -80.16109000,26.41068333,21.563
     -80.16109000,26.41068333,21.563
     -80.16109000,26.41068333,21.563
     -80.16109000,26.41068333,21.563
     -80.16109000,26.41068333,21.563
     -80.16109000,26.41068333,21.563
     -80.16109000,26.41068333,21.563
     -80.16109000,26.41068333,21.563
     -80.16109000,26.41068333,21.563
     -80.16109000,26.41068333,21.563
     -80.16109000,26.41068333,21.563
     -80.16109000,26.41068333,21.563
     -80.16109000,26.41068333,21.563
     -80.16109000,26.41068333,21.563
     -80.16109000,26.41068333,21.563
     -80.16109000,26.41068333,21.563
     -80.16109000,26.41068333,21.563
     -80.16109000,26.41068333,21.563
     -80.16109000,26.41068333,21.563
     -80.16109000,26.41068333,21.563
     -80.16109000,26.41068333,21.563
     -80.16109000,26.41068333,21.563
     -80.16109000,26.41068333,21.563
     -80.16109000,26.41068333,21.563
     -80.16109000,26.41068333,21.563
     -80.16109000,26.41068333,21.563
     -80.16109000,26.41068333,21.563
     -80.16109000,26.41068333,21.563
     -80.16109000,26.41068333,21.563
     -80.16109000,26.41068333,21.563
     -80.16109000,26.41068333,21.563
     -80.16109000,26.41068333,21.563
     -80.16109000,26.41068333,21.563
     -80.16109000,26.41068333,21.563
     -80.16109000,26.41068333,21.563
     -80.16109000,26.41068333,21.563
     -80.16109000,26.41068333,21.563
     -80.16109000,26.41068333,21.563
     -80.16109000,26.41068333,21.563
     -80.16109000,26.41068333,21.563
     -80.16109000,26.41068333,21.563
     -80.16109000,26.41068333,21.563
     -80.16109000,26.41068333,21.563
     -80.16109000,26.41068333,21.563
     -80.16109000,26.41068333,21.563
     -80.16109000,26.41068333,21.563
     -80.16109000,26.41068333,21.563
     -80.16109000,26.41068333,21.563
     -80.16109000,26.41068333,21.563
     -80.16109000,26.41068333,21.563
     -80.16109000,26.41068333,21.563
     -80.16109000,26.41068333,21.563
     -80.16109000,26.41068333,21.563
     -80.16109000,26.41068333,21.563
     -80.16109000,26.41068333,21.563
     -80.16109000,26.41068333,21.563
     -80.16109000,26.41068333,21.563
     -80.16109000,26.41068333,21.563
     -80.16109000,26.41068333,21.563
     -80.16109000,26.41068333,21.563
     -80.16109000,26.41068333,21.563
     -80.16109000,26.41068333,21.563
     -80.16109000,26.41068333,21.563
     -80.16109000,26.41068333,21.563
     -80.16109000,26.41068333,21.563
     -80.16109000,26.41068333,21.563
     -80.16109000,26.41068333,21.563
     -80.16109000,26.41068333,21.563
     -80.16109000,26.41068333,21.563
     -80.16109000,26.41068333,21.563
     -80.16109000,26.41068333,21.563
     -80.16109000,26.41068333,21.563
     -80.16109000,26.41068333,21.563
     -80.16109000,26.41068333,21.563
     -80.16109000,26.41068333,21.563
     -80.16109000,26.41068333,21.563
     -80.16109000,26.41068333,21.563
     -80.16109000,26.41068333,21.563
     -80.16109000,26.41068333,21.563
     -80.16109000,26.41068333,21.563
     -80.16109000,26.41068333,21.563
     -80.16109000,26.41068333,21.563
     -80.16109000,26.41068333,21.563
     -80.16109000,26.41068333,21.563
     -80.16109000,26.41068333,21.563
     -80.16109000,26.41068333,21.563
     -80.16109000,26.41068333,21.563
     -80.16109000,26.41068333,21.563
     -80.16109000,26.41068333,21.563
     -80.16109000,26.41068333,21.563
     -80.16109000,26.41068333,21.563
     -80.16109000,26.41068333,21.563
     -80.16109000,26.41068333,21.563
     -80.16109000,26.41068333,21.563
     -80.16109000,26.41068333,21.563
     -80.16109000,26.41068333,21.563
     -80.16109000,26.41068333,21.563
     -80.16109000,26.41068333,21.563
     -80.16109000,26.41068333,21.563
     -80.16109000,26.41068333,21.563
     -80.16109000,26.41068333,21.563
     -80.16109000,26.41068333,21.563
     -80.16109000,26.41068333,21.563
     -80.16109000,26.41068333,21.563
     -80.16109000,26.41068333,21.563
     -80.16109000,26.41068333,21.563
     -80.16109000,26.41068333,21.563
     -80.16109000,26.41068333,21.563
     -80.16109000,26.41068333,21.563
     -80.16109000,26.41068333,21.563
     -80.16109000,26.41068333,21.563
     -80.16109000,26.41068333,21.563
     -80.16109000,26.41068333,21.563
     -80.16109000,26.41068333,21.563
     -80.16109000,26.41068333,21.563
     -80.16109000,26.41068333,21.563
     -80.16109000,26.41068333,21.563
     -80.16109000,26.41068333,21.563
     -80.16109000,26.41068333,21.563
     -80.16109000,26.41068333,21.563
     -80.16109000,26.41068333,21.563
     -80.16109000,26.41068333,21.563
     -80.16109000,26.41068333,21.563
     -80.16109000,26.41068333,21.563
     -80.16109000,26.41068333,21.563
     -80.16109000,26.41068333,21.563
     -80.16109000,26.41068333,21.563
     -80.16109000,26.41068333,21.563
     -80.16109000,26.41068333,21.563
     -80.16109000,26.41068333,21.563
     -80.16109000,26.41068333,21.563
     -80.16109000,26.41068333,21.563
     -80.16109000,26.41068333,21.563
     -80.16109000,26.41068333,21.563
     -80.16109000,26.41068333,21.563
     -80.16109000,26.41068333,21.563
     -80.16109000,26.41068333,21.563
     -80.16109000,26.41068333,21.563
     -80.16109000,26.41068333,21.563
     -80.16109000,26.41068333,21.563
     -80.16109000,26.41068333,21.563
     -80.16109000,26.41068333,21.563
     -80.16109000,26.41068333,21.563
     -80.16109000,26.41068333,21.563
     -80.16109000,26.41068333,21.563
     -80.16109000,26.41068333,21.563
     -80.16109000,26.41068333,21.563
     -80.16109000,26.41068333,21.563
     -80.16109000,26.41068333,21.563
     -80.16109000,26.41068333,21.563
     -80.16109000,26.41068333,21.563
     -80.16109000,26.41068333,21.563
     -80.16109000,26.41068333,21.563
     -80.16109000,26.41068333,21.563
     -80.16109000,26.41068333,21.563
     -80.16109000,26.41068333,21.563
     -80.16109000,26.41068333,21.563
     -80.16109000,26.41068333,21.563
     -80.16109000,26.41068333,21.563
     -80.16109000,26.41068333,21.563
     -80.16109000,26.41068333,21.563
     -80.16109000,26.41068333,21.563
     -80.16109000,26.41068333,21.563
     -80.16109000,26.41068333,21.563
     -80.16109000,26.41068333,21.563
     -80.16109000,26.41068333,21.563
     -80.16109000,26.41068333,21.563
     -80.16109000,26.41068333,21.563
     -80.16109000,26.41068333,21.563
     -80.16109000,26.41068333,21.563
     -80.16109000,26.41068333,21.563
     -80.16109000,26.41068333,21.563
     -80.16109000,26.41068333,21.563
     -80.16109000,26.41068333,21.563
     -80.16109000,26.41068333,21.563
     -80.16109000,26.41068333,21.563
     -80.16109000,26.41068333,21.563
     -80.16109000,26.41068333,21.563
     -80.16109000,26.41068333,21.563
     -80.16109000,26.41068333,21.563
     -80.16109000,26.41068333,21.563
     -80.16109000,26.41068333,21.563
     -80.16109000,26.41068333,21.563
     -80.16109000,26.41068333,21.563
     -80.16109000,26.41068333,21.563
     -80.16109000,26.41068333,21.563
     -80.16109000,26.41068333,21.563
     -80.16109000,26.41068333,21.563
     -80.16109000,26.41068333,21.563
     -80.16109000,26.41068333,21.563
     -80.16109000,26.41068333,21.563
     -80.16109000,26.41068333,21.563
     -80.16109000,26.41068333,21.563
     -80.16109000,26.41068333,21.563
     -80.16109000,26.41068333,21.563
     -80.16109000,26.41068333,21.563
     -80.16109000,26.41068333,21.563
     -80.16109000,26.41068333,21.563
     -80.16109000,26.41068333,21.563
     -80.16109000,26.41068333,21.563
     -80.16109000,26.41068333,21.563
     -80.16109000,26.41068333,21.563
     -80.16109000,26.41068333,21.563
     -80.16109000,26.41068333,21.563
     -80.16109000,26.41068333,21.563
     -80.16109000,26.41068333,21.563
     -80.16109000,26.41068333,21.563
     -80.16109000,26.41068333,21.563
     -80.16109000,26.41068333,21.563
     -80.16109000,26.41068333,21.563
     -80.16109000,26.41068333,21.563
     -80.16109000,26.41068333,21.563
     -80.16109000,26.41068333,21.563
     -80.16109000,26.41068333,21.563
     -80.16109000,26.41068333,21.563
     -80.16109000,26.41068333,21.563
     -80.16109000,26.41068333,21.563
     -80.16109000,26.41068333,21.563
     -80.16109000,26.41068333,21.563
     -80.16109000,26.41068333,21.563
     -80.16109000,26.41068333,21.563
     -80.16109000,26.41068333,21.563
     -80.16109000,26.41068333,21.563
     -80.16109000,26.41068333,21.563
     -80.16109000,26.41068333,21.563
     -80.16109000,26.41068333,21.563
     -80.16109000,26.41068333,21.563
     -80.16109000,26.41068333,21.563
     -80.16109000,26.41068333,21.563
     -80.16109000,26.41068333,21.563
     -80.16109000,26.41068333,21.563
     -80.16109000,26.41068333,21.563
     -80.16109000,26.41068333,21.563
     -80.16109000,26.41068333,21.563
     -80.16109000,26.41068333,21.563
     -80.16109000,26.41068333,21.563
     -80.16109000,26.41068333,21.563
     -80.16109000,26.41068333,21.563
     -80.16109000,26.41068333,21.563
     -80.16109000,26.41068333,21.563
     -80.16109000,26.41068333,21.563
     -80.16109000,26.41068333,21.563
     -80.16109000,26.41068333,21.563
     -80.16109000,26.41068333,21.563
     -80.16109000,26.41068333,21.563
     -80.16109000,26.41068333,21.563
     -80.16109000,26.41068333,21.563
     -80.16109000,26.41068333,21.563
     -80.16109000,26.41068333,21.563
     -80.16109000,26.41068333,21.563
     -80.16109000,26.41068333,21.563
     -80.16109000,26.41068333,21.563
     -80.16109000,26.41068333,21.563
     -80.16109000,26.41068333,21.563
     -80.16109000,26.41068333,21.563
     -80.16109000,26.41068333,21.563
     -80.16109000,26.41068333,21.563
     -80.16109000,26.41068333,21.563
     -80.16109000,26.41068333,21.563
     -80.16109000,26.41068333,21.563
     -80.16109000,26.41068333,21.563
     -80.16109000,26.41068333,21.563
     -80.16109000,26.41068333,21.563
     -80.16109000,26.41068333,21.563
     -80.16109000,26.41068333,21.563
     -80.16109000,26.41068333,21.563
     -80.16109000,26.41068333,21.563
     -80.16109000,26.41068333,21.563
     -80.16109000,26.41068333,21.563
     -80.16109000,26.41068333,21.563
     -80.16109000,26.41068333,21.563
     -80.16109000,26.41068333,21.563
     -80.16109000,26.41068333,21.563
     -80.16109000,26.41068333,21.563
     -80.16109000,26.41068333,21.563
     -80.16109000,26.41068333,21.563
     -80.16109000,26.41068333,21.563
     -80.16109000,26.41068333,21.563
     -80.16109000,26.41068333,21.563
     -80.16109000,26.41068333,21.563
     -80.16109833,26.41065833,26.163
     -80.16109667,26.41065500,26.163
     -80.16109667,26.41065500,26.063
     -80.16109667,26.41065000,25.963
     -80.16109667,26.41065000,25.963
     -80.16109667,26.41065000,25.963
     -80.16109667,26.41065000,25.963
     -80.16109667,26.41065000,25.963
     -80.16109667,26.41065000,25.963
     -80.16109667,26.41065000,25.963
     -80.16109667,26.41065000,25.963
     -80.16109667,26.41065000,25.963
     -80.16109667,26.41065000,25.963
     -80.16109667,26.41065000,25.963
     -80.16109667,26.41065000,25.963
     -80.16109667,26.41065000,25.963
     -80.16109667,26.41065000,25.963
     -80.16109667,26.41065000,25.963
     -80.16109667,26.41065000,25.963
     -80.16109667,26.41065000,25.963
     -80.16109667,26.41065000,25.963
     -80.16109667,26.41065000,25.963
     -80.16109667,26.41065000,25.963
     -80.16109667,26.41065000,25.963
     -80.16109667,26.41065000,25.963
     -80.16109667,26.41065000,25.963
     -80.16109667,26.41065000,25.963
     -80.16109667,26.41065000,25.963
     -80.16109667,26.41065000,25.963
     -80.16109667,26.41065000,25.963
     -80.16109667,26.41065000,25.963
     -80.16109667,26.41065000,25.963
     -80.16109667,26.41065000,25.963
     -80.16109667,26.41065000,25.963
     -80.16109667,26.41065000,25.963
     -80.16109667,26.41065000,25.963
     -80.16109667,26.41065000,25.963
     -80.16109667,26.41065000,25.963
     -80.16109667,26.41065000,25.963
     -80.16109667,26.41065000,25.963
     -80.16109667,26.41065000,25.963
     -80.16109667,26.41065000,25.963
     -80.16109667,26.41065000,25.963
     -80.16109667,26.41065000,25.963
     -80.16109667,26.41065000,25.963
     -80.16109667,26.41065000,25.963
     -80.16109667,26.41065000,25.963
     -80.16109667,26.41065000,25.963
     -80.16109667,26.41065000,25.963
     -80.16109667,26.41065000,25.963
     -80.16109667,26.41065000,25.963
     -80.16109667,26.41065000,25.963
     -80.16109667,26.41065000,25.963
     -80.16109667,26.41065000,25.963
     -80.16109667,26.41065000,25.963
     -80.16109667,26.41065000,25.963
     -80.16109667,26.41065000,25.963
     -80.16109667,26.41065000,25.963
     -80.16109667,26.41065000,25.963
     -80.16109667,26.41065000,25.963
     -80.16109667,26.41065000,25.963
     -80.16109667,26.41065000,25.963
     -80.16109667,26.41065000,25.963
     -80.16109667,26.41065000,25.963
     -80.16109667,26.41065000,25.963
     -80.16109667,26.41065000,25.963
     -80.16109667,26.41065000,25.963
     -80.16109667,26.41065000,25.963
     -80.16109667,26.41065000,25.963
    </coordinates>
   </LineString>
  </Placemark>

 </Document>
</kml>
 