<?xml version="1.0" encoding="UTF-8"?>
<!-- Created with BasicAirData GPS Logger for Android - ver. 3.3.0 -->
<!-- Track 11 = 1115 TrackPoints + 10 Placemarks -->
<kml xmlns="http://www.opengis.net/kml/2.2">
 <Document>
  <name>GPS Logger 20260724-092018</name>
  <description><![CDATA[ST1-2
1115 Trackpoints + 10 Placemarks]]></description>
  <Style id="TrackStyle">
   <LineStyle>
    <color>ff0000ff</color>
    <width>3</width>
   </LineStyle>
   <PolyStyle>
    <color>7f0000ff</color>
   </PolyStyle>
   <BalloonStyle>
    <text><![CDATA[<p style="color:red;font-weight:bold">$[name]</p><p style="font-size:11px">$[description]</p><p style="font-size:7px">Track Stats based on: Total time | Time in Movement</p>]]></text>
   </BalloonStyle>
  </Style>
  <Style id="PlacemarkStyle">
   <IconStyle>
    <Icon><href>http://maps.google.com/mapfiles/kml/shapes/placemark_circle_highlight.png</href></Icon>
   </IconStyle>
  </Style>

  <Placemark id="1">
   <name>Site1</name>
   <styleUrl>#PlacemarkStyle</styleUrl>
   <Point>
    <altitudeMode>clampToGround</altitudeMode>
    <coordinates>-80.15470333,26.41330000,11.791</coordinates>
    <extrude>1</extrude>
   </Point>
  </Placemark>

  <Placemark id="2">
   <name>Int5</name>
   <styleUrl>#PlacemarkStyle</styleUrl>
   <Point>
    <altitudeMode>clampToGround</altitudeMode>
    <coordinates>-80.15513833,26.41318000,11.089</coordinates>
    <extrude>1</extrude>
   </Point>
  </Placemark>

  <Placemark id="3">
   <name>Int6</name>
   <styleUrl>#PlacemarkStyle</styleUrl>
   <Point>
    <altitudeMode>clampToGround</altitudeMode>
    <coordinates>-80.15790667,26.41601167,10.879</coordinates>
    <extrude>1</extrude>
   </Point>
  </Placemark>

  <Placemark id="4">
   <name>Int7</name>
   <styleUrl>#PlacemarkStyle</styleUrl>
   <Point>
    <altitudeMode>clampToGround</altitudeMode>
    <coordinates>-80.15915833,26.41955667,9.176</coordinates>
    <extrude>1</extrude>
   </Point>
  </Placemark>

  <Placemark id="5">
   <name>Int8</name>
   <styleUrl>#PlacemarkStyle</styleUrl>
   <Point>
    <altitudeMode>clampToGround</altitudeMode>
    <coordinates>-80.15858500,26.42011333,9.279</coordinates>
    <extrude>1</extrude>
   </Point>
  </Placemark>

  <Placemark id="6">
   <name>Int9</name>
   <styleUrl>#PlacemarkStyle</styleUrl>
   <Point>
    <altitudeMode>clampToGround</altitudeMode>
    <coordinates>-80.15964167,26.42250500,9.776</coordinates>
    <extrude>1</extrude>
   </Point>
  </Placemark>

  <Placemark id="7">
   <name>Int10</name>
   <styleUrl>#PlacemarkStyle</styleUrl>
   <Point>
    <altitudeMode>clampToGround</altitudeMode>
    <coordinates>-80.15846333,26.42271333,7.480</coordinates>
    <extrude>1</extrude>
   </Point>
  </Placemark>

  <Placemark id="8">
   <name>Int11</name>
   <styleUrl>#PlacemarkStyle</styleUrl>
   <Point>
    <altitudeMode>clampToGround</altitudeMode>
    <coordinates>-80.15656667,26.42294167,8.688</coordinates>
    <extrude>1</extrude>
   </Point>
  </Placemark>

  <Placemark id="9">
   <name>Int12</name>
   <styleUrl>#PlacemarkStyle</styleUrl>
   <Point>
    <altitudeMode>clampToGround</altitudeMode>
    <coordinates>-80.15328667,26.42271000,11.702</coordinates>
    <extrude>1</extrude>
   </Point>
  </Placemark>

  <Placemark id="10">
   <name>Station2</name>
   <styleUrl>#PlacemarkStyle</styleUrl>
   <Point>
    <altitudeMode>clampToGround</altitudeMode>
    <coordinates>-80.15282333,26.42371000,12.804</coordinates>
    <extrude>1</extrude>
   </Point>
  </Placemark>

  <Placemark id="20260724-092018">
   <name>Track 20260724-092018</name>
   <description><![CDATA[<b>ST1-2</b><br><br>Distance = 2.23 km<br>Duration = 18:34 | 14:00<br>Altitude Gap = 0 m<br>Max Speed = 8 mph<br>Avg Speed = 4.5 | 6.0 mph<br>Direction = N <br><br><i>1115 Trackpoints</i>]]></description>
   <styleUrl>#TrackStyle</styleUrl>
   <LineString>
    <extrude>0</extrude>
    <tessellate>0</tessellate>
    <altitudeMode>clampToGround</altitudeMode>
    <coordinates>
     -80.15469833,26.41330167,12.491
     -80.15470000,26.41330167,12.191
     -80.15470167,26.41330000,11.991
     -80.15470333,26.41330000,11.791
     -80.15470500,26.41330000,11.591
     -80.15470333,26.41330000,11.291
     -80.15470333,26.41330000,11.191
     -80.15470167,26.41330000,11.091
     -80.15470000,26.41330167,10.991
     -80.15469833,26.41330333,10.891
     -80.15469667,26.41330500,10.791
     -80.15469500,26.41330667,10.491
     -80.15469333,26.41330667,10.391
     -80.15469333,26.41330667,10.391
     -80.15469333,26.41330667,10.391
     -80.15469333,26.41330667,10.391
     -80.15469333,26.41330667,10.391
     -80.15469333,26.41330667,10.391
     -80.15469333,26.41330667,10.391
     -80.15469333,26.41330667,10.391
     -80.15469333,26.41330667,10.391
     -80.15469333,26.41330667,10.391
     -80.15469333,26.41330667,10.391
     -80.15469333,26.41330667,10.391
     -80.15469333,26.41330667,10.391
     -80.15469333,26.41330667,10.391
     -80.15469333,26.41330667,10.391
     -80.15469333,26.41330667,10.391
     -80.15469333,26.41330667,10.391
     -80.15469333,26.41330667,10.391
     -80.15469333,26.41330667,10.391
     -80.15469333,26.41330667,10.391
     -80.15469333,26.41330667,10.391
     -80.15469333,26.41330667,10.391
     -80.15469333,26.41330667,10.391
     -80.15469333,26.41330667,10.391
     -80.15469333,26.41330667,10.391
     -80.15469333,26.41330667,10.391
     -80.15469333,26.41330667,10.391
     -80.15469333,26.41330667,10.391
     -80.15469333,26.41330667,10.391
     -80.15469333,26.41330667,10.391
     -80.15469333,26.41330667,10.391
     -80.15469333,26.41330667,10.391
     -80.15469333,26.41330667,10.391
     -80.15469333,26.41330667,10.391
     -80.15469333,26.41330667,10.391
     -80.15469333,26.41330667,10.391
     -80.15469333,26.41330667,10.391
     -80.15469333,26.41330667,10.391
     -80.15469333,26.41330667,10.391
     -80.15469333,26.41330667,10.391
     -80.15469333,26.41330667,10.391
     -80.15469333,26.41330667,10.391
     -80.15469333,26.41330667,10.391
     -80.15469333,26.41330667,10.391
     -80.15469333,26.41330667,10.391
     -80.15469333,26.41330667,10.391
     -80.15469333,26.41330667,10.391
     -80.15469333,26.41330667,10.391
     -80.15469333,26.41330667,10.391
     -80.15469333,26.41330667,10.391
     -80.15469333,26.41330667,10.391
     -80.15469333,26.41330667,10.391
     -80.15469333,26.41330667,10.391
     -80.15469333,26.41330667,10.391
     -80.15469333,26.41330667,10.391
     -80.15469333,26.41330667,10.391
     -80.15469333,26.41330667,10.391
     -80.15469333,26.41330667,10.391
     -80.15469333,26.41330667,10.391
     -80.15469333,26.41330667,10.391
     -80.15469333,26.41330667,10.391
     -80.15469333,26.41330667,10.391
     -80.15469333,26.41330667,10.391
     -80.15469333,26.41330667,10.391
     -80.15469333,26.41330667,10.391
     -80.15469333,26.41330667,10.391
     -80.15469333,26.41330667,10.391
     -80.15469333,26.41330667,10.391
     -80.15469333,26.41330667,10.391
     -80.15469333,26.41330667,10.391
     -80.15469333,26.41330667,10.391
     -80.15469333,26.41330667,10.391
     -80.15469333,26.41330667,10.391
     -80.15469333,26.41330667,10.391
     -80.15469333,26.41330667,10.391
     -80.15469333,26.41330667,10.391
     -80.15469333,26.41330667,10.391
     -80.15469333,26.41330667,10.391
     -80.15469333,26.41330667,10.391
     -80.15469333,26.41330667,10.391
     -80.15469333,26.41330667,10.391
     -80.15469333,26.41330667,10.391
     -80.15469333,26.41330667,10.391
     -80.15469333,26.41330667,10.391
     -80.15469333,26.41330667,10.391
     -80.15469333,26.41330667,10.391
     -80.15469333,26.41330667,10.391
     -80.15469333,26.41330667,10.391
     -80.15469333,26.41330667,10.391
     -80.15469333,26.41330667,10.391
     -80.15469333,26.41330667,10.391
     -80.15469333,26.41330667,10.391
     -80.15469333,26.41330667,10.391
     -80.15469333,26.41330667,10.391
     -80.15469333,26.41330667,10.391
     -80.15469333,26.41330667,10.391
     -80.15469333,26.41330667,10.391
     -80.15469333,26.41330667,10.391
     -80.15469333,26.41330667,10.391
     -80.15470833,26.41329833,16.991
     -80.15470833,26.41329500,16.891
     -80.15470500,26.41329500,16.791
     -80.15470167,26.41329333,16.591
     -80.15470167,26.41329333,16.591
     -80.15470167,26.41329333,16.591
     -80.15470167,26.41329333,16.591
     -80.15470167,26.41329333,16.591
     -80.15470167,26.41329333,16.591
     -80.15470167,26.41329333,16.591
     -80.15470167,26.41329333,16.591
     -80.15470167,26.41329333,16.591
     -80.15470167,26.41329333,16.591
     -80.15470167,26.41329333,16.591
     -80.15470167,26.41329333,16.591
     -80.15468667,26.41330833,14.891
     -80.15469667,26.41330667,14.791
     -80.15470667,26.41330500,14.591
     -80.15472000,26.41329833,14.391
     -80.15473167,26.41329500,14.091
     -80.15474333,26.41328667,13.591
     -80.15475333,26.41327833,13.291
     -80.15475833,26.41326833,12.991
     -80.15476000,26.41326167,12.491
     -80.15475667,26.41325333,12.191
     -80.15475167,26.41324667,11.991
     -80.15475333,26.41324167,11.991
     -80.15475167,26.41323667,11.991
     -80.15474833,26.41322667,11.791
     -80.15474833,26.41322000,11.491
     -80.15475000,26.41321000,11.491
     -80.15475333,26.41320333,11.290
     -80.15475833,26.41319833,11.190
     -80.15476167,26.41319667,10.990
     -80.15476167,26.41319500,10.590
     -80.15476333,26.41319500,10.590
     -80.15476000,26.41319500,10.590
     -80.15476000,26.41319500,10.490
     -80.15476833,26.41319167,10.590
     -80.15478500,26.41318833,10.690
     -80.15480500,26.41318667,10.590
     -80.15482667,26.41318667,10.490
     -80.15484667,26.41318500,10.390
     -80.15486667,26.41318500,10.190
     -80.15489167,26.41318667,10.290
     -80.15491833,26.41318500,9.990
     -80.15494167,26.41318333,9.890
     -80.15496333,26.41318500,9.690
     -80.15498667,26.41318833,9.790
     -80.15501167,26.41318667,10.089
     -80.15503333,26.41318500,10.589
     -80.15505167,26.41318333,11.289
     -80.15506833,26.41318000,11.489
     -80.15508333,26.41318000,11.489
     -80.15509500,26.41317833,11.589
     -80.15511333,26.41318000,11.489
     -80.15512667,26.41318000,11.389
     -80.15513833,26.41318000,11.089
     -80.15514667,26.41318167,10.989
     -80.15514833,26.41318333,10.589
     -80.15514333,26.41318333,10.389
     -80.15514000,26.41318000,10.489
     -80.15513500,26.41317833,10.389
     -80.15513333,26.41318000,10.189
     -80.15513000,26.41318167,10.189
     -80.15512500,26.41318500,10.289
     -80.15513500,26.41318833,10.189
     -80.15514500,26.41319167,9.889
     -80.15515833,26.41320000,9.589
     -80.15517333,26.41321333,9.089
     -80.15519167,26.41322667,8.989
     -80.15520667,26.41324167,8.889
     -80.15521500,26.41326333,9.089
     -80.15522000,26.41328667,9.589
     -80.15522333,26.41330667,9.989
     -80.15522333,26.41333000,10.189
     -80.15522500,26.41335167,10.389
     -80.15522667,26.41337333,10.589
     -80.15523167,26.41338833,10.489
     -80.15523667,26.41341167,10.789
     -80.15523500,26.41343500,10.689
     -80.15523000,26.41345000,10.389
     -80.15523333,26.41346833,10.089
     -80.15524000,26.41349167,9.889
     -80.15524667,26.41351500,9.889
     -80.15525167,26.41353667,9.389
     -80.15525833,26.41356000,8.889
     -80.15526167,26.41358000,8.889
     -80.15526500,26.41360167,9.289
     -80.15526667,26.41362500,9.089
     -80.15527333,26.41364667,9.089
     -80.15528000,26.41367000,9.189
     -80.15528833,26.41370000,8.889
     -80.15529833,26.41373000,8.089
     -80.15531333,26.41375833,7.988
     -80.15532333,26.41378167,7.988
     -80.15534167,26.41381500,7.488
     -80.15535833,26.41384333,6.688
     -80.15537667,26.41386667,6.788
     -80.15539833,26.41389167,6.788
     -80.15541500,26.41391500,6.488
     -80.15543833,26.41394167,6.088
     -80.15546667,26.41396000,6.088
     -80.15548833,26.41398167,5.688
     -80.15551000,26.41400000,5.488
     -80.15552833,26.41401500,6.088
     -80.15554833,26.41403500,5.788
     -80.15557333,26.41405500,5.388
     -80.15559667,26.41407667,5.488
     -80.15562167,26.41409667,5.487
     -80.15564667,26.41411167,5.187
     -80.15567167,26.41412833,4.887
     -80.15569500,26.41414333,4.787
     -80.15571833,26.41416167,4.687
     -80.15574167,26.41418167,4.787
     -80.15576333,26.41420000,3.887
     -80.15578167,26.41422000,3.187
     -80.15580000,26.41424333,2.687
     -80.15582000,26.41426833,2.487
     -80.15583833,26.41429167,2.387
     -80.15585667,26.41431833,2.687
     -80.15587333,26.41434167,2.287
     -80.15589500,26.41436833,2.486
     -80.15591667,26.41439333,2.286
     -80.15593167,26.41441833,2.186
     -80.15594333,26.41444333,2.386
     -80.15596167,26.41447667,4.086
     -80.15597333,26.41450333,5.386
     -80.15598167,26.41453000,5.286
     -80.15599167,26.41455667,4.986
     -80.15600500,26.41458333,4.686
     -80.15601333,26.41461167,4.386
     -80.15601667,26.41464000,4.186
     -80.15601500,26.41467333,4.186
     -80.15601500,26.41470333,4.386
     -80.15601167,26.41473500,4.786
     -80.15600833,26.41476333,5.086
     -80.15600333,26.41478667,4.286
     -80.15600000,26.41481833,4.286
     -80.15599333,26.41485167,4.886
     -80.15598667,26.41488667,5.186
     -80.15598333,26.41491167,5.286
     -80.15597833,26.41494000,4.886
     -80.15597167,26.41497167,5.586
     -80.15596833,26.41500167,5.686
     -80.15596333,26.41503000,5.887
     -80.15595833,26.41506167,5.787
     -80.15595333,26.41509333,5.787
     -80.15594333,26.41512500,5.987
     -80.15593833,26.41515667,6.087
     -80.15593167,26.41518833,6.187
     -80.15592500,26.41522000,6.187
     -80.15591833,26.41525333,6.287
     -80.15591167,26.41528000,6.187
     -80.15590500,26.41530667,6.087
     -80.15590000,26.41533667,5.987
     -80.15589333,26.41536667,5.787
     -80.15588667,26.41539667,5.687
     -80.15588167,26.41543000,5.687
     -80.15587500,26.41546000,6.087
     -80.15587000,26.41549167,6.287
     -80.15586667,26.41552167,6.187
     -80.15586333,26.41555000,5.987
     -80.15586500,26.41557500,5.787
     -80.15586333,26.41560667,6.987
     -80.15586667,26.41563667,6.987
     -80.15587333,26.41566333,6.887
     -80.15588333,26.41569333,6.987
     -80.15589333,26.41571833,6.687
     -80.15590833,26.41575000,6.487
     -80.15592167,26.41577833,6.587
     -80.15593833,26.41580333,6.687
     -80.15595833,26.41582833,6.687
     -80.15597667,26.41584667,6.787
     -80.15599667,26.41586833,6.687
     -80.15602500,26.41589500,6.287
     -80.15604833,26.41592000,5.687
     -80.15607333,26.41594333,5.887
     -80.15610167,26.41596667,6.086
     -80.15613000,26.41598833,6.386
     -80.15616167,26.41600667,6.886
     -80.15619333,26.41602000,6.986
     -80.15622667,26.41603333,6.986
     -80.15626000,26.41604000,6.986
     -80.15629667,26.41604833,6.586
     -80.15633333,26.41605333,6.886
     -80.15636833,26.41605333,7.185
     -80.15640167,26.41605500,6.985
     -80.15644000,26.41605000,7.085
     -80.15647333,26.41604833,7.185
     -80.15650500,26.41604167,6.885
     -80.15653667,26.41604167,6.185
     -80.15656333,26.41604000,5.885
     -80.15659500,26.41603333,5.384
     -80.15663667,26.41602667,5.384
     -80.15667333,26.41601500,5.484
     -80.15670833,26.41600500,5.484
     -80.15674500,26.41599333,5.484
     -80.15677833,26.41598167,5.484
     -80.15681167,26.41597167,5.484
     -80.15684500,26.41596167,5.083
     -80.15687833,26.41595167,5.283
     -80.15691167,26.41594000,5.083
     -80.15694667,26.41592833,4.783
     -80.15697833,26.41592333,4.683
     -80.15701167,26.41591667,4.783
     -80.15704500,26.41591000,4.583
     -80.15707833,26.41590500,4.382
     -80.15711000,26.41589667,4.082
     -80.15714333,26.41589000,4.082
     -80.15718000,26.41588333,4.082
     -80.15721500,26.41587167,4.582
     -80.15725000,26.41586500,4.682
     -80.15728833,26.41586000,4.182
     -80.15732667,26.41585833,3.381
     -80.15736167,26.41585667,2.781
     -80.15739833,26.41585833,2.981
     -80.15743167,26.41586000,3.181
     -80.15746667,26.41586167,3.481
     -80.15750167,26.41586667,4.681
     -80.15753667,26.41587000,5.181
     -80.15757333,26.41587500,6.080
     -80.15760833,26.41588167,6.580
     -80.15764167,26.41588833,6.680
     -80.15767500,26.41589667,6.880
     -80.15770833,26.41590500,6.980
     -80.15773667,26.41591667,7.480
     -80.15776333,26.41592667,7.880
     -80.15778667,26.41593667,8.580
     -80.15781000,26.41595500,8.979
     -80.15782833,26.41597000,9.979
     -80.15784333,26.41598000,10.079
     -80.15785833,26.41598500,10.079
     -80.15787500,26.41598833,10.079
     -80.15788500,26.41599500,10.179
     -80.15789333,26.41600167,10.479
     -80.15789833,26.41600333,10.479
     -80.15790333,26.41600667,10.679
     -80.15790667,26.41601167,10.879
     -80.15790833,26.41601500,10.979
     -80.15791167,26.41602000,10.979
     -80.15791500,26.41601833,11.079
     -80.15791167,26.41602167,11.179
     -80.15791167,26.41602167,11.379
     -80.15791333,26.41602167,11.479
     -80.15791833,26.41602000,11.779
     -80.15791833,26.41602000,11.779
     -80.15791833,26.41602000,11.779
     -80.15791833,26.41602000,11.779
     -80.15791833,26.41602000,11.779
     -80.15791833,26.41602000,11.779
     -80.15791833,26.41602000,11.779
     -80.15791833,26.41602000,11.779
     -80.15795833,26.41604333,13.079
     -80.15796000,26.41605667,13.379
     -80.15795500,26.41607333,13.679
     -80.15794500,26.41609000,13.779
     -80.15793000,26.41610667,14.179
     -80.15791500,26.41612333,14.479
     -80.15790667,26.41614500,14.679
     -80.15789500,26.41616833,14.779
     -80.15788667,26.41619000,15.179
     -80.15787667,26.41621667,15.979
     -80.15786333,26.41624167,16.279
     -80.15784667,26.41626833,15.579
     -80.15783000,26.41629333,14.980
     -80.15780667,26.41631000,14.880
     -80.15778833,26.41632833,14.180
     -80.15777500,26.41634667,13.780
     -80.15776500,26.41636667,12.880
     -80.15775667,26.41638500,12.180
     -80.15774833,26.41640667,11.480
     -80.15773667,26.41643000,10.780
     -80.15772667,26.41646167,9.980
     -80.15771667,26.41648833,9.080
     -80.15770500,26.41651667,9.480
     -80.15769667,26.41654167,8.980
     -80.15769167,26.41656333,8.480
     -80.15769167,26.41658167,8.080
     -80.15768667,26.41660833,7.680
     -80.15767833,26.41663500,7.380
     -80.15767000,26.41666167,7.180
     -80.15766500,26.41669000,6.780
     -80.15766000,26.41671833,6.480
     -80.15765167,26.41675000,5.881
     -80.15764667,26.41677833,5.881
     -80.15764000,26.41680833,5.781
     -80.15763333,26.41683833,5.681
     -80.15762833,26.41686833,5.581
     -80.15762833,26.41690000,5.681
     -80.15762667,26.41693000,5.881
     -80.15762833,26.41696000,5.881
     -80.15763000,26.41699000,6.281
     -80.15763000,26.41701667,6.481
     -80.15762833,26.41704500,6.281
     -80.15762500,26.41707333,6.281
     -80.15762500,26.41710167,6.381
     -80.15762167,26.41712667,6.081
     -80.15761833,26.41715500,5.581
     -80.15762667,26.41719167,6.581
     -80.15762833,26.41722000,6.381
     -80.15763500,26.41725000,6.481
     -80.15764167,26.41727833,6.681
     -80.15764667,26.41730667,6.581
     -80.15765333,26.41733333,6.581
     -80.15765667,26.41735833,6.181
     -80.15766333,26.41738500,5.881
     -80.15767000,26.41741167,5.581
     -80.15767500,26.41743833,5.581
     -80.15768000,26.41746500,5.181
     -80.15768833,26.41749167,4.681
     -80.15770000,26.41752167,5.381
     -80.15770833,26.41754833,5.381
     -80.15771667,26.41757500,6.081
     -80.15772333,26.41760333,6.081
     -80.15773167,26.41763000,5.881
     -80.15774500,26.41765833,6.381
     -80.15776000,26.41768667,6.581
     -80.15777333,26.41771667,6.781
     -80.15778500,26.41774667,6.981
     -80.15780000,26.41777500,7.280
     -80.15781333,26.41780167,7.480
     -80.15782500,26.41782833,7.280
     -80.15783833,26.41785333,7.380
     -80.15785333,26.41788000,7.480
     -80.15786667,26.41790667,7.580
     -80.15788167,26.41793167,7.180
     -80.15789833,26.41795833,6.980
     -80.15791167,26.41798167,5.980
     -80.15792333,26.41800333,5.580
     -80.15794500,26.41802833,5.480
     -80.15796500,26.41805000,5.580
     -80.15798167,26.41807167,5.280
     -80.15799833,26.41809500,5.080
     -80.15801667,26.41812000,4.980
     -80.15803333,26.41814667,4.680
     -80.15805167,26.41817167,3.780
     -80.15807167,26.41819500,3.880
     -80.15809000,26.41822000,3.880
     -80.15811000,26.41824167,3.579
     -80.15812833,26.41826500,3.679
     -80.15814667,26.41828833,3.579
     -80.15816500,26.41831500,3.379
     -80.15818500,26.41834000,3.579
     -80.15820500,26.41836833,4.279
     -80.15822500,26.41839500,4.579
     -80.15824000,26.41841667,4.579
     -80.15825667,26.41843667,4.579
     -80.15827500,26.41846167,4.479
     -80.15829333,26.41849000,4.079
     -80.15831500,26.41851500,4.179
     -80.15833667,26.41854167,4.279
     -80.15836000,26.41856833,4.579
     -80.15837833,26.41859167,4.179
     -80.15839667,26.41861500,4.078
     -80.15841667,26.41864000,3.678
     -80.15843500,26.41866167,3.478
     -80.15845000,26.41868333,3.278
     -80.15846667,26.41870500,2.878
     -80.15848667,26.41872833,2.878
     -80.15850333,26.41875167,2.578
     -80.15852500,26.41878167,2.778
     -80.15854500,26.41880833,2.878
     -80.15856667,26.41883667,2.978
     -80.15859000,26.41886333,3.078
     -80.15861167,26.41889000,3.178
     -80.15863167,26.41891667,3.278
     -80.15865333,26.41894500,3.878
     -80.15866833,26.41896667,4.178
     -80.15868333,26.41899000,4.278
     -80.15870333,26.41901667,4.377
     -80.15872167,26.41904500,4.377
     -80.15874333,26.41907333,4.477
     -80.15876333,26.41909833,4.277
     -80.15878000,26.41912000,4.677
     -80.15880000,26.41914500,4.977
     -80.15882000,26.41917000,5.077
     -80.15884000,26.41919167,4.877
     -80.15885833,26.41921500,4.877
     -80.15887667,26.41923500,4.677
     -80.15889333,26.41926167,4.877
     -80.15890833,26.41928167,4.677
     -80.15892833,26.41930500,4.977
     -80.15894667,26.41932667,4.977
     -80.15896500,26.41935000,5.277
     -80.15898667,26.41937500,5.776
     -80.15900500,26.41939667,5.776
     -80.15902500,26.41941667,6.376
     -80.15903500,26.41942833,6.576
     -80.15905333,26.41944833,6.676
     -80.15906833,26.41946500,6.676
     -80.15908667,26.41948500,6.776
     -80.15910333,26.41950167,6.976
     -80.15912000,26.41951500,7.476
     -80.15913333,26.41952333,7.476
     -80.15914333,26.41953333,7.876
     -80.15915333,26.41954333,8.376
     -80.15915833,26.41955000,8.676
     -80.15916000,26.41955667,8.876
     -80.15915833,26.41955667,9.176
     -80.15915833,26.41955667,9.376
     -80.15915667,26.41955333,9.676
     -80.15915667,26.41955167,9.976
     -80.15915333,26.41955000,10.276
     -80.15915167,26.41954667,10.676
     -80.15915000,26.41954500,10.876
     -80.15915000,26.41954500,11.076
     -80.15915000,26.41954500,11.076
     -80.15916000,26.41956333,10.976
     -80.15916000,26.41958500,10.676
     -80.15915667,26.41960167,10.476
     -80.15915000,26.41962500,10.576
     -80.15914000,26.41964667,11.176
     -80.15912333,26.41967000,11.376
     -80.15910667,26.41968833,11.776
     -80.15908833,26.41970833,12.376
     -80.15906833,26.41972333,12.376
     -80.15904333,26.41974333,11.876
     -80.15902333,26.41976167,12.077
     -80.15900167,26.41978000,12.377
     -80.15897833,26.41979500,12.377
     -80.15895333,26.41981167,11.977
     -80.15893167,26.41983667,11.977
     -80.15891167,26.41986000,11.677
     -80.15888833,26.41988000,11.477
     -80.15886500,26.41990000,11.177
     -80.15884167,26.41992167,10.677
     -80.15881833,26.41994167,9.977
     -80.15879333,26.41996167,9.278
     -80.15876667,26.41998167,8.678
     -80.15874333,26.42000000,8.578
     -80.15871667,26.42001667,8.278
     -80.15869000,26.42003000,7.878
     -80.15866833,26.42004333,7.878
     -80.15865333,26.42005333,8.578
     -80.15863333,26.42006333,8.478
     -80.15861833,26.42007833,8.778
     -80.15860333,26.42009000,8.978
     -80.15859500,26.42010000,9.178
     -80.15859000,26.42011000,9.379
     -80.15858333,26.42011667,9.179
     -80.15858500,26.42011333,9.279
     -80.15858333,26.42011000,9.279
     -80.15858500,26.42010833,9.179
     -80.15858333,26.42010667,9.079
     -80.15858167,26.42010667,9.079
     -80.15858167,26.42010333,8.879
     -80.15858333,26.42010167,8.679
     -80.15858333,26.42010167,8.379
     -80.15858333,26.42010500,8.079
     -80.15858000,26.42011000,7.879
     -80.15857667,26.42012000,7.779
     -80.15857000,26.42013333,7.779
     -80.15857167,26.42015333,8.179
     -80.15857833,26.42017000,8.679
     -80.15859167,26.42019000,8.179
     -80.15860667,26.42020833,8.679
     -80.15862167,26.42022833,9.278
     -80.15863500,26.42025000,9.878
     -80.15865333,26.42027167,10.378
     -80.15867000,26.42029333,10.478
     -80.15868667,26.42031833,10.478
     -80.15870333,26.42034167,10.778
     -80.15871833,26.42036333,10.878
     -80.15873833,26.42038167,11.578
     -80.15875500,26.42040667,12.078
     -80.15877167,26.42042833,11.978
     -80.15879333,26.42044833,12.078
     -80.15881167,26.42047000,12.478
     -80.15882833,26.42049000,12.678
     -80.15884500,26.42051333,12.678
     -80.15885500,26.42053167,12.478
     -80.15887333,26.42055667,12.578
     -80.15889500,26.42058333,12.078
     -80.15891333,26.42061167,11.877
     -80.15892833,26.42063333,11.077
     -80.15894333,26.42065500,10.277
     -80.15895667,26.42067833,9.777
     -80.15897500,26.42070000,9.377
     -80.15899500,26.42072167,8.677
     -80.15901333,26.42074500,8.477
     -80.15903500,26.42076833,7.977
     -80.15905667,26.42078667,7.277
     -80.15907833,26.42080833,6.877
     -80.15909833,26.42083167,6.877
     -80.15912000,26.42085333,6.777
     -80.15913833,26.42087667,6.777
     -80.15916000,26.42090000,6.377
     -80.15918333,26.42092500,6.077
     -80.15920667,26.42094667,6.176
     -80.15922833,26.42097000,5.576
     -80.15925167,26.42099000,5.676
     -80.15927500,26.42101333,5.676
     -80.15930000,26.42103667,5.676
     -80.15932333,26.42106000,5.276
     -80.15934833,26.42108333,5.276
     -80.15937167,26.42110500,4.976
     -80.15939500,26.42112667,4.676
     -80.15941833,26.42114833,5.376
     -80.15944167,26.42117000,5.576
     -80.15946500,26.42119167,5.776
     -80.15949000,26.42121333,6.075
     -80.15951833,26.42123833,6.875
     -80.15953667,26.42126000,6.975
     -80.15955667,26.42128667,7.375
     -80.15957667,26.42131167,7.575
     -80.15960000,26.42133833,8.075
     -80.15962167,26.42137000,9.075
     -80.15964000,26.42140000,9.275
     -80.15965833,26.42142833,9.175
     -80.15967500,26.42145500,8.875
     -80.15969000,26.42148167,8.475
     -80.15970833,26.42150833,7.475
     -80.15972833,26.42153500,7.775
     -80.15974333,26.42156333,6.575
     -80.15975833,26.42159333,6.475
     -80.15977167,26.42162333,5.475
     -80.15978333,26.42165500,5.174
     -80.15980000,26.42168333,5.374
     -80.15981333,26.42171000,5.374
     -80.15982833,26.42174333,5.974
     -80.15984167,26.42177500,6.374
     -80.15985333,26.42180333,6.674
     -80.15985833,26.42183500,5.574
     -80.15986500,26.42186500,5.174
     -80.15987167,26.42189667,5.774
     -80.15987833,26.42192667,6.174
     -80.15988333,26.42195667,6.474
     -80.15988667,26.42198500,6.674
     -80.15988667,26.42201500,7.274
     -80.15988500,26.42204667,7.574
     -80.15988333,26.42207833,7.674
     -80.15987333,26.42211000,7.574
     -80.15986167,26.42214167,7.674
     -80.15985500,26.42217500,7.274
     -80.15984500,26.42220667,6.775
     -80.15983667,26.42223667,6.775
     -80.15982500,26.42226500,6.575
     -80.15981000,26.42229500,5.775
     -80.15979333,26.42232500,5.475
     -80.15977833,26.42235167,5.575
     -80.15975667,26.42238167,5.575
     -80.15974000,26.42240667,5.775
     -80.15972000,26.42242833,6.275
     -80.15970333,26.42245000,6.475
     -80.15968167,26.42247167,8.475
     -80.15966500,26.42249000,9.375
     -80.15965333,26.42249833,9.875
     -80.15964167,26.42250500,9.776
     -80.15964000,26.42250833,9.576
     -80.15964333,26.42250833,9.276
     -80.15964333,26.42251167,8.976
     -80.15964667,26.42251500,8.676
     -80.15964833,26.42251500,8.476
     -80.15965000,26.42251667,8.475
     -80.15965000,26.42251833,8.675
     -80.15964833,26.42251833,8.876
     -80.15964500,26.42252167,9.176
     -80.15962333,26.42253833,9.476
     -80.15960167,26.42256000,9.776
     -80.15957667,26.42257833,9.876
     -80.15955667,26.42259667,9.576
     -80.15953333,26.42261500,9.576
     -80.15950333,26.42263167,9.276
     -80.15947500,26.42264833,9.276
     -80.15944500,26.42266500,9.276
     -80.15941000,26.42267833,8.777
     -80.15937333,26.42268833,8.577
     -80.15933833,26.42269667,8.177
     -80.15930667,26.42270500,8.277
     -80.15927333,26.42271333,8.377
     -80.15923667,26.42271833,8.277
     -80.15920500,26.42272333,7.677
     -80.15917333,26.42272500,7.678
     -80.15914000,26.42272667,7.178
     -80.15910500,26.42272833,7.378
     -80.15906833,26.42272667,7.278
     -80.15903500,26.42272500,7.278
     -80.15900000,26.42272167,7.478
     -80.15896167,26.42271833,7.578
     -80.15892333,26.42271667,7.279
     -80.15888667,26.42271667,7.279
     -80.15885333,26.42271667,7.479
     -80.15881833,26.42271500,7.579
     -80.15878333,26.42271167,7.779
     -80.15874833,26.42271000,8.179
     -80.15871333,26.42271000,8.579
     -80.15867833,26.42270833,8.780
     -80.15864333,26.42270667,8.880
     -80.15861000,26.42270667,8.880
     -80.15858500,26.42270667,8.680
     -80.15855833,26.42270667,8.380
     -80.15853333,26.42271333,8.580
     -80.15851000,26.42271167,8.480
     -80.15849000,26.42271167,8.280
     -80.15847500,26.42271333,7.680
     -80.15846333,26.42271333,7.480
     -80.15846000,26.42271167,7.481
     -80.15845667,26.42271000,7.681
     -80.15845333,26.42270833,8.181
     -80.15845167,26.42270667,8.381
     -80.15845167,26.42270500,8.581
     -80.15845333,26.42270333,8.681
     -80.15845333,26.42270333,8.781
     -80.15845500,26.42270333,9.081
     -80.15845667,26.42270167,9.481
     -80.15844000,26.42270167,9.581
     -80.15841833,26.42270333,9.481
     -80.15839333,26.42270333,9.181
     -80.15836333,26.42270667,8.881
     -80.15833333,26.42270667,9.181
     -80.15830167,26.42271500,9.581
     -80.15827000,26.42271667,9.881
     -80.15823667,26.42272000,9.681
     -80.15820333,26.42272167,9.382
     -80.15817000,26.42272500,9.082
     -80.15813667,26.42272667,8.582
     -80.15810667,26.42272833,8.082
     -80.15807500,26.42273000,7.682
     -80.15804500,26.42273167,7.982
     -80.15801333,26.42273500,8.382
     -80.15797167,26.42273500,9.283
     -80.15793667,26.42274000,8.883
     -80.15790333,26.42274500,8.383
     -80.15786833,26.42274833,8.283
     -80.15783333,26.42275167,8.383
     -80.15780000,26.42275500,8.583
     -80.15776833,26.42276167,8.083
     -80.15773500,26.42276667,8.184
     -80.15770167,26.42277333,7.884
     -80.15766833,26.42277833,8.084
     -80.15763500,26.42278333,7.584
     -80.15760167,26.42278833,7.884
     -80.15757000,26.42279500,7.284
     -80.15753667,26.42280000,7.184
     -80.15750667,26.42280667,6.984
     -80.15747500,26.42281167,6.385
     -80.15744500,26.42281500,5.885
     -80.15741500,26.42282167,5.985
     -80.15738167,26.42282667,6.185
     -80.15735000,26.42283167,6.385
     -80.15731667,26.42283667,6.685
     -80.15728333,26.42284167,6.685
     -80.15725000,26.42284833,7.086
     -80.15721833,26.42285667,7.286
     -80.15718500,26.42286000,7.086
     -80.15715333,26.42286667,7.386
     -80.15712000,26.42287333,7.386
     -80.15708667,26.42288000,6.986
     -80.15705167,26.42288667,6.986
     -80.15701500,26.42289167,7.287
     -80.15697833,26.42289333,7.687
     -80.15694333,26.42289667,7.887
     -80.15690667,26.42290000,8.187
     -80.15687000,26.42290500,8.487
     -80.15683500,26.42290833,8.687
     -80.15680000,26.42291167,8.787
     -80.15676500,26.42291500,8.288
     -80.15673167,26.42291667,7.788
     -80.15670167,26.42292167,7.388
     -80.15667000,26.42292333,7.688
     -80.15664167,26.42292500,7.888
     -80.15661333,26.42292833,8.188
     -80.15658833,26.42293500,7.488
     -80.15656667,26.42294167,8.688
     -80.15655167,26.42294000,8.988
     -80.15654500,26.42293833,9.389
     -80.15654500,26.42293833,9.689
     -80.15654333,26.42294000,9.789
     -80.15654500,26.42294167,9.789
     -80.15654667,26.42294167,9.889
     -80.15654500,26.42294000,9.889
     -80.15653333,26.42293667,9.689
     -80.15650500,26.42293500,9.589
     -80.15646833,26.42293667,9.289
     -80.15643000,26.42293833,9.189
     -80.15639667,26.42294000,9.089
     -80.15636333,26.42294333,8.989
     -80.15632667,26.42294500,8.789
     -80.15629167,26.42294667,8.490
     -80.15625667,26.42295000,8.090
     -80.15622167,26.42295000,7.590
     -80.15618833,26.42295000,7.290
     -80.15615333,26.42294833,6.790
     -80.15612167,26.42294667,6.290
     -80.15608833,26.42294333,5.590
     -80.15605333,26.42294167,5.391
     -80.15602333,26.42294000,5.191
     -80.15599167,26.42294167,5.091
     -80.15595500,26.42294333,5.791
     -80.15591667,26.42293833,5.691
     -80.15588000,26.42293333,6.091
     -80.15584333,26.42292833,6.091
     -80.15580833,26.42292333,6.692
     -80.15577167,26.42291833,7.092
     -80.15573333,26.42291500,7.492
     -80.15569833,26.42291167,7.792
     -80.15566000,26.42290833,8.192
     -80.15562333,26.42290000,8.292
     -80.15559167,26.42289833,8.292
     -80.15555667,26.42289667,8.393
     -80.15552167,26.42288833,8.293
     -80.15548500,26.42288333,8.493
     -80.15545000,26.42288167,8.593
     -80.15541333,26.42287833,8.793
     -80.15537833,26.42287167,8.093
     -80.15534333,26.42286500,8.393
     -80.15530667,26.42285833,8.494
     -80.15526833,26.42285000,8.694
     -80.15523000,26.42284333,8.594
     -80.15519833,26.42284333,8.794
     -80.15516500,26.42283833,8.794
     -80.15513167,26.42283667,8.294
     -80.15509667,26.42282833,7.794
     -80.15506167,26.42282333,7.495
     -80.15502667,26.42282000,7.595
     -80.15499500,26.42281500,7.195
     -80.15496167,26.42281000,6.895
     -80.15492833,26.42280500,6.995
     -80.15489667,26.42280000,6.995
     -80.15486333,26.42279833,7.095
     -80.15483000,26.42279333,7.195
     -80.15479500,26.42278833,6.296
     -80.15476000,26.42278333,5.396
     -80.15472667,26.42277833,5.696
     -80.15469167,26.42277500,5.996
     -80.15465833,26.42277500,6.396
     -80.15462500,26.42277000,6.396
     -80.15459167,26.42276833,6.696
     -80.15455667,26.42276833,7.097
     -80.15452167,26.42276500,7.397
     -80.15448667,26.42276333,7.897
     -80.15444833,26.42275833,8.097
     -80.15441000,26.42275167,7.897
     -80.15437500,26.42274667,8.197
     -80.15433667,26.42274167,8.397
     -80.15430000,26.42273833,7.598
     -80.15426333,26.42273500,6.498
     -80.15422667,26.42273333,6.298
     -80.15419000,26.42273333,6.398
     -80.15415500,26.42273000,5.898
     -80.15411833,26.42272667,5.598
     -80.15408000,26.42272667,5.499
     -80.15404667,26.42273167,5.799
     -80.15401333,26.42273500,6.099
     -80.15398167,26.42273667,6.599
     -80.15395333,26.42273833,6.699
     -80.15392000,26.42273833,8.399
     -80.15388667,26.42273833,8.399
     -80.15385000,26.42273500,8.299
     -80.15382167,26.42273667,8.400
     -80.15379500,26.42273833,8.300
     -80.15376667,26.42273000,9.400
     -80.15373833,26.42272833,10.000
     -80.15370833,26.42273000,10.500
     -80.15368167,26.42273333,10.200
     -80.15365000,26.42273500,10.100
     -80.15361833,26.42273833,10.300
     -80.15358667,26.42274167,10.801
     -80.15355667,26.42273833,10.801
     -80.15352667,26.42273833,11.201
     -80.15349833,26.42273833,11.401
     -80.15347167,26.42273667,11.501
     -80.15344167,26.42273333,12.201
     -80.15341833,26.42272833,12.501
     -80.15339000,26.42272500,12.601
     -80.15336500,26.42272333,12.901
     -80.15334333,26.42272000,12.702
     -80.15332833,26.42271333,12.102
     -80.15331167,26.42271167,11.802
     -80.15329833,26.42271000,11.402
     -80.15328667,26.42271000,11.702
     -80.15328000,26.42271167,11.802
     -80.15327667,26.42271000,11.902
     -80.15327167,26.42271000,11.902
     -80.15327167,26.42270833,11.902
     -80.15327167,26.42270667,12.002
     -80.15327000,26.42270500,11.902
     -80.15326833,26.42270500,11.802
     -80.15326833,26.42270500,11.702
     -80.15326833,26.42270333,11.702
     -80.15326833,26.42270000,11.602
     -80.15326833,26.42270000,11.602
     -80.15326833,26.42270000,11.602
     -80.15326833,26.42270000,11.602
     -80.15326833,26.42270000,11.602
     -80.15325500,26.42269833,12.202
     -80.15324333,26.42270167,12.402
     -80.15323667,26.42270333,12.702
     -80.15322833,26.42270833,12.902
     -80.15322500,26.42271500,13.102
     -80.15322000,26.42271667,13.302
     -80.15321833,26.42271833,13.902
     -80.15321667,26.42271833,14.302
     -80.15321500,26.42272000,14.702
     -80.15321500,26.42271833,14.702
     -80.15321667,26.42272000,14.702
     -80.15321667,26.42272000,14.802
     -80.15321667,26.42272000,14.902
     -80.15321667,26.42272167,15.102
     -80.15321667,26.42272167,15.102
     -80.15321667,26.42272167,15.102
     -80.15321667,26.42272167,15.102
     -80.15321667,26.42272167,15.102
     -80.15321667,26.42272167,15.102
     -80.15321667,26.42272167,15.102
     -80.15321667,26.42272167,15.102
     -80.15323000,26.42272333,15.502
     -80.15323167,26.42272167,15.402
     -80.15323333,26.42271833,15.402
     -80.15323833,26.42271667,15.402
     -80.15324667,26.42271500,15.502
     -80.15325000,26.42271167,15.502
     -80.15325000,26.42270667,15.602
     -80.15325167,26.42270500,15.602
     -80.15325000,26.42270000,15.702
     -80.15325167,26.42269833,15.602
     -80.15325167,26.42269833,15.902
     -80.15325167,26.42269667,16.102
     -80.15325333,26.42269333,16.402
     -80.15325333,26.42269333,16.402
     -80.15325333,26.42269333,16.402
     -80.15325333,26.42269333,16.402
     -80.15325333,26.42269333,16.402
     -80.15325333,26.42269333,16.402
     -80.15325333,26.42269333,16.402
     -80.15325333,26.42269333,16.402
     -80.15325333,26.42269333,16.402
     -80.15325333,26.42269333,16.402
     -80.15325333,26.42269333,16.402
     -80.15325333,26.42269333,16.402
     -80.15325333,26.42269333,16.402
     -80.15325333,26.42269333,16.402
     -80.15325333,26.42269333,16.402
     -80.15325333,26.42269333,16.402
     -80.15325333,26.42269333,16.402
     -80.15325333,26.42269333,16.402
     -80.15325333,26.42269333,16.402
     -80.15325333,26.42269333,16.402
     -80.15325333,26.42269333,16.402
     -80.15325333,26.42269333,16.402
     -80.15325333,26.42269333,16.402
     -80.15325333,26.42269333,16.402
     -80.15325333,26.42269333,16.402
     -80.15325333,26.42269333,16.402
     -80.15325333,26.42269333,16.402
     -80.15325333,26.42269333,16.402
     -80.15325333,26.42269333,16.402
     -80.15325333,26.42269333,16.402
     -80.15325333,26.42269333,16.402
     -80.15325333,26.42269333,16.402
     -80.15325333,26.42269333,16.402
     -80.15325333,26.42269333,16.402
     -80.15327000,26.42269667,14.702
     -80.15325833,26.42269667,14.602
     -80.15324167,26.42270000,14.602
     -80.15323500,26.42271000,14.802
     -80.15323000,26.42272500,14.902
     -80.15323167,26.42274167,15.202
     -80.15322500,26.42275167,15.602
     -80.15321667,26.42276667,15.602
     -80.15321500,26.42278000,15.602
     -80.15321333,26.42279333,15.402
     -80.15321000,26.42280667,14.802
     -80.15320667,26.42282000,14.402
     -80.15321167,26.42283000,14.102
     -80.15322000,26.42284333,14.402
     -80.15322500,26.42285833,14.402
     -80.15322500,26.42287167,14.402
     -80.15323333,26.42288500,13.902
     -80.15323667,26.42289500,13.202
     -80.15323833,26.42290500,12.502
     -80.15324333,26.42291333,12.102
     -80.15324000,26.42292500,12.102
     -80.15323667,26.42293333,12.202
     -80.15323333,26.42294333,12.202
     -80.15323000,26.42295333,12.002
     -80.15322500,26.42296333,12.002
     -80.15322333,26.42297333,12.302
     -80.15322167,26.42298500,12.302
     -80.15321667,26.42299833,12.102
     -80.15321000,26.42301500,11.402
     -80.15320500,26.42302500,11.502
     -80.15320167,26.42303333,11.702
     -80.15319667,26.42304167,11.702
     -80.15319500,26.42305167,11.402
     -80.15320000,26.42306167,11.102
     -80.15320667,26.42306667,11.202
     -80.15321167,26.42307333,11.102
     -80.15320667,26.42308000,11.402
     -80.15320333,26.42309167,12.702
     -80.15320667,26.42310500,13.102
     -80.15321500,26.42312500,13.302
     -80.15322500,26.42314167,12.702
     -80.15322833,26.42315500,12.402
     -80.15323333,26.42317000,11.702
     -80.15322833,26.42318333,11.202
     -80.15322667,26.42319833,10.502
     -80.15323000,26.42321000,10.202
     -80.15323167,26.42322167,9.702
     -80.15323000,26.42322833,9.802
     -80.15322833,26.42323833,10.102
     -80.15322667,26.42324833,10.302
     -80.15322500,26.42326000,10.002
     -80.15322000,26.42327333,9.902
     -80.15321167,26.42328333,10.002
     -80.15320833,26.42329167,10.102
     -80.15319167,26.42330000,10.103
     -80.15317500,26.42330333,9.003
     -80.15316000,26.42331000,8.903
     -80.15315000,26.42331000,9.203
     -80.15314167,26.42331167,9.203
     -80.15313333,26.42331667,9.003
     -80.15312000,26.42332167,9.003
     -80.15310833,26.42332000,9.003
     -80.15309667,26.42332000,9.103
     -80.15309000,26.42332500,9.103
     -80.15307833,26.42333167,9.003
     -80.15306333,26.42333833,8.903
     -80.15304500,26.42334333,8.803
     -80.15303167,26.42335667,9.003
     -80.15302167,26.42336667,9.303
     -80.15301000,26.42337333,9.803
     -80.15299667,26.42337500,10.103
     -80.15298833,26.42338000,10.303
     -80.15297667,26.42338500,10.303
     -80.15296500,26.42338833,10.304
     -80.15295167,26.42339667,10.504
     -80.15294000,26.42340333,10.804
     -80.15292833,26.42340833,11.104
     -80.15291333,26.42341333,11.304
     -80.15290500,26.42341833,11.304
     -80.15289167,26.42342833,11.404
     -80.15288167,26.42343500,11.804
     -80.15287167,26.42344333,11.604
     -80.15286000,26.42344667,11.804
     -80.15284500,26.42345167,11.304
     -80.15283333,26.42345667,11.304
     -80.15282500,26.42346333,11.504
     -80.15281667,26.42346667,11.604
     -80.15280833,26.42347167,11.904
     -80.15279667,26.42347667,12.004
     -80.15278833,26.42349000,12.004
     -80.15278833,26.42350667,11.504
     -80.15278833,26.42352167,11.504
     -80.15279000,26.42353167,11.404
     -80.15279667,26.42354000,10.904
     -80.15279833,26.42354833,11.004
     -80.15279833,26.42356167,11.204
     -80.15280167,26.42357333,11.504
     -80.15280167,26.42358500,11.604
     -80.15280333,26.42359500,11.804
     -80.15280333,26.42360667,12.204
     -80.15280500,26.42361667,12.604
     -80.15280333,26.42362667,13.004
     -80.15280000,26.42363333,12.904
     -80.15280000,26.42364000,12.804
     -80.15280333,26.42364167,12.804
     -80.15280667,26.42364167,12.704
     -80.15280667,26.42364833,12.804
     -80.15281000,26.42365333,12.804
     -80.15281167,26.42365833,13.104
     -80.15281333,26.42366167,13.304
     -80.15281500,26.42366333,13.404
     -80.15281833,26.42366333,13.204
     -80.15282000,26.42367000,12.904
     -80.15282167,26.42367667,12.604
     -80.15282333,26.42367833,12.204
     -80.15282667,26.42368333,11.704
     -80.15282500,26.42368833,11.404
     -80.15282500,26.42369167,11.304
     -80.15282500,26.42369167,11.304
     -80.15282500,26.42369167,11.304
     -80.15282500,26.42369167,11.304
     -80.15282500,26.42369167,11.304
     -80.15282500,26.42369167,11.304
     -80.15282500,26.42369167,11.304
     -80.15282500,26.42369167,11.304
     -80.15282500,26.42369167,11.304
     -80.15282500,26.42369167,11.304
     -80.15282500,26.42369167,11.304
     -80.15282500,26.42369167,11.304
     -80.15282500,26.42369167,11.304
     -80.15282500,26.42369167,11.304
     -80.15282500,26.42369167,11.304
     -80.15282500,26.42369167,11.304
     -80.15282500,26.42369167,11.304
     -80.15282500,26.42369167,11.304
     -80.15282500,26.42369167,11.304
     -80.15282500,26.42369167,11.304
     -80.15282500,26.42369167,11.304
     -80.15282500,26.42369167,11.304
     -80.15281500,26.42369667,12.604
     -80.15281833,26.42370333,12.604
     -80.15282167,26.42371000,12.804
     -80.15282333,26.42371000,12.804
     -80.15282333,26.42371000,12.604
     -80.15282500,26.42371333,12.504
     -80.15282667,26.42371167,12.404
     -80.15282667,26.42371167,12.304
     -80.15282833,26.42371167,12.304
     -80.15282833,26.42371167,12.304
     -80.15282833,26.42371167,12.304
     -80.15282833,26.42371167,12.304
    </coordinates>
   </LineString>
  </Placemark>

 </Document>
</kml>
 