<?xml version="1.0" encoding="UTF-8"?>
<!-- Created with BasicAirData GPS Logger for Android - ver. 3.3.0 -->
<!-- Track 15 = 442 TrackPoints + 4 Placemarks -->
<kml xmlns="http://www.opengis.net/kml/2.2">
 <Document>
  <name>GPS Logger 20260724-113714</name>
  <description><![CDATA[Station3-Maintenance
442 Trackpoints + 4 Placemarks]]></description>
  <Style id="TrackStyle">
   <LineStyle>
    <color>ff0000ff</color>
    <width>3</width>
   </LineStyle>
   <PolyStyle>
    <color>7f0000ff</color>
   </PolyStyle>
   <BalloonStyle>
    <text><![CDATA[<p style="color:red;font-weight:bold">$[name]</p><p style="font-size:11px">$[description]</p><p style="font-size:7px">Track Stats based on: Total time | Time in Movement</p>]]></text>
   </BalloonStyle>
  </Style>
  <Style id="PlacemarkStyle">
   <IconStyle>
    <Icon><href>http://maps.google.com/mapfiles/kml/shapes/placemark_circle_highlight.png</href></Icon>
   </IconStyle>
  </Style>

  <Placemark id="1">
   <name>Station3</name>
   <styleUrl>#PlacemarkStyle</styleUrl>
   <Point>
    <altitudeMode>clampToGround</altitudeMode>
    <coordinates>-80.17014500,26.41657500,8.229</coordinates>
    <extrude>1</extrude>
   </Point>
  </Placemark>

  <Placemark id="2">
   <name>Int16</name>
   <styleUrl>#PlacemarkStyle</styleUrl>
   <Point>
    <altitudeMode>clampToGround</altitudeMode>
    <coordinates>-80.16730000,26.41624167,9.040</coordinates>
    <extrude>1</extrude>
   </Point>
  </Placemark>

  <Placemark id="3">
   <name>Int17</name>
   <styleUrl>#PlacemarkStyle</styleUrl>
   <Point>
    <altitudeMode>clampToGround</altitudeMode>
    <coordinates>-80.16586500,26.41535333,5.446</coordinates>
    <extrude>1</extrude>
   </Point>
  </Placemark>

  <Placemark id="4">
   <name>Maintenance</name>
   <styleUrl>#PlacemarkStyle</styleUrl>
   <Point>
    <altitudeMode>clampToGround</altitudeMode>
    <coordinates>-80.16456500,26.41604833,15.252</coordinates>
    <extrude>1</extrude>
   </Point>
  </Placemark>

  <Placemark id="20260724-113714">
   <name>Track 20260724-113714</name>
   <description><![CDATA[<b>Station3-Maintenance</b><br><br>Distance = 841 m<br>Duration = 07:21 | 04:19<br>Altitude Gap = 7 m<br>Max Speed = 14 mph<br>Avg Speed = 4.3 | 7.3 mph<br>Direction = E <br><br><i>442 Trackpoints</i>]]></description>
   <styleUrl>#TrackStyle</styleUrl>
   <LineString>
    <extrude>0</extrude>
    <tessellate>0</tessellate>
    <altitudeMode>clampToGround</altitudeMode>
    <coordinates>
     -80.17014333,26.41659000,8.429
     -80.17014667,26.41658500,8.429
     -80.17014500,26.41657833,8.229
     -80.17014500,26.41657500,8.229
     -80.17014500,26.41657333,8.129
     -80.17014833,26.41657167,8.129
     -80.17014833,26.41657000,8.129
     -80.17014833,26.41656833,8.129
     -80.17014833,26.41656833,8.229
     -80.17015000,26.41656833,8.229
     -80.17015000,26.41657000,8.229
     -80.17015167,26.41657000,8.329
     -80.17015333,26.41657000,8.429
     -80.17015333,26.41657167,8.529
     -80.17015333,26.41657333,8.529
     -80.17015500,26.41657333,8.629
     -80.17015500,26.41657500,8.729
     -80.17015500,26.41657500,8.829
     -80.17015500,26.41657500,8.929
     -80.17015333,26.41657333,8.929
     -80.17015333,26.41657000,8.829
     -80.17015500,26.41657167,8.929
     -80.17015667,26.41657000,9.129
     -80.17015833,26.41657000,8.929
     -80.17015667,26.41656667,8.829
     -80.17015667,26.41656667,9.029
     -80.17015500,26.41656500,8.929
     -80.17015500,26.41656500,8.929
     -80.17015500,26.41656500,8.929
     -80.17015500,26.41656500,8.929
     -80.17015500,26.41656500,8.929
     -80.17015500,26.41656500,8.929
     -80.17015500,26.41656500,8.929
     -80.17015500,26.41656500,8.929
     -80.17015500,26.41656500,8.929
     -80.17015500,26.41656500,8.929
     -80.17015500,26.41656500,8.929
     -80.17015500,26.41656500,8.929
     -80.17015500,26.41656500,8.929
     -80.17015500,26.41656500,8.929
     -80.17015500,26.41656500,8.929
     -80.17015500,26.41656500,8.929
     -80.17015500,26.41656500,8.929
     -80.17015500,26.41656500,8.929
     -80.17015500,26.41656500,8.929
     -80.17015500,26.41656500,8.929
     -80.17015500,26.41656500,8.929
     -80.17015500,26.41656500,8.929
     -80.17015500,26.41656500,8.929
     -80.17015500,26.41656500,8.929
     -80.17015500,26.41656500,8.929
     -80.17015500,26.41656500,8.929
     -80.17015500,26.41656500,8.929
     -80.17015500,26.41656500,8.929
     -80.17015500,26.41656500,8.929
     -80.17015500,26.41656500,8.929
     -80.17015500,26.41656500,8.929
     -80.17015500,26.41656500,8.929
     -80.17015500,26.41656500,8.929
     -80.17015500,26.41656500,8.929
     -80.17015500,26.41656500,8.929
     -80.17015500,26.41656500,8.929
     -80.17015500,26.41656500,8.929
     -80.17015500,26.41656500,8.929
     -80.17015500,26.41656500,8.929
     -80.17015500,26.41656500,8.929
     -80.17015500,26.41656500,8.929
     -80.17015500,26.41656500,8.929
     -80.17015500,26.41656500,8.929
     -80.17015500,26.41656500,8.929
     -80.17015500,26.41656500,8.929
     -80.17015500,26.41656500,8.929
     -80.17015500,26.41656500,8.929
     -80.17015500,26.41656500,8.929
     -80.17015500,26.41656500,8.929
     -80.17015500,26.41656500,8.929
     -80.17015500,26.41656500,8.929
     -80.17015500,26.41656500,8.929
     -80.17015500,26.41656500,8.929
     -80.17015500,26.41656500,8.929
     -80.17015500,26.41656500,8.929
     -80.17015500,26.41656500,8.929
     -80.17015500,26.41656500,8.929
     -80.17015500,26.41656500,8.929
     -80.17015500,26.41656500,8.929
     -80.17015500,26.41656500,8.929
     -80.17015500,26.41656500,8.929
     -80.17015500,26.41656500,8.929
     -80.17015500,26.41656500,8.929
     -80.17012667,26.41658167,3.729
     -80.17011000,26.41660000,3.629
     -80.17008500,26.41661167,3.429
     -80.17004833,26.41660833,3.029
     -80.17001167,26.41660500,3.330
     -80.16998333,26.41658000,3.530
     -80.16996167,26.41655500,3.630
     -80.16996167,26.41652500,3.530
     -80.16996833,26.41649833,3.930
     -80.16999667,26.41648000,4.030
     -80.17002667,26.41647000,4.729
     -80.17006000,26.41647167,5.329
     -80.17010000,26.41647333,6.529
     -80.17013500,26.41646333,7.329
     -80.17015000,26.41644833,7.029
     -80.17015500,26.41643167,6.629
     -80.17014833,26.41641167,6.729
     -80.17014500,26.41639167,6.629
     -80.17014000,26.41637333,5.829
     -80.17013333,26.41636333,5.329
     -80.17012167,26.41635500,5.229
     -80.17012167,26.41634667,5.229
     -80.17012000,26.41633500,5.229
     -80.17011667,26.41632500,5.029
     -80.17011500,26.41631667,4.729
     -80.17011333,26.41631500,4.529
     -80.17011167,26.41631000,4.329
     -80.17011167,26.41631167,4.229
     -80.17011000,26.41631333,4.229
     -80.17010667,26.41631333,4.429
     -80.17010667,26.41631333,4.629
     -80.17010833,26.41631333,4.629
     -80.17010833,26.41631333,4.729
     -80.17010500,26.41630500,4.729
     -80.17009167,26.41629167,4.729
     -80.17006500,26.41627000,5.029
     -80.17002333,26.41626000,4.629
     -80.16998333,26.41625500,4.329
     -80.16993333,26.41626167,4.130
     -80.16988167,26.41627000,3.730
     -80.16983000,26.41628000,3.330
     -80.16978000,26.41629000,2.830
     -80.16973000,26.41629833,2.631
     -80.16968500,26.41630000,2.231
     -80.16964333,26.41630667,2.131
     -80.16960167,26.41630667,2.031
     -80.16956500,26.41631167,2.531
     -80.16953167,26.41631500,2.531
     -80.16950500,26.41631667,2.531
     -80.16948500,26.41631500,2.432
     -80.16947167,26.41631500,2.532
     -80.16945833,26.41631333,2.632
     -80.16944333,26.41631333,2.232
     -80.16943667,26.41631333,2.032
     -80.16943500,26.41631500,2.032
     -80.16943333,26.41631667,2.632
     -80.16943167,26.41631667,2.532
     -80.16943000,26.41631833,2.632
     -80.16942833,26.41631833,2.832
     -80.16942667,26.41631667,3.032
     -80.16942500,26.41631667,3.232
     -80.16942167,26.41631667,3.332
     -80.16942000,26.41631833,3.432
     -80.16942000,26.41631833,3.432
     -80.16942000,26.41631833,3.432
     -80.16942000,26.41631833,3.432
     -80.16942000,26.41631833,3.432
     -80.16942000,26.41631833,3.432
     -80.16942000,26.41631833,3.432
     -80.16942000,26.41631833,3.432
     -80.16942000,26.41631833,3.432
     -80.16942000,26.41631833,3.432
     -80.16942000,26.41631833,3.432
     -80.16942000,26.41631833,3.432
     -80.16942000,26.41631833,3.432
     -80.16942000,26.41631833,3.432
     -80.16942000,26.41631833,3.432
     -80.16942000,26.41631833,3.432
     -80.16942000,26.41631833,3.432
     -80.16942000,26.41631833,3.432
     -80.16942000,26.41631833,3.432
     -80.16942000,26.41631833,3.432
     -80.16942000,26.41631833,3.432
     -80.16942000,26.41631833,3.432
     -80.16942000,26.41631833,3.432
     -80.16942000,26.41631833,3.432
     -80.16942000,26.41631833,3.432
     -80.16942000,26.41631833,3.432
     -80.16942000,26.41631833,3.432
     -80.16942000,26.41631833,3.432
     -80.16942000,26.41631833,3.432
     -80.16942000,26.41631833,3.432
     -80.16942000,26.41631833,3.432
     -80.16942000,26.41631833,3.432
     -80.16942000,26.41631833,3.432
     -80.16942000,26.41631833,3.432
     -80.16942000,26.41631833,3.432
     -80.16942000,26.41631833,3.432
     -80.16942000,26.41631833,3.432
     -80.16942000,26.41631833,3.432
     -80.16942000,26.41631833,3.432
     -80.16942000,26.41631833,3.432
     -80.16942000,26.41631833,3.432
     -80.16942000,26.41631833,3.432
     -80.16942000,26.41631833,3.432
     -80.16942000,26.41631833,3.432
     -80.16942000,26.41631833,3.432
     -80.16942000,26.41631833,3.432
     -80.16942000,26.41631833,3.432
     -80.16938667,26.41633000,8.132
     -80.16936000,26.41632500,8.032
     -80.16933000,26.41632000,8.032
     -80.16929667,26.41631333,7.932
     -80.16926000,26.41630667,8.032
     -80.16922667,26.41630167,8.333
     -80.16919167,26.41629833,8.233
     -80.16915500,26.41629333,8.333
     -80.16911667,26.41628833,8.333
     -80.16907667,26.41628167,8.233
     -80.16903667,26.41627500,7.833
     -80.16899667,26.41627000,7.534
     -80.16895667,26.41626833,7.234
     -80.16891500,26.41626667,7.334
     -80.16887167,26.41626667,7.534
     -80.16882667,26.41626833,7.534
     -80.16878500,26.41626333,6.934
     -80.16874000,26.41625833,6.835
     -80.16870167,26.41624667,6.335
     -80.16867500,26.41623500,4.935
     -80.16864167,26.41623000,4.535
     -80.16860500,26.41622500,4.635
     -80.16856333,26.41622667,3.935
     -80.16852167,26.41622833,3.935
     -80.16848167,26.41622833,4.336
     -80.16843833,26.41623000,4.336
     -80.16839667,26.41623500,4.336
     -80.16835333,26.41623500,4.336
     -80.16830833,26.41623333,4.536
     -80.16826167,26.41623167,4.437
     -80.16821167,26.41623667,3.937
     -80.16817000,26.41624833,4.337
     -80.16812833,26.41626667,5.137
     -80.16809500,26.41628333,5.337
     -80.16806667,26.41629833,4.937
     -80.16803500,26.41631667,5.137
     -80.16800667,26.41633000,5.538
     -80.16797667,26.41635000,6.338
     -80.16795167,26.41636667,6.538
     -80.16792333,26.41638667,6.538
     -80.16788667,26.41641167,6.538
     -80.16785000,26.41644000,6.438
     -80.16781000,26.41647000,6.539
     -80.16777000,26.41650333,6.639
     -80.16773500,26.41653333,6.439
     -80.16770500,26.41656333,6.439
     -80.16767667,26.41659000,6.439
     -80.16764500,26.41661667,6.439
     -80.16760833,26.41662333,6.539
     -80.16757333,26.41662333,6.440
     -80.16754833,26.41660667,6.640
     -80.16752833,26.41658667,6.340
     -80.16751167,26.41655500,5.840
     -80.16749667,26.41652167,5.740
     -80.16748167,26.41648833,5.740
     -80.16746333,26.41645333,5.840
     -80.16744333,26.41642000,6.240
     -80.16742000,26.41638833,6.740
     -80.16739833,26.41635500,7.540
     -80.16737833,26.41632000,7.840
     -80.16735333,26.41629000,8.240
     -80.16733500,26.41626167,8.440
     -80.16732000,26.41624667,8.540
     -80.16731000,26.41624167,9.240
     -80.16730333,26.41624333,9.340
     -80.16730000,26.41624167,9.040
     -80.16730000,26.41624167,9.040
     -80.16730000,26.41624167,9.040
     -80.16730000,26.41624167,9.040
     -80.16730000,26.41624167,9.040
     -80.16730000,26.41624167,9.040
     -80.16730000,26.41624167,9.040
     -80.16730000,26.41624167,9.040
     -80.16730000,26.41624167,9.040
     -80.16730000,26.41624167,9.040
     -80.16730000,26.41624167,9.040
     -80.16730000,26.41624167,9.040
     -80.16730000,26.41624167,9.040
     -80.16730000,26.41624167,9.040
     -80.16730000,26.41624167,9.040
     -80.16730000,26.41624167,9.040
     -80.16729167,26.41622167,7.741
     -80.16726833,26.41620833,8.341
     -80.16724667,26.41619333,8.941
     -80.16722667,26.41617500,9.141
     -80.16720333,26.41615667,9.141
     -80.16717167,26.41613667,9.441
     -80.16713000,26.41610667,10.341
     -80.16709667,26.41608167,10.441
     -80.16707167,26.41605333,10.641
     -80.16704500,26.41602667,10.841
     -80.16701833,26.41599833,10.942
     -80.16699167,26.41596167,11.142
     -80.16696000,26.41592833,11.142
     -80.16691833,26.41589667,11.142
     -80.16687667,26.41586333,10.942
     -80.16682833,26.41583333,10.542
     -80.16678167,26.41580167,9.442
     -80.16673167,26.41577333,8.043
     -80.16667833,26.41574500,7.543
     -80.16662167,26.41571833,6.843
     -80.16656333,26.41569167,6.543
     -80.16650500,26.41566333,6.243
     -80.16644667,26.41563833,5.844
     -80.16639000,26.41561000,5.344
     -80.16633333,26.41558167,4.944
     -80.16627500,26.41555500,4.544
     -80.16621667,26.41552667,4.145
     -80.16616167,26.41550167,3.945
     -80.16611000,26.41547500,4.045
     -80.16606167,26.41545333,3.745
     -80.16601500,26.41543000,3.245
     -80.16597833,26.41541500,3.245
     -80.16594667,26.41540167,2.746
     -80.16592667,26.41539000,3.346
     -80.16591167,26.41537500,3.546
     -80.16589667,26.41536333,4.546
     -80.16588667,26.41535500,4.946
     -80.16587833,26.41535167,5.346
     -80.16587333,26.41535000,5.546
     -80.16586833,26.41535167,5.446
     -80.16586500,26.41535333,5.446
     -80.16586333,26.41535500,5.546
     -80.16586167,26.41535500,5.746
     -80.16586000,26.41535333,5.946
     -80.16585833,26.41535500,6.046
     -80.16585833,26.41535500,6.146
     -80.16585667,26.41535500,6.246
     -80.16585667,26.41535500,6.246
     -80.16585667,26.41535500,6.246
     -80.16583833,26.41534333,6.846
     -80.16581333,26.41532167,6.746
     -80.16578333,26.41530000,6.746
     -80.16575333,26.41527833,6.746
     -80.16572667,26.41526167,6.646
     -80.16570667,26.41524833,6.746
     -80.16568667,26.41524000,6.947
     -80.16565833,26.41523167,6.547
     -80.16562667,26.41521833,5.847
     -80.16558833,26.41520000,5.747
     -80.16555000,26.41518167,5.047
     -80.16550500,26.41516167,5.047
     -80.16546500,26.41513667,4.647
     -80.16542167,26.41511333,4.448
     -80.16537667,26.41509333,4.448
     -80.16533500,26.41507333,4.648
     -80.16529667,26.41505167,4.548
     -80.16525667,26.41503167,4.648
     -80.16522000,26.41501000,4.948
     -80.16519167,26.41498333,5.448
     -80.16517000,26.41495667,5.749
     -80.16516500,26.41492500,5.949
     -80.16516833,26.41489500,6.049
     -80.16517000,26.41486833,5.848
     -80.16516333,26.41484667,5.949
     -80.16515000,26.41482500,6.749
     -80.16512000,26.41481000,6.349
     -80.16508667,26.41479833,5.849
     -80.16504833,26.41479833,5.649
     -80.16501333,26.41481333,5.349
     -80.16498833,26.41483333,4.949
     -80.16496833,26.41485833,4.649
     -80.16496167,26.41488167,4.249
     -80.16495333,26.41490333,3.949
     -80.16494500,26.41491500,3.649
     -80.16494833,26.41493500,3.549
     -80.16494667,26.41496167,1.449
     -80.16495667,26.41499333,0.049
     -80.16494500,26.41504000,0.250
     -80.16490667,26.41506500,-0.450
     -80.16488667,26.41510000,0.150
     -80.16486667,26.41513000,-0.250
     -80.16485167,26.41515167,-0.250
     -80.16482833,26.41518333,0.250
     -80.16481333,26.41520833,0.850
     -80.16480500,26.41523833,1.050
     -80.16481167,26.41526833,0.750
     -80.16482667,26.41530833,0.550
     -80.16484167,26.41534500,0.150
     -80.16485667,26.41538000,-0.250
     -80.16487333,26.41542000,-0.650
     -80.16489000,26.41546333,-0.350
     -80.16490333,26.41550667,-0.250
     -80.16491000,26.41555333,0.850
     -80.16491667,26.41560167,1.450
     -80.16493167,26.41564500,1.850
     -80.16493333,26.41569000,2.350
     -80.16492667,26.41573500,2.950
     -80.16491000,26.41577500,3.350
     -80.16488833,26.41581167,3.750
     -80.16486667,26.41584667,4.350
     -80.16484500,26.41587333,4.750
     -80.16483000,26.41588500,4.750
     -80.16481667,26.41589667,4.751
     -80.16481500,26.41590667,5.251
     -80.16480500,26.41591000,5.951
     -80.16479500,26.41592167,5.751
     -80.16478333,26.41592333,5.951
     -80.16477167,26.41592667,5.951
     -80.16475500,26.41593833,5.351
     -80.16475000,26.41594667,5.351
     -80.16474333,26.41595667,5.651
     -80.16473833,26.41596500,6.251
     -80.16473333,26.41597167,6.251
     -80.16472833,26.41597500,6.551
     -80.16472333,26.41597833,6.851
     -80.16471667,26.41598167,7.051
     -80.16471000,26.41598667,7.151
     -80.16470500,26.41599000,7.151
     -80.16469000,26.41598333,7.651
     -80.16468000,26.41598333,8.551
     -80.16466833,26.41598167,9.051
     -80.16466333,26.41598167,9.451
     -80.16465333,26.41599167,9.551
     -80.16464500,26.41600500,10.051
     -80.16464000,26.41601167,10.451
     -80.16464000,26.41601833,10.651
     -80.16464000,26.41602333,10.751
     -80.16464000,26.41602833,11.351
     -80.16464167,26.41603167,11.551
     -80.16463833,26.41603833,12.051
     -80.16463167,26.41604667,12.351
     -80.16462167,26.41605667,12.651
     -80.16461500,26.41606667,12.951
     -80.16461333,26.41607500,13.151
     -80.16460500,26.41607167,13.351
     -80.16459833,26.41606833,13.752
     -80.16459333,26.41606500,14.052
     -80.16459000,26.41606333,14.052
     -80.16458500,26.41606500,13.952
     -80.16458000,26.41606333,14.152
     -80.16457500,26.41606000,14.552
     -80.16457167,26.41605667,14.752
     -80.16456667,26.41605167,14.952
     -80.16456500,26.41604833,15.252
     -80.16456500,26.41604833,15.252
     -80.16456500,26.41604833,15.252
     -80.16456500,26.41604833,15.252
     -80.16456500,26.41604833,15.252
     -80.16456500,26.41604833,15.252
     -80.16456500,26.41604833,15.252
     -80.16456500,26.41604833,15.252
     -80.16456500,26.41604833,15.252
     -80.16456500,26.41604833,15.252
    </coordinates>
   </LineString>
  </Placemark>

 </Document>
</kml>
 