{
"type": "FeatureCollection",
"name": "Compactor_ST_3",
"crs": { "type": "name", "properties": { "name": "urn:ogc:def:crs:OGC:1.3:CRS84" } },
"features": [
{"type":"Feature","properties":{"name":"Track 20260718-125025","cmt":null,"desc":null,"src":null,"link1_href":null,"link1_text":null,"link1_type":null,"link2_href":null,"link2_text":null,"link2_type":null,"number":null,"type":null},"geometry":{"type":"MultiLineString","coordinates":[[[-80.164565,26.41607333,28.052],[-80.164565,26.41607333,28.052],[-80.164565,26.41607333,28.052],[-80.164565,26.41607333,28.052],[-80.164565,26.41607333,28.052],[-80.164565,26.41607333,28.052],[-80.164565,26.41607333,28.052],[-80.164565,26.41607333,28.052],[-80.164565,26.41607333,28.052],[-80.164565,26.41607333,28.052],[-80.164565,26.41607333,28.052],[-80.164565,26.41607333,28.052],[-80.164565,26.41607333,28.052],[-80.164565,26.41607333,28.052],[-80.16454167,26.41607,26.752],[-80.16454,26.41606833,26.052],[-80.16454167,26.41606667,25.352],[-80.16454333,26.41606333,24.752],[-80.16454333,26.41606333,24.752],[-80.16454333,26.416055,23.652],[-80.16454667,26.41605667,23.152],[-80.16455,26.41604833,22.852],[-80.16455833,26.41605167,22.652],[-80.16456667,26.41605167,22.552],[-80.16457333,26.41605,22.552],[-80.16458167,26.41605,22.452],[-80.16458833,26.41604833,22.252],[-80.164595,26.41604833,22.052],[-80.16460167,26.41604833,21.851],[-80.164605,26.41604833,21.751],[-80.164605,26.41604833,21.651],[-80.16460667,26.41604667,21.551],[-80.16460667,26.41604333,21.851],[-80.16460667,26.41604333,21.851],[-80.16460667,26.41604333,21.851],[-80.16460667,26.41604333,21.851],[-80.16460667,26.41604333,21.851],[-80.16460667,26.41604333,21.851],[-80.16460667,26.41604333,21.851],[-80.16460667,26.41604333,21.851],[-80.16460667,26.41604333,21.851],[-80.16460667,26.41604333,21.851],[-80.16460667,26.41604333,21.851],[-80.16460667,26.41604333,21.851],[-80.16460667,26.41604333,21.851],[-80.16460667,26.41604333,21.851],[-80.16460667,26.41604333,21.851],[-80.16460667,26.41604333,21.851],[-80.16460667,26.41604333,21.851],[-80.16460667,26.41604333,21.851],[-80.16460667,26.41604333,21.851],[-80.16456667,26.41607333,20.152],[-80.16456667,26.41606833,20.352],[-80.16456667,26.41606667,20.452],[-80.16456667,26.416065,20.052],[-80.164565,26.41605667,20.352],[-80.164565,26.41605667,20.352],[-80.164565,26.41605667,20.352],[-80.164565,26.41605667,20.352],[-80.164565,26.41605667,20.352],[-80.164565,26.41605667,20.352],[-80.164565,26.41605667,20.352],[-80.164565,26.41605667,20.352],[-80.164565,26.41605667,20.352],[-80.164565,26.41605667,20.352],[-80.16454,26.41606333,17.852],[-80.16453333,26.41606667,17.652],[-80.16452833,26.41606833,17.452],[-80.16452667,26.416075,17.552],[-80.16453167,26.41608333,17.352],[-80.16453667,26.41608833,17.652],[-80.16454333,26.41609,17.652],[-80.16454333,26.41609,17.652],[-80.164555,26.416095,17.152],[-80.16455667,26.41609833,16.952],[-80.16456333,26.41609667,16.452],[-80.16457,26.41609667,16.252],[-80.16457667,26.41609,16.052],[-80.16458667,26.41608333,15.552],[-80.16459667,26.41608,15.352],[-80.16459833,26.41607167,15.052],[-80.1646,26.416075,14.452],[-80.164595,26.416075,14.152],[-80.16459167,26.416075,14.152],[-80.16458833,26.416075,14.152],[-80.16458167,26.41607667,14.152],[-80.16458167,26.41608333,13.952],[-80.16458,26.41608333,13.952],[-80.16458,26.41608667,13.952],[-80.16458,26.41608667,13.952],[-80.16458,26.41608667,13.952],[-80.16458,26.41608667,13.952],[-80.16458,26.41608667,13.952],[-80.16458,26.41608667,13.952],[-80.16458,26.41608667,13.952],[-80.16458,26.41608667,13.952],[-80.16458,26.41608667,13.952],[-80.16458,26.41608667,13.952],[-80.16458,26.41608667,13.952],[-80.16458,26.41608667,13.952],[-80.16458,26.41608667,13.952],[-80.16458,26.41608667,13.952],[-80.16458,26.41608667,13.952],[-80.16458,26.41608667,13.952],[-80.16458,26.41608667,13.952],[-80.16458,26.41608667,13.952],[-80.16458,26.41608667,13.952],[-80.16458,26.41608667,13.952],[-80.16458,26.41608667,13.952],[-80.16458,26.41608667,13.952],[-80.16458,26.41608667,13.952],[-80.16458,26.41608667,13.952],[-80.16458,26.41608667,13.952],[-80.16458,26.41608667,13.952],[-80.16458,26.41608667,13.952],[-80.16458,26.41608667,13.952],[-80.16458,26.41608667,13.952],[-80.16458,26.41608667,13.952],[-80.16458,26.41608667,13.952],[-80.16458,26.41608667,13.952],[-80.16458,26.41608667,13.952],[-80.16458,26.41608667,13.952],[-80.16458,26.41608667,13.952],[-80.16458,26.41608667,13.952],[-80.16458,26.41608667,13.952],[-80.16458,26.41608667,13.952],[-80.16458,26.41608667,13.952],[-80.16458,26.41608667,13.952],[-80.16458,26.41608667,13.952],[-80.16458,26.41608667,13.952],[-80.16458,26.41608667,13.952],[-80.16458,26.41608667,13.952],[-80.16458,26.41608667,13.952],[-80.16458,26.41608667,13.952],[-80.16458,26.41608667,13.952],[-80.16458,26.41608667,13.952],[-80.16458,26.41608667,13.952],[-80.16458,26.41608667,13.952],[-80.16458,26.41608667,13.952],[-80.16458,26.41608667,13.952],[-80.16458,26.41608667,13.952],[-80.16458,26.41608667,13.952],[-80.16458,26.41608667,13.952],[-80.16458,26.41608667,13.952],[-80.16458,26.41608667,13.952],[-80.16458,26.41608667,13.952],[-80.16458,26.41608667,13.952],[-80.16458,26.41608667,13.952],[-80.16458,26.41608667,13.952],[-80.16458,26.41608667,13.952],[-80.16458,26.41608667,13.952],[-80.16458,26.41608667,13.952],[-80.16458,26.41608667,13.952],[-80.16458,26.41608667,13.952],[-80.16458,26.41608667,13.952],[-80.16458,26.41608667,13.952],[-80.16458,26.41608667,13.952],[-80.16458,26.41608667,13.952],[-80.16458,26.41608667,13.952],[-80.16458,26.41608667,13.952],[-80.16458,26.41608667,13.952],[-80.16458,26.41608667,13.952],[-80.16458,26.41608667,13.952],[-80.16458,26.41608667,13.952],[-80.16458,26.41608667,13.952],[-80.16458,26.41608667,13.952],[-80.16458,26.41608667,13.952],[-80.16458,26.41608667,13.952],[-80.16458,26.41608667,13.952],[-80.16463333,26.41606667,13.151],[-80.16464167,26.41606,13.151],[-80.16465333,26.41605667,13.051],[-80.16465667,26.41605167,12.751],[-80.16466167,26.41604333,13.051],[-80.16466667,26.41603,12.851],[-80.16467167,26.41601833,13.151],[-80.16467667,26.41600333,13.151],[-80.16468833,26.41599167,13.151],[-80.16470333,26.41598333,13.251],[-80.16470667,26.41598167,13.051],[-80.16471333,26.41597833,13.351],[-80.164715,26.41596333,13.251],[-80.16471167,26.41595333,13.151],[-80.16471,26.41593667,13.151],[-80.16470333,26.415925,12.751],[-80.1647,26.41591333,12.651],[-80.16470167,26.41589833,13.351],[-80.1647,26.41588167,13.751],[-80.16469833,26.41586333,14.751],[-80.16469833,26.41584667,14.651],[-80.16469833,26.41583167,14.951],[-80.164695,26.415815,15.351],[-80.16469833,26.41579833,15.451],[-80.16469833,26.41577833,15.851],[-80.16469833,26.41575833,15.651],[-80.16470167,26.41573333,15.151],[-80.16470167,26.41571,14.851],[-80.16470333,26.41568667,14.451],[-80.16470167,26.41566333,14.051],[-80.16469833,26.41564167,13.251],[-80.16469333,26.415625,13.151],[-80.16468833,26.4156,13.451],[-80.16468333,26.41558,13.551],[-80.16467833,26.41556,13.451],[-80.16467167,26.41554,12.851],[-80.16466167,26.41552,12.251],[-80.16465,26.41549167,11.651],[-80.16464,26.415465,10.951],[-80.16462667,26.41544,10.351],[-80.16460667,26.415415,9.551],[-80.16459,26.41539167,8.451],[-80.16457167,26.41537,7.551],[-80.16454833,26.41535,6.651],[-80.16452333,26.415325,6.451],[-80.16449833,26.41530333,6.452],[-80.164475,26.41528333,6.252],[-80.16445333,26.41526333,6.452],[-80.16443,26.41524667,6.852],[-80.16440333,26.41523333,7.152],[-80.16437167,26.41522167,7.952],[-80.16434167,26.41521333,8.552],[-80.16431167,26.41520333,8.752],[-80.16428333,26.41519833,9.052],[-80.16425333,26.41519333,9.352],[-80.16422333,26.41518667,9.553],[-80.16419167,26.41518167,10.053],[-80.16416333,26.41517833,10.153],[-80.16414,26.41517833,9.753],[-80.16410833,26.41517167,9.053],[-80.16407667,26.41517333,9.153],[-80.16404667,26.41517333,9.453],[-80.16401833,26.415175,9.353],[-80.16399,26.41518,8.954],[-80.16396667,26.415185,8.854],[-80.16394333,26.415195,9.154],[-80.16392333,26.41520333,9.054],[-80.1639,26.41521,9.154],[-80.16388333,26.415215,9.254],[-80.16386667,26.41522,8.954],[-80.16385333,26.415225,8.854],[-80.16384333,26.41523,8.954],[-80.16383167,26.41523333,8.854],[-80.16381833,26.41523,9.154],[-80.16381,26.41522667,9.154],[-80.16379333,26.41521167,9.254],[-80.16377667,26.41519,8.954],[-80.163765,26.41517167,8.754],[-80.16375,26.41515,8.655],[-80.16374167,26.415135,8.455],[-80.16373167,26.41513333,8.555],[-80.163725,26.41513333,8.755],[-80.16372,26.41513333,8.555],[-80.163715,26.41513333,8.355],[-80.16371167,26.41513333,8.055],[-80.16371,26.415135,7.855],[-80.16371,26.415135,7.655],[-80.16370833,26.41513333,7.355],[-80.16370833,26.41513333,7.355],[-80.16370833,26.41512833,7.255],[-80.16370833,26.41512167,7.355],[-80.163705,26.41511167,7.355],[-80.16369667,26.41509167,7.355],[-80.16368833,26.415065,7.455],[-80.16367833,26.41504333,7.655],[-80.16366167,26.41502,7.555],[-80.16364167,26.41499667,7.555],[-80.16362667,26.41497167,7.855],[-80.16361,26.41494667,7.755],[-80.16359333,26.41492167,7.755],[-80.16357833,26.41489833,7.755],[-80.16356167,26.41487667,7.755],[-80.163545,26.41485667,7.855],[-80.16353333,26.41484,7.355],[-80.16352833,26.41483333,6.755],[-80.16352333,26.41482667,6.855],[-80.16352,26.414825,6.655],[-80.16352,26.41482667,6.455],[-80.16352,26.414825,6.455],[-80.16352,26.41482333,6.455],[-80.16352167,26.41482,6.555],[-80.16352,26.41481167,6.555],[-80.16351667,26.41479833,6.755],[-80.16351833,26.41478333,6.755],[-80.16351667,26.414765,6.655],[-80.16351833,26.41474833,6.555],[-80.16352,26.414735,6.455],[-80.163525,26.41471833,6.155],[-80.16353333,26.41470167,5.855],[-80.16354333,26.414685,5.955],[-80.163555,26.41466667,6.155],[-80.16356333,26.41465,6.455],[-80.163575,26.41463167,6.455],[-80.16358667,26.41461333,6.955],[-80.163595,26.41459667,7.155],[-80.163605,26.41458,7.555],[-80.16361667,26.41457,7.855],[-80.163625,26.41456167,7.855],[-80.16363667,26.41455333,7.755],[-80.16365,26.41454667,7.455],[-80.16366667,26.41454167,7.355],[-80.163685,26.41453833,7.154],[-80.16370167,26.41453833,7.054],[-80.16371667,26.41454,6.554],[-80.16373333,26.41454333,6.454],[-80.16375333,26.41455,6.354],[-80.16377,26.414555,6.554],[-80.16378833,26.41456,6.454],[-80.16381,26.41456667,6.554],[-80.16382833,26.41457333,6.254],[-80.16384667,26.41458,6.154],[-80.163865,26.41458667,6.154],[-80.16388667,26.41459167,6.254],[-80.163905,26.41459667,6.154],[-80.16392333,26.41460333,6.053],[-80.16394333,26.41461,5.753],[-80.163965,26.41461167,5.453],[-80.163985,26.41461667,5.553],[-80.164,26.41462167,5.553],[-80.16401667,26.41463,5.553],[-80.164035,26.41463667,5.353],[-80.164055,26.41464333,5.453],[-80.16407167,26.41465,5.353],[-80.16408833,26.41465333,5.353],[-80.16410333,26.41466167,4.953],[-80.16411833,26.41467,5.353],[-80.16414167,26.41467833,4.553],[-80.16416667,26.41468833,3.953],[-80.16418667,26.41469833,4.252],[-80.16420167,26.41470833,4.552],[-80.16421833,26.41471667,4.552],[-80.16423667,26.414725,4.852],[-80.16426333,26.41473,4.752],[-80.16428667,26.41474,5.252],[-80.16431167,26.41475167,5.152],[-80.16434,26.41476167,5.152],[-80.16436833,26.414775,5.152],[-80.16439667,26.41478667,5.152],[-80.16442667,26.41480333,5.252],[-80.16445833,26.41482,5.351],[-80.16448833,26.414835,5.251],[-80.164515,26.41485167,5.251],[-80.16454333,26.41486667,5.251],[-80.16457,26.414885,5.451],[-80.16459833,26.414905,5.951],[-80.16462833,26.41492333,6.351],[-80.16465833,26.41493667,7.451],[-80.16468667,26.41494667,8.251],[-80.16471,26.414955,9.25],[-80.16473833,26.41496833,10.25],[-80.16476333,26.41497833,11.25],[-80.16478833,26.41499167,12.25],[-80.16481167,26.415005,13.25],[-80.16483333,26.41501667,14.05],[-80.16485667,26.41503,14.55],[-80.164875,26.41504167,14.35],[-80.1649,26.41505333,13.45],[-80.16492833,26.41506833,12.45],[-80.16496,26.41508667,11.949],[-80.16499333,26.41509833,11.949],[-80.165025,26.41510833,11.749],[-80.16505,26.415115,11.149],[-80.16507167,26.41512,10.849],[-80.16509667,26.41512667,9.649],[-80.16512,26.41513333,8.849],[-80.16514333,26.41514167,8.049],[-80.16517167,26.415155,7.649],[-80.16519833,26.41516667,6.549],[-80.16523167,26.41518,6.248],[-80.16526667,26.41519167,5.848],[-80.16529833,26.415205,5.748],[-80.16533,26.41521833,5.948],[-80.16536167,26.41523167,6.248],[-80.16539167,26.415245,6.448],[-80.16542,26.41525667,6.448],[-80.16545167,26.41527,6.948],[-80.16548167,26.415285,7.247],[-80.16551167,26.4153,7.647],[-80.16553667,26.41531167,7.647],[-80.16556333,26.41532333,7.547],[-80.16559,26.41533667,8.547],[-80.16561333,26.41534333,8.647],[-80.16563167,26.41535333,8.447],[-80.16565,26.415365,8.747],[-80.16567,26.41537,9.447],[-80.16568333,26.41537667,9.547],[-80.1657,26.41538667,10.147],[-80.16572333,26.415395,11.447],[-80.165745,26.41540667,11.846],[-80.16576667,26.41541667,11.946],[-80.16579167,26.415425,12.046],[-80.16581167,26.41543667,11.446],[-80.16584,26.41544833,11.146],[-80.16587,26.41546167,10.846],[-80.165905,26.41547833,10.946],[-80.16593667,26.41549167,10.646],[-80.165965,26.415505,10.246],[-80.16599333,26.41552,9.845],[-80.16602333,26.41553667,9.745],[-80.16605833,26.41555167,9.745],[-80.16609333,26.41556333,9.745],[-80.16612667,26.41557333,10.045],[-80.16615667,26.41558667,9.845],[-80.16618833,26.4156,10.145],[-80.16621667,26.415615,9.945],[-80.16624833,26.41563167,9.944],[-80.16627833,26.41565,9.544],[-80.16630333,26.415665,9.544],[-80.16632833,26.41568333,9.144],[-80.16635667,26.41570333,8.444],[-80.16638833,26.41572167,8.244],[-80.16641667,26.415735,8.144],[-80.16644667,26.41575,8.144],[-80.16647833,26.41576833,8.644],[-80.16651,26.415785,8.643],[-80.16653833,26.4158,8.743],[-80.16656833,26.41581667,9.643],[-80.16659667,26.41583,9.443],[-80.16662333,26.41584667,9.343],[-80.16665,26.41586333,9.443],[-80.16667333,26.41587667,9.443],[-80.16669167,26.41588833,9.443],[-80.16671833,26.415905,9.743],[-80.166745,26.41591667,9.643],[-80.166775,26.415935,9.342],[-80.16680333,26.41595167,9.742],[-80.16683167,26.41596667,9.942],[-80.16685833,26.41598167,10.142],[-80.166875,26.416005,10.242],[-80.16690333,26.41603333,10.542],[-80.16693167,26.41605667,10.742],[-80.16695,26.41607333,10.442],[-80.16697333,26.41609,10.342],[-80.16700167,26.41610667,9.942],[-80.16702833,26.41612667,9.742],[-80.16705167,26.41614833,9.641],[-80.16707,26.41617,9.541],[-80.16708833,26.41619333,9.141],[-80.16710667,26.41622333,8.841],[-80.167125,26.41625167,8.841],[-80.16714333,26.41628,9.341],[-80.16715667,26.41630667,9.941],[-80.16717167,26.416335,9.941],[-80.16719167,26.41636333,10.141],[-80.16721,26.41638333,10.741],[-80.16723167,26.41641,11.041],[-80.167255,26.41643333,11.941],[-80.16727667,26.41645667,12.141],[-80.16730167,26.416485,12.241],[-80.16731667,26.41651,12.441],[-80.16732833,26.416535,12.041],[-80.16733333,26.41655667,12.041],[-80.16733833,26.41658833,12.041],[-80.16735833,26.41661833,12.04],[-80.16737,26.416645,12.04],[-80.16738333,26.41667333,11.94],[-80.16739667,26.41670333,11.24],[-80.16741,26.41673,11.04],[-80.16742167,26.41676167,10.54],[-80.16743167,26.41679667,10.34],[-80.16744,26.41682667,10.24],[-80.16745167,26.41686167,10.34],[-80.16745833,26.416895,10.44],[-80.16746833,26.416925,10.04],[-80.16747333,26.416955,9.84],[-80.16747833,26.41698333,9.84],[-80.16748333,26.41701,9.54],[-80.16748833,26.41703667,9.44],[-80.16749333,26.41706667,9.14],[-80.16749,26.41708667,8.14],[-80.16748833,26.41711167,7.74],[-80.16749333,26.41713833,7.44],[-80.16749833,26.41716,7.44],[-80.16750167,26.417185,7.84],[-80.16750167,26.41721333,7.44],[-80.16750333,26.41723833,7.34],[-80.16749833,26.41726167,7.04],[-80.16750333,26.41728833,7.04],[-80.167505,26.41731,7.04],[-80.16752,26.41733333,7.14],[-80.16753667,26.41735833,7.54],[-80.16755333,26.417375,8.14],[-80.16756333,26.417375,7.34],[-80.16758,26.41737167,7.14],[-80.167595,26.41735667,7.24],[-80.167605,26.41733,6.94],[-80.167605,26.41730667,6.54],[-80.16760667,26.41728,6.04],[-80.16760833,26.41725167,5.84],[-80.16760667,26.417225,5.94],[-80.16761167,26.41719833,6.34],[-80.167605,26.417175,7.44],[-80.16760833,26.41714667,8.64],[-80.16760833,26.41711667,9.44],[-80.167605,26.41709,9.34],[-80.1676,26.41706333,9.34],[-80.16759667,26.41703333,9.04],[-80.16759333,26.41700833,9.14],[-80.16759,26.41698333,9.14],[-80.167585,26.41696167,9.14],[-80.16758167,26.41694,9.14],[-80.16758167,26.41692,8.64],[-80.16758833,26.416905,8.44],[-80.16759667,26.41689167,8.94],[-80.16760167,26.41688667,9.74],[-80.16761,26.41687167,10.74],[-80.16761667,26.41685,11.24],[-80.167625,26.41682833,11.339],[-80.167635,26.41680833,11.439],[-80.16764833,26.41678667,11.339],[-80.16766,26.41676,11.039],[-80.167665,26.41673333,10.739],[-80.16767,26.41670833,10.239],[-80.16767,26.41668333,10.439],[-80.16767,26.41666,10.639],[-80.16766833,26.41663667,10.439],[-80.16766667,26.41661167,10.439],[-80.16766833,26.41658667,10.339],[-80.16767667,26.41656167,10.539],[-80.16769,26.41654333,9.939],[-80.16770333,26.41652333,9.239],[-80.16772667,26.41650667,8.339],[-80.16774833,26.41649167,7.539],[-80.167775,26.41647333,7.039],[-80.16780167,26.41645833,6.839],[-80.167825,26.41644333,6.838],[-80.16785,26.41642833,6.738],[-80.167875,26.416415,6.538],[-80.16790167,26.416405,6.538],[-80.16793,26.41639167,6.838],[-80.16795167,26.416375,5.938],[-80.16797167,26.41635833,6.038],[-80.16798667,26.41633833,5.938],[-80.16800833,26.41631667,6.138],[-80.168035,26.416295,6.037],[-80.16806333,26.41627833,5.737],[-80.16809667,26.41626333,5.237],[-80.16812833,26.41625333,4.837],[-80.16817,26.41625167,3.837],[-80.168205,26.41624667,3.337],[-80.16823667,26.41624333,3.437],[-80.16827,26.41623833,3.236],[-80.1683,26.41623833,3.136],[-80.16833,26.41624167,3.036],[-80.16835833,26.416245,3.136],[-80.16838833,26.41625,3.436],[-80.16841833,26.41625,3.536],[-80.16844833,26.41625167,3.536],[-80.16848167,26.41625167,3.536],[-80.16851333,26.41625,3.735],[-80.168545,26.41625167,3.535],[-80.168575,26.416255,3.735],[-80.16860667,26.41625333,3.935],[-80.168635,26.416245,4.035],[-80.16866667,26.41625333,4.435],[-80.1687,26.41626,4.335],[-80.16873333,26.41626833,4.635],[-80.16876833,26.41627833,4.534],[-80.16880667,26.41628333,4.534],[-80.16884333,26.41628667,4.734],[-80.16888167,26.41628667,4.734],[-80.168915,26.41628833,4.534],[-80.16894667,26.416285,4.934],[-80.16898667,26.416295,6.334],[-80.16901667,26.41629,7.033],[-80.16904667,26.41629,6.933],[-80.16907833,26.41628833,7.033],[-80.16910833,26.41628833,7.233],[-80.16914,26.41629,7.233],[-80.16917333,26.41629,7.433],[-80.16920833,26.41629167,7.633],[-80.16923667,26.41629667,7.533],[-80.16926667,26.41630167,7.332],[-80.16929833,26.416305,7.432],[-80.16933333,26.41631167,7.432],[-80.16936667,26.41631833,7.532],[-80.16939833,26.41632333,7.532],[-80.16943167,26.41633167,7.732],[-80.169465,26.416335,7.732],[-80.169495,26.416335,7.731],[-80.16952,26.41633,5.431],[-80.16954833,26.41632667,4.931],[-80.16957667,26.41632333,4.531],[-80.169605,26.416325,4.031],[-80.169635,26.41632,4.131],[-80.169665,26.41631833,4.031],[-80.16969667,26.41631667,3.831],[-80.16972833,26.416315,3.731],[-80.16976167,26.41631167,3.53],[-80.16979333,26.41630667,3.43],[-80.169825,26.41630167,3.23],[-80.16985833,26.416295,3.23],[-80.16988833,26.41628667,3.13],[-80.16992,26.41628,3.33],[-80.16995167,26.41627333,3.43],[-80.16998167,26.41627,3.929],[-80.17001,26.41627,4.029],[-80.17003333,26.41627167,5.729],[-80.17005,26.41627833,7.029],[-80.17006667,26.41629,7.729],[-80.17008833,26.416305,8.229],[-80.17010167,26.41631667,8.529],[-80.170115,26.416335,8.629],[-80.17012833,26.41635667,9.029],[-80.17013833,26.41637833,9.429],[-80.17015,26.4164,8.729],[-80.170155,26.41642333,8.629],[-80.170155,26.41644,8.629],[-80.170155,26.41645833,8.929],[-80.17015167,26.41647833,9.229],[-80.17015,26.4165,9.629],[-80.17015,26.41652,9.829],[-80.17015,26.41653667,10.029],[-80.17014833,26.416555,10.129],[-80.17014833,26.41656833,10.229],[-80.17014833,26.41657333,9.729],[-80.17014667,26.41657167,9.529],[-80.17014667,26.41657,9.129],[-80.17014667,26.41656833,8.929],[-80.170145,26.41656667,8.729],[-80.17014333,26.41656667,8.629],[-80.17014333,26.416565,8.429],[-80.17014333,26.416565,8.329],[-80.170145,26.41656667,8.529],[-80.17014833,26.41656667,8.929],[-80.17014833,26.41656667,8.929],[-80.17014833,26.41656667,8.929],[-80.17014833,26.41656667,8.929],[-80.17014833,26.41656667,8.929],[-80.17014833,26.41656667,8.929],[-80.17014833,26.41656667,8.929],[-80.17014833,26.41656667,8.929],[-80.17014833,26.41656667,8.929],[-80.17014833,26.41656667,8.929],[-80.17014833,26.41656667,8.929],[-80.17014833,26.41656667,8.929],[-80.17014833,26.41656667,8.929],[-80.17014833,26.41656667,8.929],[-80.17014833,26.41656667,8.929],[-80.17014833,26.41656667,8.929],[-80.17014833,26.41656667,8.929],[-80.17014833,26.41656667,8.929],[-80.17014833,26.41656667,8.929],[-80.17014833,26.41656667,8.929],[-80.17014833,26.41656667,8.929],[-80.17014833,26.41656667,8.929],[-80.17014833,26.41656667,8.929],[-80.17014833,26.41656667,8.929],[-80.17014833,26.41656667,8.929],[-80.17014833,26.41656667,8.929],[-80.17014833,26.41656667,8.929],[-80.17014833,26.41656667,8.929],[-80.17014833,26.41656667,8.929],[-80.17014833,26.41656667,8.929],[-80.17014833,26.41656667,8.929],[-80.17014833,26.41656667,8.929],[-80.17014833,26.41656667,8.929],[-80.17014833,26.41656667,8.929],[-80.17014833,26.41656667,8.929],[-80.17014833,26.41656667,8.929],[-80.17014833,26.41656667,8.929],[-80.17014833,26.41656667,8.929],[-80.17014833,26.41656667,8.929],[-80.17014833,26.41656667,8.929],[-80.17014833,26.41656667,8.929],[-80.17014833,26.41656667,8.929],[-80.17014833,26.41656667,8.929],[-80.17014833,26.41656667,8.929],[-80.17014833,26.41656667,8.929],[-80.17014833,26.41656667,8.929],[-80.17014833,26.41656667,8.929],[-80.17014833,26.41656667,8.929],[-80.17014833,26.41656667,8.929],[-80.17014833,26.41656667,8.929],[-80.17014833,26.41656667,8.929],[-80.17014833,26.41656667,8.929],[-80.17014833,26.41656667,8.929],[-80.17014833,26.41656667,8.929],[-80.17014833,26.41656667,8.929],[-80.17014833,26.41656667,8.929],[-80.17014833,26.41656667,8.929],[-80.17014833,26.41656667,8.929],[-80.17014833,26.41656667,8.929],[-80.17014833,26.41656667,8.929],[-80.17014833,26.41656667,8.929],[-80.17014833,26.41656667,8.929],[-80.17014833,26.41656667,8.929],[-80.17014833,26.41656667,8.929],[-80.17014833,26.41656667,8.929],[-80.17014833,26.41656667,8.929],[-80.17014833,26.41656667,8.929],[-80.17014833,26.41656667,8.929],[-80.17014833,26.41656667,8.929],[-80.17014833,26.41656667,8.929],[-80.17014833,26.41656667,8.929],[-80.17014833,26.41656667,8.929],[-80.17014833,26.41656667,8.929],[-80.17014833,26.41656667,8.929],[-80.17014833,26.41656667,8.929],[-80.17014833,26.41656667,8.929],[-80.17014833,26.41656667,8.929],[-80.17014833,26.41656667,8.929],[-80.17014833,26.41656667,8.929],[-80.17014833,26.41656667,8.929],[-80.17014833,26.41656667,8.929],[-80.17014833,26.41656667,8.929],[-80.17014833,26.41656667,8.929],[-80.17014833,26.41656667,8.929],[-80.17014833,26.41656667,8.929],[-80.17014833,26.41656667,8.929],[-80.17014833,26.41656667,8.929],[-80.17014833,26.41656667,8.929],[-80.17014833,26.41656667,8.929],[-80.17014833,26.41656667,8.929],[-80.17014833,26.41656667,8.929],[-80.17014833,26.41656667,8.929],[-80.17014833,26.41656667,8.929],[-80.17014833,26.41656667,8.929],[-80.17014833,26.41656667,8.929],[-80.17014833,26.41656667,8.929],[-80.17014833,26.41656667,8.929],[-80.17014833,26.41656667,8.929],[-80.17014833,26.41656667,8.929],[-80.17014833,26.41656667,8.929],[-80.17014833,26.41656667,8.929],[-80.17014833,26.41656667,8.929],[-80.17014833,26.41656667,8.929],[-80.17014833,26.41656667,8.929],[-80.17014833,26.41656667,8.929],[-80.17014833,26.41656667,8.929],[-80.17014833,26.41656667,8.929],[-80.17014833,26.41656667,8.929],[-80.17014833,26.41656667,8.929],[-80.17014833,26.41656667,8.929],[-80.17014833,26.41656667,8.929],[-80.17014833,26.41656667,8.929],[-80.17014833,26.41656667,8.929],[-80.17014833,26.41656667,8.929],[-80.17014833,26.41656667,8.929],[-80.17014833,26.41656667,8.929],[-80.17014833,26.41656667,8.929],[-80.17014833,26.41656667,8.929],[-80.17014833,26.41656667,8.929],[-80.17014833,26.41656667,8.929],[-80.17014833,26.41656667,8.929],[-80.17014833,26.41656667,8.929],[-80.17014833,26.41656667,8.929],[-80.17014833,26.41656667,8.929],[-80.17014833,26.41656667,8.929],[-80.17014833,26.41656667,8.929],[-80.17014833,26.41656667,8.929],[-80.17014833,26.41656667,8.929],[-80.17014833,26.41656667,8.929],[-80.17014833,26.41656667,8.929],[-80.17014833,26.41656667,8.929],[-80.17014833,26.41656667,8.929],[-80.17014833,26.41656667,8.929],[-80.17014833,26.41656667,8.929],[-80.17014833,26.41656667,8.929],[-80.17014833,26.41656667,8.929],[-80.17014833,26.41656667,8.929],[-80.17014833,26.41656667,8.929],[-80.17014833,26.41656667,8.929],[-80.17014833,26.41656667,8.929],[-80.17014833,26.41656667,8.929],[-80.17014833,26.41656667,8.929],[-80.17014833,26.41656667,8.929],[-80.17014833,26.41656667,8.929],[-80.17014833,26.41656667,8.929],[-80.17014833,26.41656667,8.929],[-80.17014833,26.41656667,8.929],[-80.17014833,26.41656667,8.929],[-80.17014833,26.41656667,8.929],[-80.17014833,26.41656667,8.929],[-80.17014833,26.41656667,8.929],[-80.17014833,26.41656667,8.929],[-80.17014833,26.41656667,8.929],[-80.17014833,26.41656667,8.929],[-80.17014833,26.41656667,8.929],[-80.17014833,26.41656667,8.929],[-80.17014833,26.41656667,8.929],[-80.17014833,26.41656667,8.929],[-80.17014833,26.41656667,8.929],[-80.17014833,26.41656667,8.929],[-80.17014833,26.41656667,8.929],[-80.17014833,26.41656667,8.929],[-80.17014833,26.41656667,8.929],[-80.17014833,26.41656667,8.929],[-80.17014833,26.41656667,8.929],[-80.17014833,26.41656667,8.929],[-80.17014833,26.41656667,8.929],[-80.17014833,26.41656667,8.929],[-80.17014833,26.41656667,8.929],[-80.17014833,26.41656667,8.929],[-80.17014833,26.41656667,8.929],[-80.17014833,26.41656667,8.929],[-80.17014833,26.41656667,8.929],[-80.17014833,26.41656667,8.929],[-80.17014833,26.41656667,8.929],[-80.17014833,26.41656667,8.929],[-80.17014833,26.41656667,8.929],[-80.17014833,26.41656667,8.929],[-80.17014833,26.41656667,8.929],[-80.17014833,26.41656667,8.929],[-80.17014833,26.41656667,8.929],[-80.17014833,26.41656667,8.929],[-80.17014833,26.41656667,8.929],[-80.17014833,26.41656667,8.929],[-80.17014833,26.41656667,8.929],[-80.17014833,26.41656667,8.929],[-80.17014833,26.41656667,8.929],[-80.17014833,26.41656667,8.929],[-80.17014833,26.41656667,8.929],[-80.17014833,26.41656667,8.929],[-80.17014833,26.41656667,8.929],[-80.17014833,26.41656667,8.929],[-80.17014833,26.41656667,8.929],[-80.17014833,26.41656667,8.929],[-80.17014833,26.41656667,8.929],[-80.17014833,26.41656667,8.929],[-80.17014833,26.41656667,8.929],[-80.17014833,26.41656667,8.929],[-80.17014833,26.41656667,8.929],[-80.17014833,26.41656667,8.929],[-80.17014833,26.41656667,8.929],[-80.17014833,26.41656667,8.929],[-80.17014833,26.41656667,8.929],[-80.17014833,26.41656667,8.929],[-80.17014833,26.41656667,8.929],[-80.17014833,26.41656667,8.929],[-80.17014833,26.41656667,8.929],[-80.17014833,26.41656667,8.929],[-80.17014833,26.41656667,8.929],[-80.17014833,26.41656667,8.929],[-80.17014833,26.41656667,8.929],[-80.17014833,26.41656667,8.929],[-80.17014833,26.41656667,8.929],[-80.17014833,26.41656667,8.929],[-80.17014833,26.41656667,8.929],[-80.17014833,26.41656667,8.929],[-80.17014833,26.41656667,8.929],[-80.17014833,26.41656667,8.929],[-80.17014833,26.41656667,8.929],[-80.170125,26.41657,16.429],[-80.17012333,26.41657167,16.429],[-80.17012333,26.41657,16.529],[-80.17012167,26.41656833,16.629],[-80.17012167,26.41656833,16.629],[-80.17012167,26.41656833,16.629],[-80.17012167,26.41656833,16.629],[-80.17012167,26.41656833,16.629],[-80.17012167,26.41656833,16.629],[-80.17012167,26.41656833,16.629],[-80.17012167,26.41656833,16.629],[-80.17012167,26.41656833,16.629],[-80.17012167,26.41656833,16.629],[-80.17012167,26.41656833,16.629],[-80.17012167,26.41656833,16.629],[-80.17012167,26.41656833,16.629],[-80.17012167,26.41656833,16.629],[-80.17012167,26.41656833,16.629],[-80.17012167,26.41656833,16.629],[-80.17012167,26.41656833,16.629],[-80.17012167,26.41656833,16.629],[-80.17012167,26.41656833,16.629],[-80.17012167,26.41656833,16.629],[-80.17012167,26.41656833,16.629],[-80.17012167,26.41656833,16.629],[-80.17012167,26.41656833,16.629],[-80.17012167,26.41656833,16.629],[-80.17012167,26.41656833,16.629],[-80.17012167,26.41656833,16.629],[-80.17012167,26.41656833,16.629],[-80.17012167,26.41656833,16.629],[-80.17012167,26.41656833,16.629],[-80.17012167,26.41656833,16.629],[-80.17012167,26.41656833,16.629],[-80.17012167,26.41656833,16.629],[-80.17012167,26.41656833,16.629],[-80.17012167,26.41656833,16.629],[-80.17012167,26.41656833,16.629],[-80.17012167,26.41656833,16.629],[-80.17012167,26.41656833,16.629],[-80.17012167,26.41656833,16.629],[-80.17012167,26.41656833,16.629],[-80.17012167,26.41656833,16.629],[-80.17012167,26.41656833,16.629],[-80.17012167,26.41656833,16.629],[-80.17012167,26.41656833,16.629],[-80.17012167,26.41656833,16.629],[-80.17012167,26.41656833,16.629],[-80.17012167,26.41656833,16.629],[-80.17012167,26.41656833,16.629],[-80.17012167,26.41656833,16.629],[-80.17012167,26.41656833,16.629],[-80.17012167,26.41656833,16.629],[-80.17012167,26.41656833,16.629],[-80.17012167,26.41656833,16.629],[-80.17012167,26.41656833,16.629],[-80.17012167,26.41656833,16.629],[-80.17012167,26.41656833,16.629],[-80.17012167,26.41656833,16.629],[-80.17012167,26.41656833,16.629],[-80.17012167,26.41656833,16.629],[-80.17012167,26.41656833,16.629],[-80.17012167,26.41656833,16.629],[-80.17012167,26.41656833,16.629],[-80.17012167,26.41656833,16.629],[-80.17012167,26.41656833,16.629],[-80.17012167,26.41656833,16.629],[-80.17012167,26.41656833,16.629],[-80.17012167,26.41656833,16.629],[-80.17012167,26.41656833,16.629],[-80.17012167,26.41656833,16.629],[-80.17012167,26.41656833,16.629],[-80.17012167,26.41656833,16.629],[-80.17012167,26.41656833,16.629],[-80.17012167,26.41656833,16.629],[-80.17012167,26.41656833,16.629],[-80.17012167,26.41656833,16.629],[-80.17012167,26.41656833,16.629],[-80.17012167,26.41656833,16.629],[-80.17012167,26.41656833,16.629],[-80.17012167,26.41656833,16.629],[-80.17012167,26.41656833,16.629],[-80.17012167,26.41656833,16.629],[-80.17012167,26.41656833,16.629],[-80.17012167,26.41656833,16.629],[-80.17012167,26.41656833,16.629],[-80.17012167,26.41656833,16.629],[-80.17012167,26.41656833,16.629],[-80.17012167,26.41656833,16.629],[-80.17012167,26.41656833,16.629],[-80.17012167,26.41656833,16.629],[-80.17012167,26.41656833,16.629],[-80.17012167,26.41656833,16.629],[-80.17012167,26.41656833,16.629],[-80.17012167,26.41656833,16.629],[-80.17012167,26.41656833,16.629],[-80.17012167,26.41656833,16.629],[-80.17012167,26.41656833,16.629],[-80.17012167,26.41656833,16.629],[-80.17012167,26.41656833,16.629],[-80.17012167,26.41656833,16.629],[-80.17012167,26.41656833,16.629],[-80.17012167,26.41656833,16.629],[-80.17012167,26.41656833,16.629],[-80.17012167,26.41656833,16.629],[-80.17012167,26.41656833,16.629],[-80.17012167,26.41656833,16.629],[-80.17012167,26.41656833,16.629],[-80.17012167,26.41656833,16.629],[-80.17012167,26.41656833,16.629],[-80.17012167,26.41656833,16.629],[-80.17012167,26.41656833,16.629],[-80.17012167,26.41656833,16.629],[-80.17012167,26.41656833,16.629],[-80.17012167,26.41656833,16.629],[-80.17012167,26.41656833,16.629],[-80.17012167,26.41656833,16.629],[-80.17012167,26.41656833,16.629],[-80.17012167,26.41656833,16.629],[-80.17012167,26.41656833,16.629],[-80.17012167,26.41656833,16.629],[-80.17012167,26.41656833,16.629],[-80.17012167,26.41656833,16.629],[-80.17012167,26.41656833,16.629],[-80.17012167,26.41656833,16.629],[-80.17012167,26.41656833,16.629],[-80.17012167,26.41656833,16.629],[-80.17012167,26.41656833,16.629],[-80.17012167,26.41656833,16.629],[-80.17012167,26.41656833,16.629],[-80.17012167,26.41656833,16.629],[-80.17012167,26.41656833,16.629],[-80.17012167,26.41656833,16.629]]]}}
]
}
