{
"type": "FeatureCollection",
"name": "Site4",
"crs": { "type": "name", "properties": { "name": "urn:ogc:def:crs:OGC:1.3:CRS84" } },
"features": [
{"type":"Feature","properties":{"ele":23.158,"time":"2026-07-18T17:58:00Z","magvar":null,"geoidheight":null,"name":"Site4","cmt":null,"desc":null,"src":null,"url":null,"urlname":null,"sym":null,"type":null,"fix":null,"sat":15,"hdop":null,"vdop":null,"pdop":null,"ageofdgpsdata":null,"dgpsid":null},"geometry":{"type":"Point","coordinates":[-80.16283833,26.41454833,23.158]}}
]
}
