<?xml version="1.0" encoding="UTF-8"?>
<!-- Created with BasicAirData GPS Logger for Android - ver. 3.3.0 -->
<!-- Track 4 = 2336 TrackPoints + 2 Placemarks -->

<!-- Track Statistics (based on Total Time | Time in Movement): -->
<!--  Distance = 4.35 km -->
<!--  Duration = 38:55 | 33:56 -->
<!--  Altitude Gap = 3 m -->
<!--  Max Speed = 12 mph -->
<!--  Avg Speed = 4.2 | 4.8 mph -->
<!--  Direction = SW -->
<!--  Activity = running -->
<!--  Altitudes = Corrected using EGM96 grid (bilinear interpolation) -->

<gpx version="1.0"
     creator="BasicAirData GPS Logger 3.3.0"
     xmlns="http://www.topografix.com/GPX/1/0"
     xmlns:xsi="http://www.w3.org/2001/XMLSchema-instance"
     xsi:schemaLocation="http://www.topografix.com/GPX/1/0 http://www.topografix.com/GPX/1/0/gpx.xsd">
<name>GPS Logger 20260718-091510</name>
<desc>ST-1-2_A</desc>
<time>2026-07-21T17:17:53Z</time>
<keywords>running</keywords>
<bounds minlat="26.40956167" minlon="-80.17082000" maxlat="26.42364500" maxlon="-80.15241667" />

<wpt lat="26.40988833" lon="-80.16668333"><ele>11.839</ele><time>2026-07-18T13:53:51Z</time><name>Station 2</name><sat>17</sat></wpt>

</gpx>